 2019  1 3 0055 26.1 L  10.282 -68.094 13.8  FUN  6 0.5 3.0WFUN                1
 SPEC AVERAGE  MO 13.5 ST 14.0 OM  2.6 f0 4.61 R0.2701 AL 0.83 WI 18.8 MW  3.0 3
 SPEC SD       MO  0.2 ST 14.0 OM  0.2 f0 1.02 R0.0597 AL      WI      MW  0.2 3
 GAP=188        1.26       5.1     2.4  4.8 -0.4609E+01 -0.1862E+01 -0.1827E+01E
 SPEC TERVHH N MO 13.7 ST 14.5 OM  2.6 f0 4.86 R0.2436 AL 1.15 WI 19.6 MW  3.1 3
 SPEC TERVHH N T 05559 K 0.020 GD  125 VS 3.20 DE 2.60 Q0 65.0 QA 1.10 Q1 1.00 3
 SPEC TACVHH N MO 13.5 ST  5.7 OM  2.4 f0 4.19 R0.2826 AL 0.71 WI 18.6 MW  2.9 3
 SPEC TACVHH N T 05555 K 0.020 GD  118 VS 3.20 DE 2.60 Q0 65.0 QA 1.10 Q1 1.00 3
 SPEC MAPVHH N MO 13.5 ST 13.5 OM  2.8 f0 5.34 R0.2217 AL 1.08 WI 18.3 MW  3.0 3
 SPEC MAPVHH N T 05544 K 0.020 GD 65.3 VS 3.20 DE 2.60 Q0 65.0 QA 1.10 Q1 1.00 3
 SPEC FUNVHH N MO 13.6 ST  5.9 OM  2.5 f0 3.71 R0.3191 AL 0.71 WI 15.2 MW  3.0 3
 SPEC FUNVHH N T 056 5 K 0.020 GD  141 VS 3.20 DE 2.60 Q0 65.0 QA 1.10 Q1 1.00 3
 SPEC BENVHH N MO 13.1 ST  1.1 OM  2.3 f0 3.24 R0.3654 AL 0.86 WI 19.6 MW  2.7 3
 SPEC BENVHH N T 05545 K 0.020 GD 66.3 VS 3.20 DE 2.60 Q0 65.0 QA 1.10 Q1 1.00 3
 SPEC BAUVHH N MO 13.8 ST 43.4 OM  2.7 f0 6.29 R0.1882 AL 0.46 WI 21.7 MW  3.2 3
 SPEC BAUVHH N T 056 7 K 0.020 GD  147 VS 3.20 DE 2.60 Q0 65.0 QA 1.10 Q1 1.00 3
 ACTION:UP  19-01-02 21:09 OP:y    STATUS:               ID:20190103005400     I
 OLDACT:UP  19-01-02 21:08 OP:y    STATUS:               ID:20190103005400     3
 OLDACT:REG 19-01-02 21:07 OP:re   STATUS:               ID:20190103005400     3
 2019-01-03-0054-00S.MAN___119                                                 6
 STAT SP IPHASW D HRMM SECON CODA AMPLIT PERI AZIMU VELO AIN AR TRES W  DIS CAZ7
 MAPV HZ EP        055 36.45                              96   -0.5610 63.8 219 
 MAPV HN ES        055 44.50                              96   -0.5510 63.8 219 
 BENV HZ IP     C  055 37.58                              96    0.3910 64.8 123 
 BENV HN ES        055 45.19                              96   -0.1810 64.8 123 
 TACV HZ EP        055 46.47                              93    0.8510  118  98 
 TACV HN ES        055 59.80                              93   -0.2310  118  98 
 TERV HZ EP        055 46.53                              93   -0.2310  125 254 
 TERV HN ES        056  2.51                              93    0.4910  125 254 
 FUNV HZ EP        055 49.44                              49    0.0210  142  81 
 FUNV HN ES        056  5.95                              49   -0.6910  142  81 
 BAUV HZ EP        055 50.31                              49    0.2710  148 178 
 BAUV HN ES        056  8.15                              49    0.4310  148 178 
                                                                                
 2019  1 3 0212 58.1 L  10.304 -68.113  9.3  FUN  6 0.4 3.0WFUN                1
 SPEC AVERAGE  MO 13.7 ST 10.8 OM  2.7 f0 4.06 R0.3205 AL 0.75 WI 17.6 MW  3.0 3
 SPEC SD       MO  0.3 ST  7.5 OM  0.2 f0 1.08 R0.1101 AL      WI      MW  0.2 3
 GAP=190        0.97       3.4     2.0  6.4 -0.2398E+01 -0.4912E+01 -0.2127E+01E
 SPEC TERVHH N MO 14.0 ST  7.2 OM  3.0 f0 3.03 R0.3908 AL 0.90 WI 13.5 MW  3.3 3
 SPEC TERVHH N T 21334 K 0.020 GD  111 VS 3.20 DE 2.60 Q0 65.0 QA 1.10 Q1 1.00 3
 SPEC TACVHH N MO 13.4 ST0.753 OM  2.4 f0 2.21 R0.5357 AL 0.41 WI 29.3 MW  2.9 3
 SPEC TACVHH N T 21330 K 0.020 GD  109 VS 3.20 DE 2.60 Q0 65.0 QA 1.10 Q1 1.00 3
 SPEC MAPVHH N MO 13.6 ST 11.6 OM  2.9 f0 4.67 R0.2535 AL 0.44 WI 11.4 MW  3.0 3
 SPEC MAPVHH N T 21316 K 0.020 GD 65.2 VS 3.20 DE 2.60 Q0 65.0 QA 1.10 Q1 1.00 3
 SPEC FUNVHH N MO 13.8 ST 22.3 OM  2.7 f0 5.27 R0.2247 AL 1.15 WI 11.2 MW  3.1 3
 SPEC FUNVHH N T 21338 K 0.020 GD  119 VS 3.20 DE 2.60 Q0 65.0 QA 1.10 Q1 1.00 3
 SPEC BENVHH N MO 13.2 ST  4.9 OM  2.4 f0 4.79 R0.2472 AL 1.17 WI 17.7 MW  2.8 3
 SPEC BENVHH N T 21316 K 0.020 GD 68.5 VS 3.20 DE 2.60 Q0 65.0 QA 1.10 Q1 1.00 3
 SPEC BAUVHH N MO 13.9 ST 18.0 OM  2.9 f0 4.37 R0.2709 AL 0.44 WI 22.3 MW  3.2 3
 SPEC BAUVHH N T 21338 K 0.020 GD  122 VS 3.20 DE 2.60 Q0 65.0 QA 1.10 Q1 1.00 3
 ACTION:UP  19-01-02 22:20 OP:y    STATUS:               ID:20190103021200     I
 OLDACT:UP  19-01-02 22:19 OP:y    STATUS:               ID:20190103021200     3
 OLDACT:REG 19-01-02 22:18 OP:re   STATUS:               ID:20190103021200     3
 2019-01-03-0212-00S.MAN___119                                                 6
 STAT SP IPHASW D HRMM SECON CODA AMPLIT PERI AZIMU VELO AIN AR TRES W  DIS CAZ7
 MAPV HZ EP        213  8.73                              90   -0.3210 64.5 216 
 MAPV HN ES        213 16.57                              90   -0.5710 64.5 216 
 BENV HZ EP        213 10.05                              90    0.4410 67.9 124 
 BENV HN ES        213 18.00                              90   -0.1110 67.9 124 
 TACV HZ EP        213 18.39                              90    0.4410  120  99 
 TACV HN ES        213 32.83                              90    0.2110  120  99 
 TERV HZ EP        213 18.50                              90   -0.0110  124 252 
 TERV HN ES        213 33.87                              90    0.2710  124 252 
 FUNV HZ EP        213 21.66                              90   -0.0310  144  83 
 FUNV HN ES        213 38.42                              90   -0.7210  144  83 
 BAUV HZ EP        213 22.84                              90    0.1310  151 177 
 BAUV HN ES        213 41.16                              90    0.2510  151 177 
                                                                                
 2019  1 3 0406 59.3 L  10.278 -68.130 12.9  FUN  4 0.4 2.7WFUN                1
 SPEC AVERAGE  MO 13.1 ST  2.9 OM  2.1 f0 4.23 R0.2883 AL 0.56 WI 24.5 MW  2.7 3
 SPEC SD       MO  0.1 ST  2.2 OM  0.1 f00.747 R0.0458 AL      WI      MW  0.0 3
 GAP=204        1.16      10.6     2.4  9.2  0.2604E+01  0.3898E+01  0.7342E+02E
 SPEC TERVHH N MO 13.0 ST  2.0 OM  2.0 f0 4.10 R0.2888 AL 0.00 WI 27.8 MW  2.6 3
 SPEC TERVHH N T 4 732 K 0.020 GD  118 VS 3.20 DE 2.60 Q0 65.0 QA 1.10 Q1 1.00 3
 SPEC TACVHH N MO 13.0 ST  1.8 OM  2.0 f0 3.91 R0.3028 AL 1.54 WI 20.3 MW  2.6 3
 SPEC TACVHH N T 4 735 K 0.020 GD  119 VS 3.20 DE 2.60 Q0 65.0 QA 1.10 Q1 1.00 3
 SPEC BENVHH N MO 13.1 ST  1.3 OM  2.3 f0 3.44 R0.3442 AL 0.72 WI 26.9 MW  2.7 3
 SPEC BENVHH N T 4 719 K 0.020 GD 69.0 VS 3.20 DE 2.60 Q0 65.0 QA 1.10 Q1 1.00 3
 SPEC BAUVHH N MO 13.2 ST  6.6 OM  2.1 f0 5.45 R0.2172 AL 0.00 WI 23.0 MW  2.7 3
 SPEC BAUVHH N T 4 739 K 0.020 GD  141 VS 3.20 DE 2.60 Q0 65.0 QA 1.10 Q1 1.00 3
 ACTION:UP  19-01-03 00:12 OP:y    STATUS:               ID:20190103040500     I
 OLDACT:UP  19-01-03 00:11 OP:y    STATUS:               ID:20190103040500     3
 OLDACT:REG 19-01-03 00:10 OP:re   STATUS:               ID:20190103040500     3
 2019-01-03-0405-00S.MAN___119                                                 6
 STAT SP IPHASW D HRMM SECON CODA AMPLIT PERI AZIMU VELO AIN AR TRES W  DIS CAZ7
 BENV HZ EP        4 7 10.44                              95   -0.4210 67.8 121 
 BENV HN ES        4 7 19.74                              95    0.3610 67.8 121 
 TERV HZ EP        4 7 19.81                              92    0.4710  121 253 
 TERV HN ES        4 7 33.76                              92   -0.3810  121 253 
 TACV HZ EP        4 7 20.08                              92    0.6710  122  97 
 TACV HN ES        4 7 33.67                              92   -0.5910  122  97 
 BAUV HZ EP        4 7 23.05                              49   -0.2410  148 176 
 BAUV HN ES        4 7 41.15                              49    0.1410  148 176 
                                                                                
 2019  1 3 0618 45.5 L  10.304 -68.106 15.8  FUN  6 0.5 2.7WFUN                1
 SPEC AVERAGE  MO 13.1 ST  6.8 OM  2.1 f0 5.59 R0.2275 AL 0.72 WI 18.4 MW  2.7 3
 SPEC SD       MO  0.3 ST  5.8 OM  0.2 f0 1.47 R0.0615 AL      WI      MW  0.2 3
 GAP=190        1.33       5.5     2.6  4.9 -0.5225E+01 -0.1909E+01 -0.2869E+01E
 SPEC TERVHH N MO 13.3 ST  2.1 OM  2.2 f0 3.47 R0.3412 AL 0.45 WI 17.2 MW  2.8 3
 SPEC TERVHH N T 61921 K 0.020 GD  125 VS 3.20 DE 2.60 Q0 65.0 QA 1.10 Q1 1.00 3
 SPEC TACVHH N MO 13.3 ST 18.8 OM  2.3 f0 6.90 R0.1716 AL 1.48 WI 17.3 MW  2.8 3
 SPEC TACVHH N T 61921 K 0.020 GD  121 VS 3.20 DE 2.60 Q0 65.0 QA 1.10 Q1 1.00 3
 SPEC MAPVHH N MO 12.7 ST  6.8 OM  1.9 f0 8.01 R0.1478 AL 0.71 WI 14.2 MW  2.4 3
 SPEC MAPVHH N T 619 6 K 0.020 GD 66.8 VS 3.20 DE 2.60 Q0 65.0 QA 1.10 Q1 1.00 3
 SPEC FUNVHH N MO 13.0 ST  3.4 OM  1.9 f0 5.13 R0.2308 AL 0.32 WI 16.8 MW  2.6 3
 SPEC FUNVHH N T 61925 K 0.020 GD  143 VS 3.20 DE 2.60 Q0 65.0 QA 1.10 Q1 1.00 3
 SPEC BENVHH N MO 12.7 ST  1.7 OM  2.0 f0 4.88 R0.2426 AL 0.47 WI 20.7 MW  2.4 3
 SPEC BENVHH N T 619 4 K 0.020 GD 69.0 VS 3.20 DE 2.60 Q0 65.0 QA 1.10 Q1 1.00 3
 SPEC BAUVHH N MO 13.4 ST  8.2 OM  2.2 f0 5.12 R0.2313 AL 0.88 WI 24.3 MW  2.9 3
 SPEC BAUVHH N T 61924 K 0.020 GD  151 VS 3.20 DE 2.60 Q0 65.0 QA 1.10 Q1 1.00 3
 ACTION:UP  19-01-03 05:46 OP:y    STATUS:               ID:20190103061800     I
 OLDACT:UP  19-01-03 05:45 OP:y    STATUS:               ID:20190103061800     3
 OLDACT:REG 19-01-03 05:34 OP:re   STATUS:               ID:20190103061800     3
 2019-01-03-0618-00S.MAN___119                                                 6
 STAT SP IPHASW D HRMM SECON CODA AMPLIT PERI AZIMU VELO AIN AR TRES W  DIS CAZ7
 MAPV HZ EP        618 55.93                              98   -0.6610 64.9 216 
 MAPV HN ES        619  4.18                              98   -0.6110 64.9 216 
 BENV HZ EP        618 57.17                              98    0.2010 67.2 124 
 BENV HN ES        619  5.22                              98   -0.2410 67.2 124 
 TACV HZ EP        619  5.78                              94    0.5310  120  99 
 TACV HN ES        619 20.30                              94    0.4310  120  99 
 TERV HZ EP        619  6.04                              94   -0.0010  125 253 
 TERV HN ES        619 21.96                              94    0.7210  125 253 
 FUNV HZ EP        619  7.82                              49   -0.8610  143  83 
 FUNV HN ES        619 25.62                              49   -0.2210  143  83 
 BAUV HZ EP        619  9.74                              49    0.2510  151 177 
 BAUV HN ES        619 27.70                              49    0.4610  151 177 
                                                                                
 2019  1 3 0710 56.9 L  10.038 -67.279  5.0F FUN  6 0.5 2.7WFUN                1
 SPEC AVERAGE  MO 13.2 ST  9.3 OM  2.4 f0 6.12 R0.2036 AL 1.09 WI 19.8 MW  2.7 3
 SPEC SD       MO  0.2 ST  4.0 OM  0.3 f0 1.42 R0.0438 AL      WI      MW  0.2 3
 GAP=147        1.07       4.3     2.5  0.0 -0.7974E+01  0.0000E+00  0.0000E+00E
 SPEC TERVHH N MO 13.3 ST  6.6 OM  2.2 f0 4.96 R0.2387 AL 0.50 WI 27.7 MW  2.8 3
 SPEC TERVHH N T 71153 K 0.020 GD  144 VS 3.20 DE 2.60 Q0 65.0 QA 1.10 Q1 1.00 3
 SPEC TACVHH N MO 13.4 ST 11.3 OM  3.0 f0 5.41 R0.2189 AL 0.89 WI 16.8 MW  2.9 3
 SPEC TACVHH N T 711 6 K 0.020 GD 30.2 VS 3.20 DE 2.60 Q0 65.0 QA 1.10 Q1 1.00 3
 SPEC MAPVHH N MO 13.4 ST  6.1 OM  2.4 f0 4.48 R0.2643 AL 1.83 WI 16.4 MW  2.9 3
 SPEC MAPVHH N T 71135 K 0.020 GD  114 VS 3.20 DE 2.60 Q0 65.0 QA 1.10 Q1 1.00 3
 SPEC FUNVHH N MO 13.0 ST  5.1 OM  2.2 f0 5.79 R0.2045 AL 0.73 WI 18.2 MW  2.6 3
 SPEC FUNVHH N T 71118 K 0.020 GD 70.3 VS 3.20 DE 2.60 Q0 65.0 QA 1.10 Q1 1.00 3
 SPEC BENVHH N MO 12.8 ST  9.9 OM  2.3 f0 8.34 R0.1420 AL 1.83 WI 16.5 MW  2.5 3
 SPEC BENVHH N T 711 7 K 0.020 GD 36.3 VS 3.20 DE 2.60 Q0 65.0 QA 1.10 Q1 1.00 3
 SPEC BAUVHH N MO 13.1 ST 16.7 OM  2.1 f0 7.73 R0.1532 AL 0.75 WI 23.3 MW  2.7 3
 SPEC BAUVHH N T 71137 K 0.020 GD  121 VS 3.20 DE 2.60 Q0 65.0 QA 1.10 Q1 1.00 3
 ACTION:UP  19-01-03 06:37 OP:y    STATUS:               ID:20190103071000     I
 OLDACT:UP  19-01-03 05:49 OP:y    STATUS:               ID:20190103071000     3
 OLDACT:UP  19-01-03 05:48 OP:y    STATUS:               ID:20190103071000     3
 OLDACT:UP  19-01-03 05:48 OP:y    STATUS:               ID:20190103071000     3
 OLDACT:UP  19-01-03 05:48 OP:y    STATUS:               ID:20190103071000     3
 OLDACT:REG 19-01-03 05:35 OP:re   STATUS:               ID:20190103071000     3
 2019-01-03-0710-00S.MAN___119                                                 6
 STAT SP IPHASW D HRMM SECON CODA AMPLIT PERI AZIMU VELO AIN AR TRES W  DIS CAZ7
 TACV HZ EP        711  1.85                             101   -0.3910 29.8  68 
 TACV HN ES        711  6.08                             101   -0.1010 29.8  68 
 BENV HZ IP     C  711  2.46                              99   -0.8510 36.0 257 
 BENV HN ES        711  7.29                              99   -0.7510 36.0 257 
 FUNV HZ EP        711  8.86                              65   -0.2310 70.1  47 
 FUNV HN ES        711 18.43                              65    0.3410 70.1  47 
 MAPV HZ EP        711 18.99                              65    0.2510  131 260 
 MAPV HN ES        711 35.02                              65    0.1310  131 260 
 BAUV HZ IP     D  711 21.77                              65    0.5110  147 215 
 BAUV HN ES        711 39.28                              65    0.0110  147 215 
 TERV HZ EP        711 29.70                              43    0.4110  210 268 
 TERV HN ES        711 53.91                              43    0.6710  210 268 
                                                                                
 2019  1 3 0725 56.6 L  10.317 -68.095 17.6  FUN  4 0.5 2.6WFUN                1
 SPEC AVERAGE  MO 13.0 ST  4.7 OM  2.0 f0 4.97 R0.2455 AL 0.89 WI 25.4 MW  2.6 3
 SPEC SD       MO  0.3 ST  3.4 OM  0.2 f00.813 R0.0437 AL      WI      MW  0.2 3
 GAP=207        1.31      10.5     2.8  8.3  0.4309E+01  0.5505E+01  0.5703E+02E
 SPEC TERVHH N MO 13.3 ST 10.0 OM  2.2 f0 5.72 R0.2070 AL 0.60 WI 23.0 MW  2.8 3
 SPEC TERVHH N T 72629 K 0.020 GD  127 VS 3.20 DE 2.60 Q0 65.0 QA 1.10 Q1 1.00 3
 SPEC TACVHH N MO 12.9 ST  3.8 OM  1.9 f0 5.72 R0.2070 AL 1.46 WI 26.4 MW  2.5 3
 SPEC TACVHH N T 72628 K 0.020 GD  120 VS 3.20 DE 2.60 Q0 65.0 QA 1.10 Q1 1.00 3
 SPEC BENVHH N MO 12.7 ST0.656 OM  1.9 f0 3.78 R0.3132 AL 0.92 WI 22.1 MW  2.4 3
 SPEC BENVHH N T 72613 K 0.020 GD 69.3 VS 3.20 DE 2.60 Q0 65.0 QA 1.10 Q1 1.00 3
 SPEC BAUVHH N MO 13.2 ST  4.3 OM  2.1 f0 4.65 R0.2546 AL 0.57 WI 30.2 MW  2.7 3
 SPEC BAUVHH N T 72637 K 0.020 GD  153 VS 3.20 DE 2.60 Q0 65.0 QA 1.10 Q1 1.00 3
 ACTION:UP  19-01-03 05:51 OP:y    STATUS:               ID:20190103072500     I
 OLDACT:UP  19-01-03 05:50 OP:y    STATUS:               ID:20190103072500     3
 OLDACT:REG 19-01-03 05:36 OP:re   STATUS:               ID:20190103072500     3
 2019-01-03-0725-00S.MAN___119                                                 6
 STAT SP IPHASW D HRMM SECON CODA AMPLIT PERI AZIMU VELO AIN AR TRES W  DIS CAZ7
 BENV HZ EP        726  8.56                             100    0.4910 67.0 126 
 BENV HN ES        726 16.70                             100    0.1410 67.0 126 
 TACV HZ EP        726 16.62                              95    0.4310  119  99 
 TACV HN ES        726 29.77                              95   -0.9410  119  99 
 TERV HZ EP        726 17.89                              95    0.4810  126 252 
 TERV HN ES        726 32.19                              95   -0.6410  126 252 
 BAUV HZ EP        726 20.69                              49    0.1410  152 178 
 BAUV HN ES        726 38.17                              49   -0.1110  152 178 
                                                                                
 2019  1 3 0735 37.5 L  10.263 -68.118 15.5  FUN  5 0.4 2.6WFUN                1
 SPEC AVERAGE  MO 12.9 ST  2.2 OM  2.0 f0 4.21 R0.3348 AL 0.71 WI 25.1 MW  2.6 3
 SPEC SD       MO  0.2 ST  2.2 OM  0.3 f0 1.86 R0.1249 AL      WI      MW  0.1 3
 GAP=202        1.09       6.0     2.1  5.5 -0.3654E+01 -0.1249E+01  0.1345E+02E
 SPEC TERVHH N MO 13.0 ST0.644 OM  1.9 f0 2.94 R0.4027 AL 0.97 WI 31.5 MW  2.6 3
 SPEC TERVHH N T 736 8 K 0.020 GD  122 VS 3.20 DE 2.60 Q0 65.0 QA 1.10 Q1 1.00 3
 SPEC TACVHH N MO 12.8 ST  2.8 OM  1.8 f0 5.49 R0.2157 AL 0.47 WI 20.2 MW  2.5 3
 SPEC TACVHH N T 73611 K 0.020 GD  120 VS 3.20 DE 2.60 Q0 65.0 QA 1.10 Q1 1.00 3
 SPEC MAPVHH N MO 13.3 ST0.669 OM  2.5 f0 2.39 R0.4954 AL 0.91 WI 20.8 MW  2.8 3
 SPEC MAPVHH N T 73553 K 0.020 GD 62.6 VS 3.20 DE 2.60 Q0 65.0 QA 1.10 Q1 1.00 3
 SPEC BENVHH N MO 12.8 ST0.454 OM  2.0 f0 2.98 R0.3973 AL 0.37 WI 21.7 MW  2.5 3
 SPEC BENVHH N T 73555 K 0.020 GD 67.7 VS 3.20 DE 2.60 Q0 65.0 QA 1.10 Q1 1.00 3
 SPEC BAUVHH N MO 12.8 ST  6.2 OM  1.7 f0 7.26 R0.1631 AL 0.82 WI 31.3 MW  2.5 3
 SPEC BAUVHH N T 73614 K 0.020 GD  146 VS 3.20 DE 2.60 Q0 65.0 QA 1.10 Q1 1.00 3
 ACTION:UP  19-01-03 05:53 OP:y    STATUS:               ID:20190103073400     I
 OLDACT:UP  19-01-03 05:52 OP:y    STATUS:               ID:20190103073400     3
 OLDACT:REG 19-01-03 05:37 OP:re   STATUS:               ID:20190103073400     3
 2019-01-03-0734-00S.MAN___119                                                 6
 STAT SP IPHASW D HRMM SECON CODA AMPLIT PERI AZIMU VELO AIN AR TRES W  DIS CAZ7
 MAPV HZ EP        735 47.57                              99   -0.3610 60.6 218 
 MAPV HN ES        735 55.63                              99    0.0110 60.6 218 
 BENV HZ EP        735 48.93                              98    0.1310 65.9 120 
 BENV HN ES        735 57.13                              98   -0.0110 65.9 120 
 TACV HZ EP        735 56.58                              94   -0.8210  120  96 
 TACV HN ES        736 12.73                              94    0.6310  120  96 
 TERV HZ EP        735 57.45                              94   -0.2310  122 254 
 TERV HN ES        736 13.07                              94    0.4910  122 254 
 BAUV HZ EP        736  1.37                              49    0.3510  146 177 
 BAUV HN ES        736 18.20                              49   -0.1910  146 177 
                                                                                
