 2019  1 1 0344 51.5 L  10.241 -68.175 12.2  FUN  5 0.2 2.0WFUN                1
 SPEC AVERAGE  MO 12.1 ST  2.4 OM  1.2 f0 8.06 R0.1531 AL 1.90 WI 49.9 MW  2.0 3
 SPEC SD       MO  0.3 ST  2.1 OM  0.2 f0 1.66 R0.0311 AL      WI      MW  0.2 3
 GAP=200        0.51       2.8     1.0  2.8 -0.9722E+00 -0.4740E+00  0.3545E+01E
 SPEC TERVHH N MO 12.2 ST0.828 OM  1.2 f0 5.81 R0.2038 AL 0.98 WI 55.9 MW  2.1 3
 SPEC TERVHH N T 34523 K 0.020 GD  112 VS 3.20 DE 2.60 Q0 65.0 QA 1.10 Q1 1.00 3
 SPEC TACVHH N MO 11.8 ST  2.3 OM  0.8 f0 10.8 R0.1096 AL 2.53 WI 17.6 MW  1.8 3
 SPEC TACVHH N T 34527 K 0.020 GD  120 VS 3.20 DE 2.60 Q0 65.0 QA 1.10 Q1 1.00 3
 SPEC MAPVHH N MO 12.0 ST  1.0 OM  1.3 f0 7.24 R0.1635 AL 3.05 WI 44.5 MW  1.9 3
 SPEC MAPVHH N T 345 6 K 0.020 GD 56.2 VS 3.20 DE 2.60 Q0 65.0 QA 1.10 Q1 1.00 3
 SPEC BENVHH N MO 12.0 ST  1.3 OM  1.2 f0 7.78 R0.1522 AL 2.12 WI 57.7 MW  1.9 3
 SPEC BENVHH N T 34512 K 0.020 GD 71.4 VS 3.20 DE 2.60 Q0 65.0 QA 1.10 Q1 1.00 3
 SPEC BAUVHH N MO 12.6 ST  6.5 OM  1.5 f0 8.68 R0.1364 AL 0.84 WI 74.0 MW  2.3 3
 SPEC BAUVHH N T 34531 K 0.020 GD  133 VS 3.20 DE 2.60 Q0 65.0 QA 1.10 Q1 1.00 3
 ACTION:UP  19-01-01 01:39 OP:rms  STATUS:               ID:20190101034200     I
 OLDACT:UP  19-01-01 01:39 OP:rms  STATUS:               ID:20190101034200     3
 OLDACT:UP  19-01-01 01:37 OP:rms  STATUS:               ID:20190101034200     3
 OLDACT:UP  19-01-01 01:35 OP:rms  STATUS:               ID:20190101034200     3
 OLDACT:REG 19-01-01 01:35 OP:rms  STATUS:               ID:20190101034200     3
 2019-01-01-0342-00S.MAN___119                                                 6
 STAT SP IPHASW D HRMM SECON CODA AMPLIT PERI AZIMU VELO AIN AR TRES W  DIS CAZ7
 MAPV HZ EP        345  0.90                              95   -0.0710 54.9 214 
 MAPV HN ES        345  7.88                              95   -0.0810 54.9 214 
 BENV HZ EP        345  3.12                              94   -0.3010 70.3 116 
 BENV HN ES        345 12.49                              94    0.2710 70.3 116 
 TERV HZ EP        345 10.65                              92    0.0610  116 255 
 TERV HN ES        345 24.86                              92    0.1610  116 255 
 TACV HZ EP        345 12.06                              92   -0.2410  126  95 
 TACV HN ES        345 27.85                              92    0.1710  126  95 
 BAUV HZ EP        345 15.19                              49    0.0810  144 174 
 BAUV HN ES        345 32.52                              49   -0.0410  144 174 
                                                                                
 2019  1 1 0350 20.2 L  10.243 -68.146  8.0  FUN  5 0.2 2.3WFUN                1
 SPEC AVERAGE  MO 12.5 ST  3.5 OM  1.6 f0 7.15 R0.1801 AL 1.79 WI 59.8 MW  2.3 3
 SPEC SD       MO  0.2 ST  2.6 OM  0.2 f0 1.68 R0.0626 AL      WI      MW  0.1 3
 GAP=200        0.57       2.5     1.1  7.1 -0.7463E+00 -0.1024E+01  0.7057E+01E
 SPEC TERVHH N MO 12.6 ST0.605 OM  1.6 f0 3.89 R0.3044 AL 0.77 WI 70.0 MW  2.3 3
 SPEC TERVHH N T 35054 K 0.020 GD  109 VS 3.20 DE 2.60 Q0 65.0 QA 1.10 Q1 1.00 3
 SPEC TACVHH N MO 12.3 ST  2.1 OM  1.3 f0 7.37 R0.1607 AL 2.03 WI 78.4 MW  2.1 3
 SPEC TACVHH N T 35054 K 0.020 GD  110 VS 3.20 DE 2.60 Q0 65.0 QA 1.10 Q1 1.00 3
 SPEC MAPVHH N MO 12.3 ST  3.0 OM  1.6 f0 8.22 R0.1440 AL 3.08 WI 67.8 MW  2.2 3
 SPEC MAPVHH N T 35036 K 0.020 GD 57.6 VS 3.20 DE 2.60 Q0 65.0 QA 1.10 Q1 1.00 3
 SPEC BENVHH N MO 12.3 ST  3.1 OM  1.5 f0 8.50 R0.1393 AL 2.13 WI 23.3 MW  2.1 3
 SPEC BENVHH N T 35039 K 0.020 GD 68.0 VS 3.20 DE 2.60 Q0 65.0 QA 1.10 Q1 1.00 3
 SPEC BAUVHH N MO 12.8 ST  8.4 OM  1.8 f0 7.78 R0.1522 AL 0.94 WI 59.4 MW  2.5 3
 SPEC BAUVHH N T 351 0 K 0.020 GD  119 VS 3.20 DE 2.60 Q0 65.0 QA 1.10 Q1 1.00 3
 ACTION:UP  19-01-01 01:34 OP:rms  STATUS:               ID:20190101034800     I
 OLDACT:UP  19-01-01 01:34 OP:rms  STATUS:               ID:20190101034800     3
 OLDACT:UP  19-01-01 01:33 OP:rms  STATUS:               ID:20190101034800     3
 OLDACT:UP  19-01-01 01:33 OP:rms  STATUS:               ID:20190101034800     3
 OLDACT:UP  19-01-01 01:30 OP:rms  STATUS:               ID:20190101034800     3
 OLDACT:REG 19-01-01 01:29 OP:rms  STATUS:               ID:20190101034800     3
 2019-01-01-0348-00S.MAN___119                                                 6
 STAT SP IPHASW D HRMM SECON CODA AMPLIT PERI AZIMU VELO AIN AR TRES W  DIS CAZ7
 MAPV HZ EP        350 29.55                              65   -0.4510 57.0 217 
 MAPV HN ES        350 37.34                              65    0.0810 57.0 217 
 BENV HZ EP        350 31.67                              65   -0.0210 67.5 117 
 BENV HN ES        350 40.41                              65    0.2010 67.5 117 
 TERV HZ EP        350 40.01                              65    0.2010  119 255 
 TERV HN ES        350 54.34                              65    0.0010  119 255 
 TACV HZ EP        350 40.69                              65    0.1810  123  95 
 TACV HN ES        350 55.29                              65   -0.2710  123  95 
 BAUV HZ EP        350 43.91                              65    0.0910  144 175 
 BAUV HN ES        351  1.31                              65   -0.0110  144 175 
                                                                                
 2019  1 1 0420 28.8 L  10.214 -68.101  2.4  FUN  5 0.1 2.0WFUN                1
 SPEC AVERAGE  MO 12.1 ST  1.3 OM  1.2 f0 7.35 R0.1707 AL 1.54 WI 53.4 MW  2.0 3
 SPEC SD       MO  0.4 ST0.400 OM  0.3 f0 1.67 R0.0424 AL      WI      MW  0.2 3
 GAP=197        0.45       1.8     0.8  2.5 -0.3648E+00  0.1998E+00 -0.9214E+00E
 SPEC TERVHH N MO 12.3 ST0.847 OM  1.3 f0 5.45 R0.2172 AL 1.11 WI 39.2 MW  2.1 3
 SPEC TERVHH N T 421 3 K 0.020 GD  110 VS 3.20 DE 2.60 Q0 65.0 QA 1.10 Q1 1.00 3
 SPEC TACVHH N MO 11.8 ST  1.2 OM  0.8 f0 9.01 R0.1314 AL 1.30 WI 45.4 MW  1.8 3
 SPEC TACVHH N T 421 3 K 0.020 GD  108 VS 3.20 DE 2.60 Q0 65.0 QA 1.10 Q1 1.00 3
 SPEC MAPVHH N MO 11.8 ST0.960 OM  1.1 f0 8.24 R0.1437 AL 2.24 WI 37.4 MW  1.8 3
 SPEC MAPVHH N T 42046 K 0.020 GD 57.6 VS 3.20 DE 2.60 Q0 65.0 QA 1.10 Q1 1.00 3
 SPEC BENVHH N MO 11.8 ST  1.3 OM  1.1 f0 8.84 R0.1339 AL 2.30 WI 77.1 MW  1.8 3
 SPEC BENVHH N T 42047 K 0.020 GD 61.7 VS 3.20 DE 2.60 Q0 65.0 QA 1.10 Q1 1.00 3
 SPEC BAUVHH E MO 12.7 ST  2.0 OM  1.7 f0 5.21 R0.2273 AL 0.76 WI 67.8 MW  2.4 3
 SPEC BAUVHH E T 421 8 K 0.020 GD  118 VS 3.20 DE 2.60 Q0 65.0 QA 1.10 Q1 1.00 3
 ACTION:UP  19-01-01 01:44 OP:rms  STATUS:               ID:20190101041800     I
 OLDACT:UP  19-01-01 01:44 OP:rms  STATUS:               ID:20190101041800     3
 OLDACT:UP  19-01-01 01:43 OP:rms  STATUS:               ID:20190101041800     3
 OLDACT:UP  19-01-01 01:41 OP:rms  STATUS:               ID:20190101041800     3
 OLDACT:REG 19-01-01 01:41 OP:rms  STATUS:               ID:20190101041800     3
 2019-01-01-0418-00S.MAN___119                                                 6
 STAT SP IPHASW D HRMM SECON CODA AMPLIT PERI AZIMU VELO AIN AR TRES W  DIS CAZ7
 MAPV HZ EP        420 38.67                              93   -0.2110 57.6 223 
 MAPV HN ES        420 46.43                              93    0.0610 57.6 223 
 BENV HZ EP        420 39.57                              93   -0.0310 61.7 117 
 BENV HN ES        420 47.65                              93    0.0310 61.7 117 
 TACV HZ EP        420 48.56                              65   -0.1410  118  94 
 TACV HN ES        421  3.49                              65    0.0310  118  94 
 TERV HZ EP        420 49.71                              65    0.2810  123 257 
 TERV HN ES        421  4.58                              65   -0.1510  123 257 
 BAUV HZ EP        420 52.48                              65    0.2110  141 177 
 BAUV HE ES        421  9.59                              65   -0.0810  141 177 
                                                                                
 2019  1 1 0642 24.7 L  10.204 -68.114 17.0  FUN 11 0.6 3.0WFUN                1
 SPEC AVERAGE  MO 13.6 ST133.0 OM  2.4 f0 7.68 R0.2063 AL 2.88 WI 66.4 MW  3.0 3
 SPEC SD       MO  0.4 ST279.6 OM  0.2 f0 3.77 R0.1225 AL      WI      MW  0.3 3
 GAP=117        1.61       3.6     2.2  4.0 -0.5651E+00 -0.1171E+01  0.2990E+01E
 SPEC SOCVHH N MO 14.0 ST202.1 OM  2.5 f0 9.01 R0.1314 AL 3.36 WI 99.1 MW  3.3 3
 SPEC SOCVHH N T 64350 K 0.020 GD  369 VS 3.20 DE 2.60 Q0 65.0 QA 1.10 Q1 1.00 3
 SPEC SDV BH 1 MO 14.1 ST999.9 OM  2.7 f0 15.2 R0.0779 AL 8.70 WI 93.3 MW  3.4 3
 SPEC SDV BH 1 T 64339 K 0.020 GD  313 VS 3.20 DE 2.60 Q0 65.0 QA 1.10 Q1 1.00 3
 SPEC PCRVHH N MO 13.7 ST  7.2 OM  2.2 f0 3.68 R0.3217 AL 2.56 WI 70.5 MW  3.1 3
 SPEC PCRVHH N T 64355 K 0.020 GD  386 VS 3.20 DE 2.60 Q0 65.0 QA 1.10 Q1 1.00 3
 SPEC CACVHH N MO 13.8 ST 64.1 OM  2.3 f0 7.10 R0.1668 AL 1.07 WI127.3 MW  3.2 3
 SPEC CACVHH N T 64353 K 0.020 GD  379 VS 3.20 DE 2.60 Q0 65.0 QA 1.10 Q1 1.00 3
 SPEC TERVHH N MO 13.2 ST 81.1 OM  2.2 f0 12.1 R0.0979 AL 2.41 WI 60.3 MW  2.8 3
 SPEC TERVHH N T 64256 K 0.020 GD  122 VS 3.20 DE 2.60 Q0 65.0 QA 1.10 Q1 1.00 3
 SPEC TACVHH N MO 13.1 ST 48.9 OM  2.1 f0 11.1 R0.1067 AL 3.11 WI 28.2 MW  2.7 3
 SPEC TACVHH N T 64258 K 0.020 GD  120 VS 3.20 DE 2.60 Q0 65.0 QA 1.10 Q1 1.00 3
 SPEC MAPVHH N MO 13.0 ST 11.0 OM  2.3 f0 7.37 R0.1607 AL 2.55 WI 59.0 MW  2.6 3
 SPEC MAPVHH N T 64239 K 0.020 GD 58.3 VS 3.20 DE 2.60 Q0 65.0 QA 1.10 Q1 1.00 3
 SPEC JACVHH N MO 14.0 ST  3.0 OM  2.9 f0 2.33 R0.5082 AL 2.12 WI 59.9 MW  3.2 3
 SPEC JACVHH N T 64259 K 0.020 GD  126 VS 3.20 DE 2.60 Q0 65.0 QA 1.10 Q1 1.00 3
 SPEC FUNVHH N MO 13.7 ST  8.6 OM  2.6 f0 3.96 R0.2990 AL 1.95 WI 42.3 MW  3.1 3
 SPEC FUNVHH N T 643 2 K 0.020 GD  146 VS 3.20 DE 2.60 Q0 65.0 QA 1.10 Q1 1.00 3
 SPEC BENVHH N MO 13.2 ST 18.1 OM  2.4 f0 7.78 R0.1522 AL 2.67 WI 49.8 MW  2.7 3
 SPEC BENVHH N T 64242 K 0.020 GD 64.8 VS 3.20 DE 2.60 Q0 65.0 QA 1.10 Q1 1.00 3
 SPEC BAUVHH N MO 13.8 ST 18.5 OM  2.7 f0 4.80 R0.2467 AL 1.20 WI 40.5 MW  3.1 3
 SPEC BAUVHH N T 643 3 K 0.020 GD  141 VS 3.20 DE 2.60 Q0 65.0 QA 1.10 Q1 1.00 3
 ACTION:UP  19-01-01 03:11 OP:rms  STATUS:               ID:20190101064000     I
 OLDACT:UP  19-01-01 03:11 OP:rms  STATUS:               ID:20190101064000     3
 OLDACT:UP  19-01-01 03:11 OP:rms  STATUS:               ID:20190101064000     3
 OLDACT:UP  19-01-01 03:10 OP:rms  STATUS:               ID:20190101064000     3
 OLDACT:UP  19-01-01 03:01 OP:rms  STATUS:               ID:20190101064000     3
 OLDACT:UP  19-01-01 03:00 OP:rms  STATUS:               ID:20190101064000     3
 OLDACT:UP  19-01-01 02:51 OP:rms  STATUS:               ID:20190101064000     3
 OLDACT:UP  19-01-01 02:51 OP:rms  STATUS:               ID:20190101064000     3
 OLDACT:UP  19-01-01 02:50 OP:rms  STATUS:               ID:20190101064000     3
 OLDACT:UP  19-01-01 02:46 OP:rms  STATUS:               ID:20190101064000     3
 OLDACT:REG 19-01-01 02:46 OP:rms  STATUS:               ID:20190101064000     3
 2019-01-01-0640-00S.MAN___119                                                 6
 STAT SP IPHASW D HRMM SECON CODA AMPLIT PERI AZIMU VELO AIN AR TRES W  DIS CAZ7
 MAPV HZ EP        642 33.85                             102   -0.5710 55.8 222 
 MAPV HN ES        642 41.55                             102   -0.0410 55.8 222 
 BENV HZ EP        642 35.54                             100    0.0610 62.5 115 
 BENV HN ES        642 43.59                             100    0.1510 62.5 115 
 TACV HZ EP        642 44.22                              95   -0.2210  119  93 
 TACV HN ES        642 59.52                              95    0.4910  119  93 
 TERV HZ EP        642 43.84                              95   -0.8510  121 257 
 TERV HN ES        642 58.68                              95   -0.7910  121 257 
 JACV HZ EP        642 45.64                              94    0.3110  125 321 
 JACV HN ES        643  1.09                              94    0.5010  125 321 
 BAUV HZ EP        642 47.86                              49    0.6110  140 177 
 BAUV HN ES        643  3.58                              49   -0.3410  140 177 
 FUNV HZ EP        642 47.34                              49   -0.7510  146  78 
 FUNV HN ES        643  3.98                              49   -1.4110  146  78 
 SDV  BZ EP        643  8.56                              49    0.2910  313 242 
 SDV  B1 ES        643 40.32                              49   -0.1810  313 242 
 SOCV HZ EP        643 15.84                              49    0.9810  369 235 
 SOCV HN ES        643 52.45                              49    0.4910  369 235 
 CACV HZ EP        643 16.94                              49    0.8310  379 142 
 CACV HN ES        643 54.03                              49   -0.1010  379 142 
 PCRV HZ EP        643 17.50                              49    0.5210  386  90 
 PCRV HN ES        643 55.67                              49    0.0210  386  90 
                                                                                
 2019  1 1 0914 51.1 L  10.215 -68.131 15.2  FUN  5 0.2 2.0WFUN                1
 SPEC AVERAGE  MO 12.0 ST  1.3 OM  1.1 f0 7.63 R0.1612 AL 1.68 WI 49.4 MW  2.0 3
 SPEC SD       MO  0.4 ST0.716 OM  0.3 f0 1.47 R0.0321 AL      WI      MW  0.3 3
 GAP=197        0.52       2.9     1.0  2.7 -0.9452E+00 -0.4051E+00  0.3453E+01E
 SPEC TERVHH N MO 12.1 ST0.813 OM  1.1 f0 6.09 R0.1944 AL 0.94 WI 33.9 MW  2.0 3
 SPEC TERVHH N T 91524 K 0.020 GD  120 VS 3.20 DE 2.60 Q0 65.0 QA 1.10 Q1 1.00 3
 SPEC TACVHH E MO 11.7 ST  1.2 OM  0.7 f0 9.50 R0.1246 AL 1.64 WI 37.9 MW  1.8 3
 SPEC TACVHH E T 91524 K 0.020 GD  121 VS 3.20 DE 2.60 Q0 65.0 QA 1.10 Q1 1.00 3
 SPEC MAPVHH N MO 11.6 ST0.539 OM  0.9 f0 7.93 R0.1493 AL 1.92 WI 71.8 MW  1.7 3
 SPEC MAPVHH N T 915 7 K 0.020 GD 57.5 VS 3.20 DE 2.60 Q0 65.0 QA 1.10 Q1 1.00 3
 SPEC BENVHH N MO 11.9 ST  1.4 OM  1.1 f0 8.84 R0.1339 AL 2.88 WI 47.6 MW  1.9 3
 SPEC BENVHH N T 915 9 K 0.020 GD 66.5 VS 3.20 DE 2.60 Q0 65.0 QA 1.10 Q1 1.00 3
 SPEC BAUVHH E MO 12.7 ST  2.6 OM  1.6 f0 5.81 R0.2038 AL 1.04 WI 55.9 MW  2.4 3
 SPEC BAUVHH E T 91530 K 0.020 GD  141 VS 3.20 DE 2.60 Q0 65.0 QA 1.10 Q1 1.00 3
 ACTION:UP  19-01-01 06:19 OP:rms  STATUS:               ID:20190101091300     I
 OLDACT:UP  19-01-01 06:18 OP:rms  STATUS:               ID:20190101091300     3
 OLDACT:UP  19-01-01 06:17 OP:rms  STATUS:               ID:20190101091300     3
 OLDACT:UP  19-01-01 06:15 OP:rms  STATUS:               ID:20190101091300     3
 OLDACT:REG 19-01-01 06:15 OP:rms  STATUS:               ID:20190101091300     3
 2019-01-01-0913-00S.MAN___119                                                 6
 STAT SP IPHASW D HRMM SECON CODA AMPLIT PERI AZIMU VELO AIN AR TRES W  DIS CAZ7
 MAPV HZ EP        915  0.43                             100   -0.2810 55.5 220 
 MAPV HN ES        915  7.93                             100    0.1110 55.5 220 
 BENV HZ EP        915  2.22                              98    0.0410 64.7 116 
 BENV HN ES        915 10.39                              98    0.0310 64.7 116 
 TERV HZ EP        915 10.56                              94   -0.2710  120 257 
 TERV HN ES        915 25.63                              94    0.2210  120 257 
 TACV HZ EP        915 11.32                              94    0.2010  121  94 
 TACV HE ES        915 25.80                              94   -0.1310  121  94 
 BAUV HZ EP        915 14.18                              49    0.1810  141 176 
 BAUV HE ES        915 30.82                              49   -0.1010  141 176 
                                                                                
 2019  1 1 0930 49.1 L  10.195 -68.129  9.3  FUN  5 0.3 1.9WFUN                1
 SPEC AVERAGE  MO 12.0 ST  1.7 OM  1.1 f0 8.50 R0.1430 AL 1.83 WI 63.5 MW  1.9 3
 SPEC SD       MO  0.3 ST  1.0 OM  0.2 f0 1.34 R0.0229 AL      WI      MW  0.2 3
 GAP=195        0.82       3.4     1.5999.9 -0.1241E+01  0.4362E+02 -0.1612E+04E
 SPEC TERVHH N MO 12.1 ST  3.4 OM  1.1 f0 10.2 R0.1161 AL 1.15 WI 55.0 MW  2.0 3
 SPEC TERVHH N T 93122 K 0.020 GD  109 VS 3.20 DE 2.60 Q0 65.0 QA 1.10 Q1 1.00 3
 SPEC TACVHH E MO 11.8 ST  1.5 OM  0.8 f0 9.81 R0.1207 AL 1.61 WI 40.1 MW  1.8 3
 SPEC TACVHH E T 93122 K 0.020 GD  110 VS 3.20 DE 2.60 Q0 65.0 QA 1.10 Q1 1.00 3
 SPEC MAPVHH N MO 11.8 ST0.653 OM  1.1 f0 7.37 R0.1607 AL 2.87 WI 70.5 MW  1.8 3
 SPEC MAPVHH N T 931 5 K 0.020 GD 54.8 VS 3.20 DE 2.60 Q0 65.0 QA 1.10 Q1 1.00 3
 SPEC BENVHH N MO 11.8 ST0.891 OM  1.0 f0 8.37 R0.1415 AL 2.57 WI 70.5 MW  1.8 3
 SPEC BENVHH N T 931 7 K 0.020 GD 64.3 VS 3.20 DE 2.60 Q0 65.0 QA 1.10 Q1 1.00 3
 SPEC BAUVHH N MO 12.4 ST  2.1 OM  1.4 f0 6.73 R0.1759 AL 0.93 WI 81.5 MW  2.2 3
 SPEC BAUVHH N T 93128 K 0.020 GD  117 VS 3.20 DE 2.60 Q0 65.0 QA 1.10 Q1 1.00 3
 ACTION:UP  19-01-01 06:13 OP:rms  STATUS:               ID:20190101092800     I
 OLDACT:UP  19-01-01 06:13 OP:rms  STATUS:               ID:20190101092800     3
 OLDACT:UP  19-01-01 06:12 OP:rms  STATUS:               ID:20190101092800     3
 OLDACT:UP  19-01-01 06:09 OP:rms  STATUS:               ID:20190101092800     3
 OLDACT:REG 19-01-01 06:09 OP:rms  STATUS:               ID:20190101092800     3
 2019-01-01-0928-00S.MAN___119                                                 6
 STAT SP IPHASW D HRMM SECON CODA AMPLIT PERI AZIMU VELO AIN AR TRES W  DIS CAZ7
 MAPV HZ EP        930 58.13                              90   -0.2910 54.0 222 
 MAPV HN ES        931  5.53                              90    0.2510 54.0 222 
 BENV HZ EP        930 59.79                              90   -0.1710 63.6 114 
 BENV HN ES        931  7.83                              90   -0.1410 63.6 114 
 TERV HZ EP        931  9.05                              90    0.2710  119 258 
 TERV HN ES        931 22.91                              90   -0.4010  119 258 
 TACV HZ EP        931  9.59                              90    0.5210  121  93 
 TACV HE ES        931 23.55                              90   -0.2610  121  93 
 BAUV HZ EP        931 12.19                              90    0.3310  139 176 
 BAUV HN ES        931 28.54                              90   -0.1210  139 176 
                                                                                
