 2019  1 4 1559 36.8 L  10.279 -68.123 15.1  FUN  3 0.2 1.9WFUN                1
 SPEC AVERAGE  MO 11.9 ST0.906 OM  1.0 f0 7.41 R0.1605 AL 1.40 WI 19.7 MW  1.9 3
 SPEC SD       MO  0.2 ST0.256 OM  0.1 f00.509 R0.0115 AL      WI      MW  0.1 3
 GAP=265        0.62       6.2     2.2  3.2 -0.7034E+01 -0.8098E+00  0.5870E+01E
 SPEC MAPVHH N MO 11.9 ST0.914 OM  1.1 f0 7.85 R0.1508 AL 1.42 WI 20.7 MW  1.8 3
 SPEC MAPVHH N T155954 K 0.020 GD 63.4 VS 3.20 DE 2.60 Q0 65.0 QA 1.10 Q1 1.00 3
 SPEC BENVHH N MO 11.7 ST0.589 OM  0.9 f0 7.69 R0.1540 AL 1.73 WI 17.6 MW  1.7 3
 SPEC BENVHH N T155956 K 0.020 GD 69.0 VS 3.20 DE 2.60 Q0 65.0 QA 1.10 Q1 1.00 3
 SPEC BAUVHH E MO 12.2 ST  1.2 OM  1.1 f0 6.70 R0.1767 AL 1.04 WI 20.7 MW  2.1 3
 SPEC BAUVHH E T16 016 K 0.020 GD  148 VS 3.20 DE 2.60 Q0 65.0 QA 1.10 Q1 1.00 3
 ACTION:UP  19-01-05 06:47 OP:elv  STATUS:               ID:20190104155801d    I
 OLDACT:UP  19-01-05 06:47 OP:elv  STATUS:               ID:20190104155801d    3
 OLDACT:UP  19-01-05 06:46 OP:elv  STATUS:               ID:20190104155801d    3
 OLDACT:UP  19-01-05 06:46 OP:elv  STATUS:               ID:20190104155801d    3
 OLDACT:UP  19-01-05 06:46 OP:elv  STATUS:               ID:20190104155801d    3
 OLDACT:UP  19-01-05 06:45 OP:elv  STATUS:               ID:20190104155801d    3
 OLDACT:DUP 19-01-05 06:44 OP:elv  STATUS:               ID:20190104155801d    3
 OLDACT:UP  19-01-05 06:44 OP:elv  STATUS:               ID:20190104155800     3
 OLDACT:UP  19-01-05 06:43 OP:elv  STATUS:               ID:20190104155800     3
 OLDACT:UP  19-01-05 06:43 OP:elv  STATUS:               ID:20190104155800     3
 OLDACT:UP  19-01-05 06:42 OP:elv  STATUS:               ID:20190104155800     3
 OLDACT:UP  19-01-05 06:41 OP:elv  STATUS:               ID:20190104155800     3
 OLDACT:UP  19-01-04 15:07 OP:icm  STATUS:               ID:20190104155800     3
 OLDACT:UP  19-01-04 14:57 OP:icm  STATUS:               ID:20190104155800     3
 OLDACT:UP  19-01-04 12:38 OP:icm  STATUS:               ID:20190104155800     3
 OLDACT:REG 19-01-04 12:37 OP:icm  STATUS:               ID:20190104155800     3
 2019-01-04-1558-00S.MAN___119                                                 6
 STAT SP IPHASW D HRMM SECON CODA AMPLIT PERI AZIMU VELO AIN AR TRES W  DIS CAZ7
 MAPV HZ EP       1559 47.05                              98   -0.3410 61.6 216 
 MAPV HN ES       1559 55.40                              98    0.2010 61.6 216 
 BENV HZ EP       1559 48.62                              97    0.3010 67.3 121 
 BENV HN ES       1559 56.63                              97   -0.1710 67.3 121 
 BAUV HZ EP       16 0  0.62                              49    0.0410  148 177 
 BAUV HE ES       16 0 18.12                              49   -0.0210  148 177 
                                                                                
 2019  1 4 1730  2.4 L  10.283 -68.158 18.4  FUN  3 0.4 2.1WFUN                1
 SPEC AVERAGE  MO 12.2 ST  2.2 OM  1.3 f0 8.13 R0.1480 AL 2.54 WI 32.0 MW  2.1 3
 SPEC SD       MO  0.3 ST0.704 OM  0.2 f0 1.03 R0.0180 AL      WI      MW  0.2 3
 GAP=267        1.12      11.0     4.4  5.3 -0.2671E+02 -0.2611E+01  0.1477E+02E
 SPEC MAPVHH N MO 12.1 ST  1.8 OM  1.4 f0 7.85 R0.1508 AL 2.95 WI 35.2 MW  2.0 3
 SPEC MAPVHH N T173018 K 0.020 GD 62.7 VS 3.20 DE 2.60 Q0 65.0 QA 1.10 Q1 1.00 3
 SPEC BENVHH E MO 11.9 ST  1.7 OM  1.1 f0 9.50 R0.1246 AL 3.25 WI 33.9 MW  1.9 3
 SPEC BENVHH E T173021 K 0.020 GD 73.2 VS 3.20 DE 2.60 Q0 65.0 QA 1.10 Q1 1.00 3
 SPEC BAUVHH E MO 12.5 ST  3.2 OM  1.4 f0 7.03 R0.1684 AL 1.41 WI 26.9 MW  2.3 3
 SPEC BAUVHH E T173041 K 0.020 GD  150 VS 3.20 DE 2.60 Q0 65.0 QA 1.10 Q1 1.00 3
 ACTION:UP  19-01-04 14:39 OP:db   STATUS:               ID:20190104172800     I
 OLDACT:UP  19-01-04 14:38 OP:db   STATUS:               ID:20190104172800     3
 OLDACT:UP  19-01-04 14:37 OP:db   STATUS:               ID:20190104172800     3
 OLDACT:UP  19-01-04 14:35 OP:db   STATUS:               ID:20190104172800     3
 OLDACT:REG 19-01-04 13:46 OP:icm  STATUS:               ID:20190104172800     3
 2019-01-04-1728-00S.MAN___119                                                 6
 STAT SP IPHASW D HRMM SECON CODA AMPLIT PERI AZIMU VELO AIN AR TRES W  DIS CAZ7
 MAPV HZ EP       1730 12.78                             102    0.0210 59.9 213 
 MAPV HN ES       1730 20.42                             102   -0.0110 59.9 213 
 BENV HZ EP       1730 13.82                             100   -0.6610 70.8 120 
 BENV HE ES       1730 23.81                             100    0.3810 70.8 120 
 BAUV HZ EP       1730 26.52                              49    0.6410  149 175 
 BAUV HE ES       1730 42.89                              49   -0.3710  149 175 
                                                                                
 2019  1 4 1739 23.0 L  10.347 -68.219 14.8  FUN  4 0.7 2.5WFUN                1
 SPEC AVERAGE  MO 12.8 ST  8.8 OM  1.7 f0 7.78 R0.1541 AL 2.85 WI 35.3 MW  2.5 3
 SPEC SD       MO  0.2 ST  4.1 OM  0.2 f00.839 R0.0173 AL      WI      MW  0.1 3
 GAP=277        1.84      14.6     7.4  7.6 -0.5528E+02 -0.9309E+01  0.1319E+02E
 SPEC CACVHH N MO 12.9 ST 13.0 OM  1.4 f0 8.50 R0.1393 AL 1.82 WI 30.4 MW  2.5 3
 SPEC CACVHH N T174056 K 0.020 GD  399 VS 3.20 DE 2.60 Q0 65.0 QA 1.10 Q1 1.00 3
 SPEC MAPVHH N MO 12.6 ST  3.3 OM  1.9 f0 6.60 R0.1794 AL 3.19 WI 46.7 MW  2.4 3
 SPEC MAPVHH N T173940 K 0.020 GD 64.5 VS 3.20 DE 2.60 Q0 65.0 QA 1.10 Q1 1.00 3
 SPEC BENVHH E MO 12.6 ST  6.5 OM  1.7 f0 8.64 R0.1370 AL 3.09 WI 40.5 MW  2.3 3
 SPEC BENVHH E T173943 K 0.020 GD 81.6 VS 3.20 DE 2.60 Q0 65.0 QA 1.10 Q1 1.00 3
 SPEC BAUVHH E MO 13.1 ST 12.6 OM  1.9 f0 7.37 R0.1607 AL 3.28 WI 23.8 MW  2.7 3
 SPEC BAUVHH E T1740 3 K 0.020 GD  156 VS 3.20 DE 2.60 Q0 65.0 QA 1.10 Q1 1.00 3
 ACTION:UP  19-01-04 14:28 OP:db   STATUS:               ID:20190104173700     I
 OLDACT:UP  19-01-04 14:27 OP:db   STATUS:               ID:20190104173700     3
 OLDACT:UP  19-01-04 14:25 OP:db   STATUS:               ID:20190104173700     3
 OLDACT:UP  19-01-04 14:22 OP:db   STATUS:               ID:20190104173700     3
 OLDACT:UP  19-01-04 14:09 OP:icm  STATUS:               ID:20190104173700     3
 OLDACT:UP  19-01-04 13:55 OP:icm  STATUS:               ID:20190104173700     3
 OLDACT:REG 19-01-04 13:51 OP:icm  STATUS:               ID:20190104173700     3
 2019-01-04-1737-00S.MAN___119                                                 6
 STAT SP IPHASW D HRMM SECON CODA AMPLIT PERI AZIMU VELO AIN AR TRES W  DIS CAZ7
 MAPV HZ EP       1739 34.37                              98    0.6610 62.8 205 
 MAPV HN ES       1739 41.73                              98    0.0810 62.8 205 
 BENV HZ EP       1739 35.88                              95   -0.6010 80.2 122 
 BENV HE ES       1739 46.41                              95   -0.0610 80.2 122 
 BAUV HZ EP       1739 47.32                              49   -0.4610  156 173 
 BAUV HE ES       1740  4.99                              49   -1.1310  156 173 
 CACV HZ EP       1740 17.17                              49    0.2110  399 142 
 CACV HN ES       1740 58.21                              49    1.3110  399 142 
                                                                                
 2019  1 4 1833 30.7 L  10.254 -68.190 21.0  FUN  5 0.5 2.1WFUN                1
 SPEC AVERAGE  MO 12.3 ST  3.1 OM  1.3 f0 8.10 R0.1496 AL 2.69 WI 25.2 MW  2.1 3
 SPEC SD       MO  0.2 ST  1.7 OM  0.1 f0 1.13 R0.0247 AL      WI      MW  0.1 3
 GAP=202        1.27       6.1     2.9  4.6 -0.3721E+01 -0.4746E+01 -0.2447E+01E
 SPEC TERVHH N MO 12.4 ST  1.3 OM  1.3 f0 6.00 R0.1973 AL 1.50 WI 26.0 MW  2.2 3
 SPEC TERVHH N T1834 0 K 0.020 GD  115 VS 3.20 DE 2.60 Q0 65.0 QA 1.10 Q1 1.00 3
 SPEC TACVHH N MO 12.3 ST  4.0 OM  1.2 f0 9.35 R0.1266 AL 2.69 WI 23.8 MW  2.1 3
 SPEC TACVHH N T1834 6 K 0.020 GD  129 VS 3.20 DE 2.60 Q0 65.0 QA 1.10 Q1 1.00 3
 SPEC MAPVHH N MO 12.2 ST  2.4 OM  1.5 f0 8.11 R0.1460 AL 2.61 WI 22.9 MW  2.1 3
 SPEC MAPVHH N T183347 K 0.020 GD 59.1 VS 3.20 DE 2.60 Q0 65.0 QA 1.10 Q1 1.00 3
 SPEC BENVHH E MO 12.0 ST  1.8 OM  1.2 f0 8.68 R0.1364 AL 2.81 WI 20.3 MW  2.0 3
 SPEC BENVHH E T183350 K 0.020 GD 75.4 VS 3.20 DE 2.60 Q0 65.0 QA 1.10 Q1 1.00 3
 SPEC BAUVHH E MO 12.6 ST  6.0 OM  1.5 f0 8.37 R0.1415 AL 3.83 WI 33.0 MW  2.3 3
 SPEC BAUVHH E T1834 8 K 0.020 GD  147 VS 3.20 DE 2.60 Q0 65.0 QA 1.10 Q1 1.00 3
 ACTION:UP  19-01-04 14:54 OP:icm  STATUS:               ID:20190104183100     I
 OLDACT:UP  19-01-04 14:52 OP:icm  STATUS:               ID:20190104183100     3
 OLDACT:UP  19-01-04 14:47 OP:icm  STATUS:               ID:20190104183100     3
 OLDACT:REG 19-01-04 14:46 OP:icm  STATUS:               ID:20190104183100     3
 2019-01-04-1831-00S.MAN___119                                                 6
 STAT SP IPHASW D HRMM SECON CODA AMPLIT PERI AZIMU VELO AIN AR TRES W  DIS CAZ7
 MAPV HZ EP       1833 39.92                             107   -0.5410 55.2 212 
 MAPV HN ES       1833 47.95                             107    0.2610 55.2 212 
 BENV HZ EP       1833 42.35                             102   -0.7810 72.4 116 
 BENV HE ES       1833 52.96                             102    0.6310 72.4 116 
 TERV HZ EP       1833 50.03                              97    0.3510  114 254 
 TERV HN ES       1834  4.01                              97    0.2910  114 254 
 TACV HZ EP       1833 51.33                              49   -0.1610  128  96 
 TACV HN ES       1834  7.37                              49    0.5010  128  96 
 BAUV HZ EP       1833 52.92                              49   -0.6510  146 174 
 BAUV HE ES       1834 10.60                              49    0.1010  146 174 
                                                                                
 2019  1 4 1933 40.2 L  10.213 -68.103 12.5  FUN  5 0.2 2.3WFUN                1
 SPEC AVERAGE  MO 12.5 ST  2.2 OM  1.6 f0 6.47 R0.1899 AL 1.97 WI 20.5 MW  2.3 3
 SPEC SD       MO  0.3 ST  1.0 OM  0.2 f0 1.21 R0.0372 AL      WI      MW  0.2 3
 GAP=197        0.60       2.5     1.1 30.3 -0.6810E+00  0.3117E+01 -0.2476E+02E
 SPEC TERVHH N MO 12.6 ST  1.3 OM  1.6 f0 4.88 R0.2426 AL 1.14 WI 20.7 MW  2.4 3
 SPEC TERVHH N T193414 K 0.020 GD  118 VS 3.20 DE 2.60 Q0 65.0 QA 1.10 Q1 1.00 3
 SPEC MAPVHH N MO 12.3 ST  2.6 OM  1.6 f0 7.79 R0.1520 AL 3.58 WI 13.2 MW  2.2 3
 SPEC MAPVHH N T193357 K 0.020 GD 58.7 VS 3.20 DE 2.60 Q0 65.0 QA 1.10 Q1 1.00 3
 SPEC BENVHH N MO 12.1 ST  1.3 OM  1.3 f0 7.49 R0.1581 AL 1.92 WI 23.3 MW  2.0 3
 SPEC BENVHH N T193358 K 0.020 GD 63.1 VS 3.20 DE 2.60 Q0 65.0 QA 1.10 Q1 1.00 3
 SPEC BAUVHH E MO 12.9 ST  3.7 OM  1.8 f0 5.72 R0.2070 AL 1.24 WI 24.7 MW  2.5 3
 SPEC BAUVHH E T193419 K 0.020 GD  132 VS 3.20 DE 2.60 Q0 65.0 QA 1.10 Q1 1.00 3
 ACTION:UP  19-01-04 15:45 OP:elv  STATUS:               ID:20190104193100     I
 OLDACT:UP  19-01-04 15:45 OP:elv  STATUS:               ID:20190104193100     3
 OLDACT:UP  19-01-04 15:44 OP:elv  STATUS:               ID:20190104193100     3
 OLDACT:UP  19-01-04 15:44 OP:elv  STATUS:               ID:20190104193100     3
 OLDACT:REG 19-01-04 15:44 OP:elv  STATUS:               ID:20190104193100     3
 2019-01-04-1931-00S.MAN___119                                                 6
 STAT SP IPHASW D HRMM SECON CODA AMPLIT PERI AZIMU VELO AIN AR TRES W  DIS CAZ7
 MAPV HZ EP       1933 49.50                              95   -0.5110 57.4 223 
 MAPV HN ES       1933 57.51                              95    0.2210 57.4 223 
 BENV HZ EP       1933 50.57                              95   -0.1510 61.8 117 
 BENV HN ES       1933 58.65                              95    0.1210 61.8 117 
 TACV HZ EP       1933 59.80                              92    0.1510  118  94 
 TACV HE ES       1934 13.99                              92   -0.0810  118  94 
 TERV HZ EP       1934  0.46                              92    0.1310  123 257 
 TERV HN ES       1934 15.27                              92    0.0210  123 257 
 BAUV HZ EP       1934  3.37                              92    0.2010  141 177 
 BAUV HE ES       1934 20.10                              92   -0.0910  141 177 
                                                                                
 2019  1 4 1934 51.3 L  10.318 -68.144 16.8  FUN  4 0.2 2.2WFUN                1
 SPEC AVERAGE  MO 12.3 ST  2.7 OM  1.4 f0 7.84 R0.1511 AL 3.01 WI 22.7 MW  2.2 3
 SPEC SD       MO  0.0 ST0.499 OM  0.1 f00.265 R0.0051 AL      WI      MW  0.0 3
 GAP=247        0.52       3.8     1.8  2.5 -0.4694E+01 -0.1545E+00  0.2318E+01E
 SPEC TACVHH N MO 12.3 ST  3.1 OM  1.3 f0 8.11 R0.1460 AL 2.14 WI 25.1 MW  2.2 3
 SPEC TACVHH N T193525 K 0.020 GD  125 VS 3.20 DE 2.60 Q0 65.0 QA 1.10 Q1 1.00 3
 SPEC MAPVHH N MO 12.3 ST  2.2 OM  1.5 f0 7.58 R0.1562 AL 3.88 WI 20.3 MW  2.1 3
 SPEC MAPVHH N T1935 9 K 0.020 GD 66.1 VS 3.20 DE 2.60 Q0 65.0 QA 1.10 Q1 1.00 3
 ACTION:UP  19-01-04 15:48 OP:elv  STATUS:               ID:20190104193200     I
 OLDACT:UP  19-01-04 15:48 OP:elv  STATUS:               ID:20190104193200     3
 OLDACT:UP  19-01-04 15:47 OP:elv  STATUS:               ID:20190104193200     3
 OLDACT:UP  19-01-04 15:47 OP:elv  STATUS:               ID:20190104193200     3
 OLDACT:REG 19-01-04 15:46 OP:elv  STATUS:               ID:20190104193200     3
 2019-01-04-1932-00S.MAN___119                                                 6
 STAT SP IPHASW D HRMM SECON CODA AMPLIT PERI AZIMU VELO AIN AR TRES W  DIS CAZ7
 MAPV HZ EP       1935  1.95                             100   -0.2810 63.9 213 
 MAPV HN ES       1935 10.45                             100    0.1210 63.9 213 
 BENV HZ EP       1935  3.72                              99    0.2810 71.5 123 
 BENV HE ES       1935 12.39                              99   -0.0610 71.5 123 
 TACV HZ EP       1935 11.89                              94    0.1710  124  99 
 TACV HN ES       1935 26.64                              94   -0.2110  124  99 
 BAUV HZ EP       1935 15.32                              49   -0.0510  152 176 
 BAUV HE ES       1935 33.22                              49    0.0310  152 176 
                                                                                
 2019  1 4 2258 43.8 L  10.220 -68.094 17.2  FUN  4 0.3 2.3WFUN                1
 SPEC AVERAGE  MO 12.5 ST  5.6 OM  1.7 f0 6.23 R0.3119 AL 1.62 WI 26.5 MW  2.3 3
 SPEC SD       MO  0.2 ST  6.3 OM  0.0 f0 3.24 R0.2399 AL      WI      MW  0.1 3
 GAP=232        0.83       6.5     2.7  4.1 -0.1214E+02 -0.2101E+01  0.1129E+02E
 SPEC MAPVHH N MO 12.3 ST  2.3 OM  1.6 f0 7.37 R0.1607 AL 2.66 WI 26.4 MW  2.2 3
 SPEC MAPVHH N T2259 1 K 0.020 GD 61.1 VS 3.20 DE 2.60 Q0 65.0 QA 1.10 Q1 1.00 3
 SPEC BENVHH N MO 12.5 ST0.045 OM  1.7 f0 1.82 R0.6505 AL 0.86 WI 25.5 MW  2.2 3
 SPEC BENVHH N T2259 1 K 0.020 GD 63.7 VS 3.20 DE 2.60 Q0 65.0 QA 1.10 Q1 1.00 3
 SPEC BAUVHH N MO 12.8 ST 14.4 OM  1.7 f0 9.50 R0.1246 AL 1.35 WI 27.7 MW  2.5 3
 SPEC BAUVHH N T225920 K 0.020 GD  142 VS 3.20 DE 2.60 Q0 65.0 QA 1.10 Q1 1.00 3
 ACTION:UP  19-01-04 19:17 OP:elv  STATUS:               ID:20190104225700     I
 OLDACT:UP  19-01-04 19:17 OP:elv  STATUS:               ID:20190104225700     3
 OLDACT:UP  19-01-04 19:17 OP:elv  STATUS:               ID:20190104225700     3
 OLDACT:UP  19-01-04 19:16 OP:elv  STATUS:               ID:20190104225700     3
 OLDACT:REG 19-01-04 19:16 OP:elv  STATUS:               ID:20190104225700     3
 2019-01-04-2257-00S.MAN___119                                                 6
 STAT SP IPHASW D HRMM SECON CODA AMPLIT PERI AZIMU VELO AIN AR TRES W  DIS CAZ7
 MAPV HN ES       2259  1.53                             101    0.0710 58.6 223 
 BENV HN ES       2259  2.29                             101    0.0610 61.3 118 
 TACV HZ EP       2259  3.26                              95    0.0510  117  94 
 TACV HE ES       2259 17.15                              95   -0.4110  117  94 
 BAUV HN ES       2259 23.10                              49   -0.2510  141 178 
 BAUV HZ EP       2259  6.96                              49    0.4210  141 178 
 BENV HZ EP       2258 54.83                             101    0.4310 61.3 118 
 MAPV HZ EP       2258 53.57                             101   -0.3910 58.6 223 
                                                                                
 2019  1 5 0014 36.0 L  10.292 -68.205 20.2  FUN  4 0.3 1.7WFUN                1
 SPEC AVERAGE  MO 11.6 ST0.531 OM  0.7 f0 7.86 R0.1540 AL 2.34 WI 22.0 MW  1.7 3
 SPEC SD       MO  0.2 ST0.122 OM  0.3 f0 1.19 R0.0218 AL      WI      MW  0.1 3
 GAP=249        0.83       5.5     3.3  3.1 -0.1186E+02 -0.7493E+00 -0.3509E+01E
 SPEC TACVHH E MO 11.5 ST0.670 OM  0.4 f0 9.50 R0.1246 AL 2.65 WI 22.9 MW  1.6 3
 SPEC TACVHH E T 015 9 K 0.020 GD  131 VS 3.20 DE 2.60 Q0 65.0 QA 1.10 Q1 1.00 3
 SPEC MAPVHH N MO 11.8 ST0.550 OM  1.1 f0 6.70 R0.1767 AL 2.57 WI 21.1 MW  1.8 3
 SPEC MAPVHH N T 01453 K 0.020 GD 61.4 VS 3.20 DE 2.60 Q0 65.0 QA 1.10 Q1 1.00 3
 SPEC BENVHH E MO 11.5 ST0.372 OM  0.7 f0 7.37 R0.1607 AL 1.79 WI 22.0 MW  1.6 3
 SPEC BENVHH E T 01457 K 0.020 GD 78.4 VS 3.20 DE 2.60 Q0 65.0 QA 1.10 Q1 1.00 3
 ACTION:UP  19-01-04 20:25 OP:elv  STATUS:               ID:20190105001200     I
 OLDACT:UP  19-01-04 20:24 OP:elv  STATUS:               ID:20190105001200     3
 OLDACT:UP  19-01-04 20:24 OP:elv  STATUS:               ID:20190105001200     3
 OLDACT:UP  19-01-04 20:23 OP:elv  STATUS:               ID:20190105001200     3
 OLDACT:UP  19-01-04 20:23 OP:elv  STATUS:               ID:20190105001200     3
 OLDACT:REG 19-01-04 20:23 OP:elv  STATUS:               ID:20190105001200     3
 2019-01-05-0012-00S.MAN___119                                                 6
 STAT SP IPHASW D HRMM SECON CODA AMPLIT PERI AZIMU VELO AIN AR TRES W  DIS CAZ7
 MAPV HZ EP        014 46.13                             105   -0.0410 58.0 209 
 MAPV HN ES        014 53.72                             105    0.0310 58.0 209 
 BENV HZ EP        014 48.41                             101   -0.5310 75.8 119 
 BENV HE ES        014 58.80                             101    0.3010 75.8 119 
 TACV HZ EP        014 57.68                              49    0.5410  130  97 
 TACV HE ES        015 12.47                              49   -0.3010  130  97 
 BAUV HZ EP        014 59.51                              49    0.0110  150 173 
 BAUV HE ES        015 16.86                              49   -0.0210  150 173 
                                                                                
