 2019  1 3 0831  4.2 L  10.261 -68.118 13.2  FUN  5 0.5 2.6WFUN                1
 SPEC AVERAGE  MO 13.0 ST  6.3 OM  2.1 f0 4.96 R0.2556 AL 0.69 WI 20.3 MW  2.6 3
 SPEC SD       MO  0.3 ST  6.2 OM  0.1 f0 1.27 R0.0673 AL      WI      MW  0.2 3
 GAP=202        1.33       7.4     2.6  7.2 -0.5589E+01 -0.2243E+01  0.2360E+02E
 SPEC TERVHH N MO 13.1 ST  4.4 OM  2.0 f0 5.20 R0.2277 AL 1.46 WI 23.8 MW  2.7 3
 SPEC TERVHH N T 83138 K 0.020 GD  120 VS 3.20 DE 2.60 Q0 65.0 QA 1.10 Q1 1.00 3
 SPEC TACVHH N MO 13.3 ST 17.3 OM  2.3 f0 6.81 R0.1739 AL 0.00 WI 21.6 MW  2.8 3
 SPEC TACVHH N T 83137 K 0.020 GD  118 VS 3.20 DE 2.60 Q0 65.0 QA 1.10 Q1 1.00 3
 SPEC MAPVHH N MO 12.8 ST0.656 OM  2.0 f0 3.42 R0.3462 AL 0.73 WI 16.1 MW  2.5 3
 SPEC MAPVHH N T 83120 K 0.020 GD 61.8 VS 3.20 DE 2.60 Q0 65.0 QA 1.10 Q1 1.00 3
 SPEC BENVHH N MO 12.6 ST0.564 OM  1.9 f0 3.66 R0.3235 AL 0.62 WI 18.0 MW  2.4 3
 SPEC BENVHH N T 83123 K 0.020 GD 67.1 VS 3.20 DE 2.60 Q0 65.0 QA 1.10 Q1 1.00 3
 SPEC BAUVHH N MO 13.2 ST  8.6 OM  2.1 f0 5.72 R0.2070 AL 0.65 WI 22.0 MW  2.8 3
 SPEC BAUVHH N T 83144 K 0.020 GD  141 VS 3.20 DE 2.60 Q0 65.0 QA 1.10 Q1 1.00 3
 ACTION:UP  19-01-03 05:58 OP:y    STATUS:               ID:20190103083000     I
 OLDACT:UP  19-01-03 05:57 OP:y    STATUS:               ID:20190103083000     3
 OLDACT:UP  19-01-03 05:57 OP:y    STATUS:               ID:20190103083000     3
 OLDACT:REG 19-01-03 05:41 OP:re   STATUS:               ID:20190103083000     3
 2019-01-03-0830-00S.MAN___119                                                 6
 STAT SP IPHASW D HRMM SECON CODA AMPLIT PERI AZIMU VELO AIN AR TRES W  DIS CAZ7
 MAPV HZ EP        831 14.09                              96   -0.4510 60.4 218 
 MAPV HN ES        831 22.56                              96    0.3810 60.4 218 
 BENV HZ EP        831 14.43                              95   -0.9910 65.8 120 
 BENV HN ES        831 23.76                              95    0.0510 65.8 120 
 TACV HZ EP        831 23.69                              92   -0.3610  120  96 
 TACV HN ES        831 39.71                              92    0.9810  120  96 
 TERV HZ EP        831 24.59                              92    0.2510  122 254 
 TERV HN ES        831 39.34                              92    0.1110  122 254 
 BAUV HZ EP        831 27.95                              49    0.0410  146 177 
 BAUV HN ES        831 45.42                              49   -0.0110  146 177 
                                                                                
 2019  1 3 0835  8.3 L  10.229 -68.142 11.6  FUN  5 0.4 2.7WFUN                1
 SPEC AVERAGE  MO 13.2 ST  4.1 OM  2.3 f0 4.22 R0.3374 AL 1.26 WI 21.8 MW  2.7 3
 SPEC SD       MO  0.1 ST  3.2 OM  0.2 f0 1.67 R0.1530 AL      WI      MW  0.1 3
 GAP=199        1.00       4.3     1.9 66.8 -0.1888E+01  0.2451E+01 -0.1035E+03E
 SPEC TERVHH N MO 13.1 ST  8.1 OM  2.1 f0 6.36 R0.1862 AL 1.56 WI 16.4 MW  2.7 3
 SPEC TERVHH N T 83542 K 0.020 GD  113 VS 3.20 DE 2.60 Q0 65.0 QA 1.10 Q1 1.00 3
 SPEC TACVHH N MO 13.4 ST  2.1 OM  2.4 f0 3.23 R0.3666 AL 0.00 WI 28.3 MW  2.9 3
 SPEC TACVHH N T 83544 K 0.020 GD  115 VS 3.20 DE 2.60 Q0 65.0 QA 1.10 Q1 1.00 3
 SPEC MAPVHH N MO 13.3 ST  2.4 OM  2.6 f0 3.66 R0.3235 AL 1.03 WI 16.2 MW  2.8 3
 SPEC MAPVHH N T 83523 K 0.020 GD 57.2 VS 3.20 DE 2.60 Q0 65.0 QA 1.10 Q1 1.00 3
 SPEC BENVHH N MO 13.0 ST0.198 OM  2.2 f0 1.94 R0.6103 AL 1.15 WI 22.1 MW  2.6 3
 SPEC BENVHH N T 83528 K 0.020 GD 67.4 VS 3.20 DE 2.60 Q0 65.0 QA 1.10 Q1 1.00 3
 SPEC BAUVHH N MO 13.2 ST  7.7 OM  2.1 f0 5.90 R0.2007 AL 2.58 WI 25.8 MW  2.7 3
 SPEC BAUVHH N T 83545 K 0.020 GD  129 VS 3.20 DE 2.60 Q0 65.0 QA 1.10 Q1 1.00 3
 ACTION:UP  19-01-03 06:00 OP:y    STATUS:               ID:20190103083400     I
 OLDACT:UP  19-01-03 05:59 OP:y    STATUS:               ID:20190103083400     3
 OLDACT:REG 19-01-03 05:42 OP:re   STATUS:               ID:20190103083400     3
 2019-01-03-0834-00S.MAN___119                                                 6
 STAT SP IPHASW D HRMM SECON CODA AMPLIT PERI AZIMU VELO AIN AR TRES W  DIS CAZ7
 MAPV HZ EP        835 17.24                              94   -0.6410 56.0 218 
 MAPV HN ES        835 25.26                              94    0.2810 56.0 218 
 BENV HZ EP        835 19.00                              93   -0.5610 66.4 116 
 BENV HN ES        835 28.03                              93    0.1210 66.4 116 
 TERV HZ EP        835 27.58                              92   -0.2610  119 256 
 TERV HN ES        835 42.73                              92    0.4110  119 256 
 TACV HZ EP        835 29.02                              91    0.5510  123  95 
 TACV HN ES        835 43.46                              91    0.0610  123  95 
 BAUV HZ EP        835 31.54                              91   -0.0610  143 176 
 BAUV HN ES        835 48.96                              91    0.1010  143 176 
                                                                                
 2019  1 3 1036 55.1 L  10.266 -68.163 13.3  FUN  5 0.1 2.3WFUN                1
 SPEC AVERAGE  MO 12.5 ST  3.7 OM  1.3 f0 8.01 R0.1987 AL 2.77 WI 19.7 MW  2.3 3
 SPEC SD       MO  0.2 ST  3.5 OM  0.4 f00.751 R0.0672 AL      WI      MW  0.1 3
 GAP=203        0.45       2.4     0.9  2.4 -0.6962E+00 -0.2948E+00  0.2428E+01E
 SPEC TERVHH Z MO 12.4 ST0.403 OM  0.6 f0 6.90 R0.3110 AL 1.74 WI 18.5 MW  2.2 3
 SPEC TERVHH Z T103713 K 0.010 GD  118 VP 5.80 DE 2.60 Q0500.0 QA 0.70 Q1 1.00 3
 SPEC MAPVHH Z MO 12.6 ST  1.3 OM  1.1 f0 8.92 R0.2406 AL 4.26 WI 12.8 MW  2.3 3
 SPEC MAPVHH Z T1037 3 K 0.010 GD 59.4 VP 5.80 DE 2.60 Q0500.0 QA 0.70 Q1 1.00 3
 SPEC BENVHH N MO 12.3 ST  3.1 OM  1.5 f0 8.34 R0.1420 AL 2.54 WI 14.1 MW  2.1 3
 SPEC BENVHH N T103714 K 0.020 GD 71.6 VS 3.20 DE 2.60 Q0 65.0 QA 1.10 Q1 1.00 3
 SPEC BAUVHH E MO 12.8 ST 10.4 OM  1.7 f0 8.50 R0.1393 AL 2.00 WI 25.1 MW  2.5 3
 SPEC BAUVHH E T103734 K 0.020 GD  142 VS 3.20 DE 2.60 Q0 65.0 QA 1.10 Q1 1.00 3
 ACTION:UP  19-01-03 08:20 OP:icm  STATUS:               ID:20190103103600     I
 OLDACT:UP  19-01-03 08:03 OP:icm  STATUS:               ID:20190103103600     3
 OLDACT:UP  19-01-03 08:01 OP:icm  STATUS:               ID:20190103103600     3
 OLDACT:UP  19-01-03 07:57 OP:icm  STATUS:               ID:20190103103600     3
 OLDACT:UP  19-01-03 07:47 OP:icm  STATUS:               ID:20190103103600     3
 OLDACT:UP  19-01-03 07:44 OP:icm  STATUS:               ID:20190103103600     3
 OLDACT:UP  19-01-03 07:36 OP:icm  STATUS:               ID:20190103103600     3
 OLDACT:REE 19-01-03 07:27 OP:icm  STATUS:               ID:20190103103600     3
 OLDACT:UP  19-01-03 06:47 OP:y    STATUS:               ID:20190103103600     3
 OLDACT:UP  19-01-03 06:47 OP:y    STATUS:               ID:20190103103600     3
 OLDACT:UP  19-01-03 06:47 OP:y    STATUS:               ID:20190103103600     3
 OLDACT:UP  19-01-03 06:46 OP:y    STATUS:               ID:20190103103600     3
 OLDACT:REG 19-01-03 06:44 OP:re   STATUS:               ID:20190103103600     3
 2019-01-03-1036-00S.MAN___119                                                 6
 STAT SP IPHASW D HRMM SECON CODA AMPLIT PERI AZIMU VELO AIN AR TRES W  DIS CAZ7
 MAPV HZ EP       1037  5.16                              96    0.0810 57.9 214 
 MAPV HE ES       1037 12.52                              96    0.0910 57.9 214 
 BENV HZ EP       1037  6.72                              95   -0.3510 70.4 118 
 BENV HN ES       1037 15.88                              95   -0.0110 70.4 118 
 TERV HZ EP       1037 14.67                              93    0.1410  118 254 
 TERV HN ES       1037 28.70                              93   -0.1810  118 254 
 TACV HZ EP       1037 15.90                              92    0.1410  125  96 
 TACV HN ES       1037 31.12                              92    0.0910  125  96 
 BAUV HZ EP       1037 18.94                              49    0.0010  147 175 
 BAUV HE ES       1037 36.54                              49   -0.0010  147 175 
                                                                                
 2019  1 3 1036 56.2 L  10.123 -68.124 22.9  FUN  5 0.5 2.5WFUN                1
 SPEC AVERAGE  MO 12.8 ST  2.7 OM  1.9 f0 4.76 R0.2690 AL 1.11 WI 17.0 MW  2.5 3
 SPEC SD       MO  0.2 ST  2.0 OM  0.3 f0 1.34 R0.0741 AL      WI      MW  0.1 3
 GAP=188        1.22       6.0     2.6  3.6 -0.4831E+01  0.9268E+00 -0.5382E+01E
 SPEC TERVHH N MO 12.9 ST  1.1 OM  1.9 f0 3.85 R0.3075 AL 1.04 WI 17.6 MW  2.5 3
 SPEC TERVHH N T103727 K 0.020 GD  120 VS 3.20 DE 2.60 Q0 65.0 QA 1.10 Q1 1.00 3
 SPEC TACVHH N MO 12.7 ST0.350 OM  1.6 f0 3.05 R0.3882 AL 1.83 WI 18.3 MW  2.4 3
 SPEC TACVHH N T103729 K 0.020 GD  122 VS 3.20 DE 2.60 Q0 65.0 QA 1.10 Q1 1.00 3
 SPEC MAPVHH N MO 13.2 ST  4.7 OM  2.5 f0 4.99 R0.2373 AL 0.73 WI 15.0 MW  2.7 3
 SPEC MAPVHH N T103712 K 0.020 GD 53.9 VS 3.20 DE 2.60 Q0 65.0 QA 1.10 Q1 1.00 3
 SPEC BENVHH N MO 12.7 ST  1.6 OM  2.0 f0 4.86 R0.2436 AL 1.04 WI 11.4 MW  2.4 3
 SPEC BENVHH N T103715 K 0.020 GD 64.4 VS 3.20 DE 2.60 Q0 65.0 QA 1.10 Q1 1.00 3
 SPEC BAUVHH N MO 12.8 ST  5.5 OM  1.7 f0 7.03 R0.1684 AL 0.92 WI 22.9 MW  2.5 3
 SPEC BAUVHH N T103735 K 0.020 GD  132 VS 3.20 DE 2.60 Q0 65.0 QA 1.10 Q1 1.00 3
 ACTION:DUP 19-01-03 07:21 OP:icm  STATUS:               ID:20190103103601d    I
 OLDACT:UP  19-01-03 06:47 OP:y    STATUS:               ID:20190103103600     3
 OLDACT:UP  19-01-03 06:47 OP:y    STATUS:               ID:20190103103600     3
 OLDACT:UP  19-01-03 06:47 OP:y    STATUS:               ID:20190103103600     3
 OLDACT:UP  19-01-03 06:46 OP:y    STATUS:               ID:20190103103600     3
 OLDACT:REG 19-01-03 06:44 OP:re   STATUS:               ID:20190103103600     3
 2019-01-03-1036-00S.MAN___119                                                 6
 STAT SP IPHASW D HRMM SECON CODA AMPLIT PERI AZIMU VELO AIN AR TRES W  DIS CAZ7
 MAPV HZ EP       1037  4.66                             112   -0.4610 48.8 229 
 MAPV HN ES       1037 12.26                             112    0.5510 48.8 229 
 BENV HZ EP       1037  6.63                             108   -0.2310 60.2 107 
 BENV HN ES       1037 14.62                             108   -0.1110 60.2 107 
 TERV HZ EP       1037 15.13                              49   -0.5010  118 262 
 TERV HN ES       1037 30.07                              49    0.0810  118 262 
 TACV HZ EP       1037 15.96                              49    0.1010  120  89 
 TACV HN ES       1037 30.70                              49    0.3010  120  89 
 BAUV HN ES       1037 31.89                              49   -0.6110  131 176 
 BAUV HZ EP       1037 17.95                              49    0.8810  131 176 
                                                                                
 2019  1 3 1142 30.1 L  10.288 -68.153 21.8  FUN  4 0.5 2.6WFUN                1
 SPEC AVERAGE  MO 12.9 ST  4.4 OM  1.7 f0 6.78 R0.2212 AL 2.84 WI 22.0 MW  2.6 3
 SPEC SD       MO  0.1 ST  3.0 OM  0.2 f0 1.14 R0.0454 AL      WI      MW  0.0 3
 GAP=205        1.19       6.9     3.5  5.4 -0.1338E+00  0.9474E+01 -0.3263E+01E
 SPEC TERVHH N MO 12.8 ST  2.5 OM  1.8 f0 5.20 R0.2277 AL 2.12 WI 24.2 MW  2.5 3
 SPEC TERVHH N T1143 2 K 0.020 GD  120 VS 3.20 DE 2.60 Q0 65.0 QA 1.10 Q1 1.00 3
 SPEC BENVHH N MO 13.0 ST  2.1 OM  1.4 f0 7.85 R0.2734 AL 3.13 WI 22.9 MW  2.6 3
 SPEC BENVHH N T114239 K 0.010 GD 73.9 VP 5.80 DE 2.60 Q0500.0 QA 0.70 Q1 1.00 3
 SPEC BAUVHH N MO 12.9 ST  8.7 OM  1.8 f0 7.28 R0.1626 AL 3.28 WI 18.9 MW  2.6 3
 SPEC BAUVHH N T1143 8 K 0.020 GD  150 VS 3.20 DE 2.60 Q0 65.0 QA 1.10 Q1 1.00 3
 ACTION:UP  19-01-03 08:13 OP:icm  STATUS:               ID:20190103114000     I
 OLDACT:UP  19-01-03 08:13 OP:icm  STATUS:               ID:20190103114000     3
 OLDACT:UP  19-01-03 08:12 OP:icm  STATUS:               ID:20190103114000     3
 OLDACT:UP  19-01-03 08:10 OP:icm  STATUS:               ID:20190103114000     3
 OLDACT:UP  19-01-03 08:07 OP:icm  STATUS:               ID:20190103114000     3
 OLDACT:REG 19-01-03 08:06 OP:icm  STATUS:               ID:20190103114000     3
 2019-01-03-1140-00S.MAN___119                                                 6
 STAT SP IPHASW D HRMM SECON CODA AMPLIT PERI AZIMU VELO AIN AR TRES W  DIS CAZ7
 BENV HN EP       1142 41.49                             104   -0.8110 70.6 121 
 BENV HE ES       1142 51.76                             104    0.4510 70.6 121 
 TERV HZ EP       1142 49.56                              49   -0.1910  119 253 
 TERV HN ES       1143  4.37                              49    0.0910  119 253 
 TACV HZ EP       1142 50.99                              49    0.6110  125  98 
 TACV HN ES       1143  5.03                              49   -0.3510  125  98 
 BAUV HZ EP       1142 53.73                              49    0.4310  149 175 
 BAUV HN ES       1143 10.22                              49   -0.2310  149 175 
                                                                                
 2019  1 3 1509 19.1 L  10.310 -68.205 16.6  FUN  3 0.3 2.1WFUN                1
 SPEC AVERAGE  MO 12.2 ST  1.7 OM  1.3 f0 7.22 R0.1654 AL 2.04 WI 22.0 MW  2.1 3
 SPEC SD       MO  0.2 ST0.468 OM  0.1 f00.662 R0.0154 AL      WI      MW  0.1 3
 GAP=272        0.82       7.6     3.4  3.9 -0.1535E+02 -0.9167E+00  0.5145E+01E
 SPEC MAPVHH N MO 12.0 ST  1.5 OM  1.3 f0 8.01 R0.1478 AL 2.67 WI 19.8 MW  2.0 3
 SPEC MAPVHH N T15 934 K 0.020 GD 62.1 VS 3.20 DE 2.60 Q0 65.0 QA 1.10 Q1 1.00 3
 SPEC BENVHH N MO 12.1 ST  1.2 OM  1.2 f0 7.26 R0.1631 AL 2.22 WI 22.5 MW  2.0 3
 SPEC BENVHH N T15 941 K 0.020 GD 78.6 VS 3.20 DE 2.60 Q0 65.0 QA 1.10 Q1 1.00 3
 SPEC BAUVHH E MO 12.5 ST  2.3 OM  1.4 f0 6.39 R0.1853 AL 1.22 WI 23.8 MW  2.3 3
 SPEC BAUVHH E T1510 0 K 0.020 GD  152 VS 3.20 DE 2.60 Q0 65.0 QA 1.10 Q1 1.00 3
 ACTION:UP  19-01-03 12:08 OP:elv  STATUS:               ID:20190103150700     I
 OLDACT:UP  19-01-03 12:08 OP:elv  STATUS:               ID:20190103150700     3
 OLDACT:UP  19-01-03 12:08 OP:elv  STATUS:               ID:20190103150700     3
 OLDACT:UP  19-01-03 12:08 OP:elv  STATUS:               ID:20190103150700     3
 OLDACT:UP  19-01-03 12:06 OP:elv  STATUS:               ID:20190103150700     3
 OLDACT:UP  19-01-03 12:05 OP:elv  STATUS:               ID:20190103150700     3
 OLDACT:UP  19-01-03 12:04 OP:elv  STATUS:               ID:20190103150700     3
 OLDACT:UP  19-01-03 12:04 OP:elv  STATUS:               ID:20190103150700     3
 OLDACT:UP  19-01-03 11:52 OP:icm  STATUS:               ID:20190103150700     3
 OLDACT:UP  19-01-03 11:43 OP:icm  STATUS:               ID:20190103150700     3
 OLDACT:REG 19-01-03 11:32 OP:icm  STATUS:               ID:20190103150700     3
 2019-01-03-1507-00S.MAN___119                                                 6
 STAT SP IPHASW D HRMM SECON CODA AMPLIT PERI AZIMU VELO AIN AR TRES W  DIS CAZ7
 MAPV HZ EP       15 9 29.19                             100   -0.1610 59.8 208 
 MAPV HN ES       15 9 37.07                             100    0.0910 59.8 208 
 BENV HZ EP       15 9 31.69                              98   -0.3610 76.8 120 
 BENV HN ES       15 9 41.86                              98    0.2010 76.8 120 
 BAUV HZ EP       15 9 43.67                              49    0.5210  152 173 
 BAUV HE ES       1510  0.68                              49   -0.3010  152 173 
                                                                                
 2019  1 3 1525  3.0 L  10.281 -68.162 17.4  FUN  4 0.2 2.2WFUN                1
 SPEC AVERAGE  MO 12.4 ST  3.6 OM  1.5 f0 7.44 R0.1614 AL 2.73 WI 26.6 MW  2.2 3
 SPEC SD       MO  0.2 ST  2.5 OM  0.1 f00.848 R0.0209 AL      WI      MW  0.1 3
 GAP=227        0.58       3.7     1.4  2.8  0.2357E+00 -0.4110E+00  0.3049E+01E
 SPEC TERVHH N MO 12.6 ST  2.1 OM  1.5 f0 6.00 R0.1973 AL 1.94 WI 32.6 MW  2.3 3
 SPEC TERVHH N T152534 K 0.020 GD  119 VS 3.20 DE 2.60 Q0 65.0 QA 1.10 Q1 1.00 3
 SPEC MAPVHH N MO 12.2 ST  1.9 OM  1.5 f0 7.69 R0.1540 AL 3.43 WI 17.6 MW  2.1 3
 SPEC MAPVHH N T152518 K 0.020 GD 61.8 VS 3.20 DE 2.60 Q0 65.0 QA 1.10 Q1 1.00 3
 SPEC BENVHH N MO 12.3 ST  2.7 OM  1.5 f0 7.98 R0.1484 AL 2.85 WI 31.7 MW  2.1 3
 SPEC BENVHH N T152522 K 0.020 GD 73.2 VS 3.20 DE 2.60 Q0 65.0 QA 1.10 Q1 1.00 3
 SPEC BAUVHH E MO 12.7 ST  7.9 OM  1.6 f0 8.11 R0.1460 AL 2.72 WI 24.7 MW  2.4 3
 SPEC BAUVHH E T152542 K 0.020 GD  150 VS 3.20 DE 2.60 Q0 65.0 QA 1.10 Q1 1.00 3
 ACTION:UP  19-01-03 12:03 OP:elv  STATUS:               ID:20190103152300     I
 OLDACT:UP  19-01-03 12:02 OP:elv  STATUS:               ID:20190103152300     3
 OLDACT:UP  19-01-03 11:59 OP:elv  STATUS:               ID:20190103152300     3
 OLDACT:REG 19-01-03 11:58 OP:icm  STATUS:               ID:20190103152300     3
 2019-01-03-1523-00S.MAN___119                                                 6
 STAT SP IPHASW D HRMM SECON CODA AMPLIT PERI AZIMU VELO AIN AR TRES W  DIS CAZ7
 MAPV HZ EP       1525 12.93                             101   -0.2810 59.3 213 
 MAPV HN ES       1525 20.85                             101    0.0510 59.3 213 
 BENV HZ EP       1525 15.01                              99   -0.0610 71.1 120 
 BENV HN ES       1525 24.17                              99    0.1310 71.1 120 
 TERV HZ EP       1525 22.24                              95   -0.2310  118 253 
 TERV HN ES       1525 37.20                              95    0.2810  118 253 
 BAUV HZ EP       1525 26.78                              49    0.2710  149 175 
 BAUV HE ES       1525 43.80                              49   -0.1510  149 175 
                                                                                
