 2019  1 3 1716 57.9 L  10.218 -68.098  5.0F FUN  8 0.5 3.1WFUN                1
 SPEC AVERAGE  MO 13.7 ST 20.9 OM  2.7 f0 5.24 R0.2443 AL 2.45 WI 33.0 MW  3.1 3
 SPEC SD       MO  0.2 ST 12.7 OM  0.2 f0 1.37 R0.0720 AL      WI      MW  0.2 3
 GAP=130        1.24       2.8     2.0  0.0  0.7007E+00  0.0000E+00  0.0000E+00E
 SPEC TERVHH N MO 13.5 ST 13.4 OM  2.5 f0 5.45 R0.2172 AL 2.01 WI 32.6 MW  2.9 3
 SPEC TERVHH N T171732 K 0.020 GD  110 VS 3.20 DE 2.60 Q0 65.0 QA 1.10 Q1 1.00 3
 SPEC SOCVHH N MO 13.7 ST 45.5 OM  2.5 f0 6.81 R0.1739 AL 2.70 WI 27.3 MW  3.1 3
 SPEC SOCVHH N T171826 K 0.020 GD  192 VS 3.20 DE 2.60 Q0 65.0 QA 1.10 Q1 1.00 3
 SPEC MERVHH N MO 13.8 ST 28.8 OM  2.7 f0 5.45 R0.2172 AL 2.72 WI 39.2 MW  3.2 3
 SPEC MERVHH N T171756 K 0.020 GD  150 VS 3.20 DE 2.60 Q0 65.0 QA 1.10 Q1 1.00 3
 SPEC MAPVHH E MO 13.3 ST 17.4 OM  2.6 f0 6.81 R0.1739 AL 3.78 WI 33.9 MW  2.8 3
 SPEC MAPVHH E T171713 K 0.020 GD 58.4 VS 3.20 DE 2.60 Q0 65.0 QA 1.10 Q1 1.00 3
 SPEC JACVHH E MO 14.0 ST  9.3 OM  3.0 f0 3.28 R0.3610 AL 2.37 WI 33.0 MW  3.3 3
 SPEC JACVHH E T171732 K 0.020 GD  111 VS 3.20 DE 2.60 Q0 65.0 QA 1.10 Q1 1.00 3
 SPEC BAUVHH E MO 13.9 ST 11.0 OM  2.9 f0 3.67 R0.3226 AL 1.15 WI 31.7 MW  3.2 3
 SPEC BAUVHH E T171736 K 0.020 GD  118 VS 3.20 DE 2.60 Q0 65.0 QA 1.10 Q1 1.00 3
 ACTION:UP  19-01-03 14:14 OP:db   STATUS:               ID:20190103171500     I
 OLDACT:UP  19-01-03 14:13 OP:db   STATUS:               ID:20190103171500     3
 OLDACT:UP  19-01-03 14:12 OP:db   STATUS:               ID:20190103171500     3
 OLDACT:UP  19-01-03 14:12 OP:db   STATUS:               ID:20190103171500     3
 OLDACT:UP  19-01-03 14:12 OP:db   STATUS:               ID:20190103171500     3
 OLDACT:UP  19-01-03 14:02 OP:db   STATUS:               ID:20190103171500     3
 OLDACT:UP  19-01-03 14:01 OP:db   STATUS:               ID:20190103171500     3
 OLDACT:UP  19-01-03 14:00 OP:db   STATUS:               ID:20190103171500     3
 OLDACT:UP  19-01-03 13:58 OP:db   STATUS:               ID:20190103171500     3
 OLDACT:UP  19-01-03 13:49 OP:db   STATUS:               ID:20190103171500     3
 OLDACT:UP  19-01-03 13:41 OP:db   STATUS:               ID:20190103171500     3
 OLDACT:UP  19-01-03 13:39 OP:db   STATUS:               ID:20190103171500     3
 OLDACT:UP  19-01-03 13:37 OP:db   STATUS:               ID:20190103171500     3
 OLDACT:UP  19-01-03 13:36 OP:db   STATUS:               ID:20190103171500     3
 OLDACT:UP  19-01-03 13:36 OP:db   STATUS:               ID:20190103171500     3
 OLDACT:UP  19-01-03 13:26 OP:db   STATUS:               ID:20190103171500     3
 OLDACT:UP  19-01-03 13:25 OP:db   STATUS:               ID:20190103171500     3
 OLDACT:UP  19-01-03 13:24 OP:db   STATUS:               ID:20190103171500     3
 OLDACT:REG 19-01-03 13:23 OP:db   STATUS:               ID:20190103171500     3
 2019-01-03-1715-00S.MAN___119                                                 6
 STAT SP IPHASW D HRMM SECON CODA AMPLIT PERI AZIMU VELO AIN AR TRES W  DIS CAZ7
 MAPV HZ EP       1717  7.48                              65   -0.6710 58.2 223 
 MAPV HE ES       1717 15.28                              65   -0.4510 58.2 223 
 BENV HZ EP       1717  8.43                              65   -0.2710 61.5 117 
 BENV HE ES       1717 16.50                              65   -0.1910 61.5 117 
 TERV HZ EP       1717 17.51                              65   -0.9610  123 257 
 TERV HN ES       1717 33.52                              65   -0.1710  123 257 
 JACV HZ EP       1717 18.37                              65   -0.4010  125 320 
 JACV HE ES       1717 34.66                              65    0.4510  125 320 
 BAUV HZ EP       1717 21.48                              65    0.1910  141 177 
 BAUV HE ES       1717 38.73                              65    0.1410  141 177 
 MERV HZ EP       1717 31.98                              43   -0.0510  225 118 
 MERV HN ES       1717 57.73                              43    0.4610  225 118 
 SOCV HZ EP       1717 50.47                              43    0.7910  371 235 
 SOCV HN ES       1718 29.17                              43    1.1810  371 235 
 PCRV HZ EP       1717 51.52                              43    0.2310  384  91 
 PCRV HN ES       1718 30.52                              43   -0.2710  384  91 
                                                                                
 2019  1 3 1835 35.4 L  10.424 -68.131 15.6  FUN  3 0.1 2.3WFUN                1
 SPEC AVERAGE  MO 12.5 ST  2.1 OM  1.5 f0 6.46 R0.1894 AL 2.16 WI 11.9 MW  2.3 3
 SPEC SD       MO  0.3 ST0.182 OM  0.1 f0 1.10 R0.0364 AL      WI      MW  0.2 3
 GAP=283        0.35       3.1     1.4  1.8 -0.1531E+01  0.1213E+00  0.3123E+00E
 SPEC MAPVHH N MO 12.3 ST  2.0 OM  1.5 f0 7.09 R0.1670 AL 4.13 WI 11.4 MW  2.2 3
 SPEC MAPVHH N T183556 K 0.020 GD 76.3 VS 3.20 DE 2.60 Q0 65.0 QA 1.10 Q1 1.00 3
 SPEC BENVHH N MO 12.2 ST  1.9 OM  1.4 f0 7.38 R0.1604 AL 1.64 WI 15.9 MW  2.1 3
 SPEC BENVHH N T183558 K 0.020 GD 79.1 VS 3.20 DE 2.60 Q0 65.0 QA 1.10 Q1 1.00 3
 SPEC BAUVHH N MO 12.9 ST  2.3 OM  1.7 f0 4.92 R0.2407 AL 0.70 WI  8.4 MW  2.5 3
 SPEC BAUVHH N T183619 K 0.020 GD  164 VS 3.20 DE 2.60 Q0 65.0 QA 1.10 Q1 1.00 3
 ACTION:UP  19-01-03 14:52 OP:they STATUS:               ID:20190103183400     I
 OLDACT:UP  19-01-03 14:52 OP:they STATUS:               ID:20190103183400     3
 OLDACT:REE 19-01-03 14:51 OP:they STATUS:               ID:20190103183400     3
 OLDACT:UP  19-01-03 14:45 OP:db   STATUS:               ID:20190103183400     3
 OLDACT:REG 19-01-03 14:45 OP:db   STATUS:               ID:20190103183400     3
 2019-01-03-1834-00S.MAN___119                                                 6
 STAT SP IPHASW D HRMM SECON CODA AMPLIT PERI AZIMU VELO AIN AR TRES W  DIS CAZ7
 MAPV HZ EP       1835 48.18                              97    0.1410 74.7 209 
 MAPV HN ES       1835 57.30                              97   -0.0810 74.7 209 
 BENV HZ EP       1835 48.44                              97   -0.0610 77.5 131 
 BENV HN ES       1835 58.21                              97    0.0310 77.5 131 
 BAUV HZ EP       1836  0.95                              49   -0.0810  164 177 
 BAUV HN ES       1836 20.03                              49    0.0510  164 177 
                                                                                
 2019  1 3 2129 11.3 L  10.345 -68.142 23.3  FUN  4 0.3 2.2WFUN                1
 SPEC AVERAGE  MO 12.3 ST  1.5 OM  1.3 f0 5.09 R0.2373 AL 0.97 WI 15.8 MW  2.2 3
 SPEC SD       MO  0.4 ST  1.7 OM  0.3 f00.725 R0.0341 AL      WI      MW  0.2 3
 GAP=211        0.90       5.3     2.7  4.0 -0.1071E-01  0.5232E+01 -0.2959E+01E
 SPEC TERVHH N MO 12.5 ST0.981 OM  1.5 f0 4.80 R0.2467 AL 0.94 WI 22.5 MW  2.3 3
 SPEC TERVHH N T212945 K 0.020 GD  124 VS 3.20 DE 2.60 Q0 65.0 QA 1.10 Q1 1.00 3
 SPEC TACVHH N MO 12.1 ST0.225 OM  1.0 f0 4.13 R0.2867 AL 0.92 WI 10.6 MW  2.0 3
 SPEC TACVHH N T212946 K 0.020 GD  126 VS 3.20 DE 2.60 Q0 65.0 QA 1.10 Q1 1.00 3
 SPEC BENVHH E MO 11.9 ST0.338 OM  1.1 f0 5.33 R0.2221 AL 0.71 WI  9.7 MW  1.9 3
 SPEC BENVHH E T212932 K 0.020 GD 76.6 VS 3.20 DE 2.60 Q0 65.0 QA 1.10 Q1 1.00 3
 SPEC BAUVHH E MO 12.9 ST  4.3 OM  1.7 f0 6.11 R0.1938 AL 1.30 WI 20.3 MW  2.5 3
 SPEC BAUVHH E T212952 K 0.020 GD  156 VS 3.20 DE 2.60 Q0 65.0 QA 1.10 Q1 1.00 3
 ACTION:UP  19-01-03 17:34 OP:they STATUS:               ID:20190103212800     I
 OLDACT:UP  19-01-03 17:33 OP:they STATUS:               ID:20190103212800     3
 OLDACT:REG 19-01-03 17:33 OP:they STATUS:               ID:20190103212800     3
 2019-01-03-2128-00S.MAN___119                                                 6
 STAT SP IPHASW D HRMM SECON CODA AMPLIT PERI AZIMU VELO AIN AR TRES W  DIS CAZ7
 BENV HZ EP       2129 23.55                             104   -0.4010 73.0 125 
 BENV HE ES       2129 33.49                             104    0.2110 73.0 125 
 TERV HZ EP       2129 30.90                              49   -0.2910  122 250 
 TERV HN ES       2129 46.04                              49    0.1510  122 250 
 TACV HZ EP       2129 32.09                              49    0.6610  124 100 
 TACV HN ES       2129 45.92                              49   -0.3810  124 100 
 BAUV HZ EP     D 2129 35.19                              49    0.0810  155 176 
 BAUV HE ES       2129 52.68                              49   -0.0310  155 176 
                                                                                
 2019  1 3 2348 30.0 L  10.236 -68.073  5.0F FUN  8 0.6 3.1WFUN                1
 SPEC AVERAGE  MO 13.7 ST 31.4 OM  2.8 f0 6.10 R0.2051 AL 1.68 WI 22.9 MW  3.1 3
 SPEC SD       MO  0.3 ST 12.6 OM  0.2 f0 1.48 R0.0461 AL      WI      MW  0.2 3
 GAP=183        1.52       5.0     2.5  0.0 -0.5528E+01  0.0000E+00  0.0000E+00E
 SPEC TERVHH N MO 13.8 ST 14.0 OM  2.8 f0 4.37 R0.2709 AL 1.70 WI 29.1 MW  3.1 3
 SPEC TERVHH N T2349 2 K 0.020 GD  112 VS 3.20 DE 2.60 Q0 65.0 QA 1.10 Q1 1.00 3
 SPEC TACVHH E MO 13.6 ST 31.9 OM  2.6 f0 6.81 R0.1739 AL 1.01 WI 21.6 MW  3.0 3
 SPEC TACVHH E T2349 3 K 0.020 GD  107 VS 3.20 DE 2.60 Q0 65.0 QA 1.10 Q1 1.00 3
 SPEC MAPVHH N MO 13.5 ST 25.2 OM  2.8 f0 6.49 R0.1824 AL 2.10 WI 24.2 MW  3.0 3
 SPEC MAPVHH N T234847 K 0.020 GD 61.7 VS 3.20 DE 2.60 Q0 65.0 QA 1.10 Q1 1.00 3
 SPEC FUNVHH N MO 13.9 ST 24.7 OM  2.9 f0 4.80 R0.2467 AL 1.51 WI 22.5 MW  3.2 3
 SPEC FUNVHH N T2349 6 K 0.020 GD  118 VS 3.20 DE 2.60 Q0 65.0 QA 1.10 Q1 1.00 3
 SPEC BENVHH N MO 13.3 ST 38.4 OM  2.6 f0 8.78 R0.1349 AL 2.64 WI 22.5 MW  2.8 3
 SPEC BENVHH N T234845 K 0.020 GD 60.3 VS 3.20 DE 2.60 Q0 65.0 QA 1.10 Q1 1.00 3
 SPEC BAUVHH E MO 14.1 ST 54.2 OM  3.1 f0 5.34 R0.2217 AL 1.10 WI 17.2 MW  3.4 3
 SPEC BAUVHH E T2349 9 K 0.020 GD  119 VS 3.20 DE 2.60 Q0 65.0 QA 1.10 Q1 1.00 3
 ACTION:UP  19-01-03 20:02 OP:y    STATUS:               ID:20190103234700     I
 OLDACT:UP  19-01-03 20:02 OP:y    STATUS:               ID:20190103234700     3
 OLDACT:UP  19-01-03 20:00 OP:y    STATUS:               ID:20190103234700     3
 OLDACT:UP  19-01-03 19:52 OP:y    STATUS:               ID:20190103234700     3
 OLDACT:UP  19-01-03 19:52 OP:y    STATUS:               ID:20190103234700     3
 OLDACT:REG 19-01-03 19:51 OP:they STATUS:               ID:20190103234700     3
 2019-01-03-2347-00S.MAN___119                                                 6
 STAT SP IPHASW D HRMM SECON CODA AMPLIT PERI AZIMU VELO AIN AR TRES W  DIS CAZ7
 BENV HZ EP       2348 40.46                              65   -0.1310 60.1 120 
 BENV HN ES       2348 48.09                              65   -0.3210 60.1 120 
 MAPV HZ EP       2348 39.91                              65   -0.8710 61.5 223 
 MAPV HN ES       2348 48.64                              65   -0.1010 61.5 223 
 TACV HZ EP       2348 49.59                              65    0.2710  115  95 
 TACV HE ES       2349  4.45                              65    0.8610  115  95 
 TERV HZ EP       2348 50.14                              65   -0.9310  126 256 
 TERV HN ES       2349  7.04                              65    0.3910  126 256 
 FUNV HZ EP       2348 52.73                              65   -0.6710  141  79 
 FUNV HN ES       2349  9.63                              65   -1.0610  141  79 
 BAUV HZ EP       2348 53.68                              65   -0.0210  143 179 
 BAUV HE ES       2349 10.99                              65   -0.2210  143 179 
 SOCV HZ EP       2349 22.52                              43    0.3210  374 235 
 SOCV HE ES       2350  1.83                              43    1.0310  374 235 
 PCRV HZ EP       2349 23.52                              43    0.4410  382  91 
 PCRV HN ES       2350  3.36                              43    1.0110  382  91 
                                                                                
 2019  1 4 0003 59.4 L  10.427 -68.181  2.8  FUN  3 0.3 1.9WFUN                1
 SPEC AVERAGE  MO 11.9 ST0.717 OM  1.0 f0 7.02 R0.1799 AL 1.72 WI 11.7 MW  1.9 3
 SPEC SD       MO  0.3 ST0.341 OM  0.2 f0 1.73 R0.0460 AL      WI      MW  0.2 3
 GAP=284        0.80       9.0     3.5  8.6 -0.1600E+02 -0.9242E+01  0.4930E+02E
 SPEC MAPVHH E MO 11.8 ST  1.2 OM  0.9 f0 9.16 R0.1293 AL 2.62 WI 14.1 MW  1.8 3
 SPEC MAPVHH E T 0 419 K 0.020 GD 72.7 VS 3.20 DE 2.60 Q0 65.0 QA 1.10 Q1 1.00 3
 SPEC BENVHH E MO 11.6 ST0.361 OM  0.7 f0 6.97 R0.1699 AL 1.30 WI  9.7 MW  1.7 3
 SPEC BENVHH E T 0 423 K 0.020 GD 81.9 VS 3.20 DE 2.60 Q0 65.0 QA 1.10 Q1 1.00 3
 SPEC BAUVHH N MO 12.3 ST0.614 OM  1.2 f0 4.92 R0.2407 AL 1.23 WI 11.4 MW  2.1 3
 SPEC BAUVHH N T 0 443 K 0.020 GD  128 VS 3.20 DE 2.60 Q0 65.0 QA 1.10 Q1 1.00 3
 ACTION:UP  19-01-03 20:19 OP:y    STATUS:               ID:20190104000400     I
 OLDACT:UP  19-01-03 20:19 OP:y    STATUS:               ID:20190104000400     3
 OLDACT:REG 19-01-03 20:19 OP:they STATUS:               ID:20190104000400     3
 2019-01-04-0004-00S.MAN___119                                                 6
 STAT SP IPHASW D HRMM SECON CODA AMPLIT PERI AZIMU VELO AIN AR TRES W  DIS CAZ7
 MAPV HZ EP        0 4 11.77                              65   -0.2610 72.6 205 
 MAPV HE ES        0 4 21.57                              65    0.1510 72.6 205 
 BENV HZ EP        0 4 13.29                              65   -0.2510 81.9 129 
 BENV HE ES        0 4 24.19                              65    0.1510 81.9 129 
 BAUV HZ EP        0 4 27.05                              43    0.5210  165 175 
 BAUV HN ES        0 4 46.35                              43   -0.3010  165 175 
                                                                                
 2019  1 4 0228 27.6 L  10.342 -68.116 14.1  FUN  5 0.6 2.0WFUN                1
 SPEC AVERAGE  MO 12.1 ST  1.2 OM  1.2 f0 6.55 R0.1835 AL 1.75 WI 16.5 MW  2.0 3
 SPEC SD       MO  0.3 ST0.772 OM  0.2 f00.794 R0.0228 AL      WI      MW  0.2 3
 GAP=210        1.52       8.3     3.1  7.9 -0.6040E+01 -0.2389E+01  0.2334E+02E
 SPEC TERVHH E MO 12.3 ST  1.1 OM  1.2 f0 6.03 R0.1964 AL 2.13 WI 15.0 MW  2.1 3
 SPEC TERVHH E T 229 1 K 0.020 GD  125 VS 3.20 DE 2.60 Q0 65.0 QA 1.10 Q1 1.00 3
 SPEC TACVHH N MO 11.9 ST0.301 OM  0.8 f0 5.41 R0.2189 AL 0.60 WI 12.8 MW  1.8 3
 SPEC TACVHH N T 229 1 K 0.020 GD  121 VS 3.20 DE 2.60 Q0 65.0 QA 1.10 Q1 1.00 3
 SPEC MAPVHH N MO 12.1 ST  1.4 OM  1.3 f0 7.38 R0.1604 AL 3.04 WI 15.4 MW  2.0 3
 SPEC MAPVHH N T 22846 K 0.020 GD 69.3 VS 3.20 DE 2.60 Q0 65.0 QA 1.10 Q1 1.00 3
 SPEC BENVHH N MO 11.9 ST0.802 OM  1.0 f0 7.49 R0.1581 AL 1.82 WI 22.5 MW  1.8 3
 SPEC BENVHH N T 22847 K 0.020 GD 71.9 VS 3.20 DE 2.60 Q0 65.0 QA 1.10 Q1 1.00 3
 SPEC BAUVHH N MO 12.6 ST  2.6 OM  1.4 f0 6.45 R0.1836 AL 1.18 WI 16.7 MW  2.3 3
 SPEC BAUVHH N T 229 9 K 0.020 GD  155 VS 3.20 DE 2.60 Q0 65.0 QA 1.10 Q1 1.00 3
 ACTION:UP  19-01-03 22:35 OP:y    STATUS:               ID:20190104022700     I
 OLDACT:UP  19-01-03 22:34 OP:y    STATUS:               ID:20190104022700     3
 OLDACT:REG 19-01-03 22:34 OP:they STATUS:               ID:20190104022700     3
 2019-01-04-0227-00S.MAN___119                                                 6
 STAT SP IPHASW D HRMM SECON CODA AMPLIT PERI AZIMU VELO AIN AR TRES W  DIS CAZ7
 MAPV HZ EP        228 39.12                              96    0.0210 67.8 214 
 MAPV HN ES        228 47.82                              96    0.2010 67.8 214 
 BENV HN ES        228 48.64                              96    0.2410 70.5 127 
 TACV HZ EP        228 48.12                              93    0.5210  121 101 
 TACV HN ES        229  1.48                              93   -0.9310  121 101 
 TERV HN EP        228 48.64                              93    0.4510  125 251 
 TERV HE ES        229  2.59                              93   -0.8310  125 251 
 BAUV HZ EP        228 53.07                              49    0.8010  155 177 
 BAUV HN ES        229 10.04                              49   -0.4810  155 177 
                                                                                
 2019  1 4 0301 15.4 L  10.296 -68.135 12.3  FUN  6 0.5 2.0WFUN                1
 SPEC AVERAGE  MO 12.1 ST0.930 OM  1.1 f0 6.59 R0.1899 AL 2.39 WI 15.7 MW  2.0 3
 SPEC SD       MO  0.2 ST0.386 OM  0.2 f0 1.64 R0.0418 AL      WI      MW  0.2 3
 GAP=190        1.28       5.2     2.5  5.0 -0.5058E+01 -0.2139E+01 -0.1728E+01E
 SPEC TERVHH N MO 12.3 ST0.706 OM  1.3 f0 5.12 R0.2313 AL 1.90 WI 22.5 MW  2.1 3
 SPEC TERVHH N T 3 147 K 0.020 GD  116 VS 3.20 DE 2.60 Q0 65.0 QA 1.10 Q1 1.00 3
 SPEC TACVHH N MO 11.8 ST0.418 OM  0.8 f0 6.19 R0.1913 AL 1.85 WI 18.5 MW  1.8 3
 SPEC TACVHH N T 3 148 K 0.020 GD  118 VS 3.20 DE 2.60 Q0 65.0 QA 1.10 Q1 1.00 3
 SPEC MAPVHH N MO 11.9 ST  1.6 OM  1.2 f0 9.04 R0.1310 AL 4.81 WI 11.9 MW  1.9 3
 SPEC MAPVHH N T 3 132 K 0.020 GD 63.6 VS 3.20 DE 2.60 Q0 65.0 QA 1.10 Q1 1.00 3
 SPEC FUNVHH N MO 12.3 ST0.667 OM  1.2 f0 5.20 R0.2277 AL 0.97 WI 12.8 MW  2.1 3
 SPEC FUNVHH N T 3 153 K 0.020 GD  135 VS 3.20 DE 2.60 Q0 65.0 QA 1.10 Q1 1.00 3
 SPEC BENVHH E MO 11.8 ST  1.1 OM  1.0 f0 8.68 R0.1364 AL 2.92 WI 12.3 MW  1.8 3
 SPEC BENVHH E T 3 134 K 0.020 GD 70.5 VS 3.20 DE 2.60 Q0 65.0 QA 1.10 Q1 1.00 3
 SPEC BAUVHH N MO 12.4 ST  1.1 OM  1.3 f0 5.34 R0.2217 AL 1.92 WI 16.3 MW  2.2 3
 SPEC BAUVHH N T 3 154 K 0.020 GD  138 VS 3.20 DE 2.60 Q0 65.0 QA 1.10 Q1 1.00 3
 ACTION:UP  19-01-03 23:08 OP:y    STATUS:               ID:20190104030000     I
 OLDACT:UP  19-01-03 23:07 OP:y    STATUS:               ID:20190104030000     3
 OLDACT:REG 19-01-03 23:06 OP:they STATUS:               ID:20190104030000     3
 2019-01-04-0300-00S.MAN___119                                                 6
 STAT SP IPHASW D HRMM SECON CODA AMPLIT PERI AZIMU VELO AIN AR TRES W  DIS CAZ7
 MAPV HZ EP     D  3 1 25.73                              94   -0.2810 62.4 214 
 MAPV HN ES        3 1 33.14                              94   -0.7310 62.4 214 
 BENV HZ EP        3 1 27.75                              94    0.6010 69.4 122 
 BENV HE ES        3 1 35.95                              94    0.1010 69.4 122 
 TERV HZ EP        3 1 35.55                              92    0.1710  121 252 
 TERV HN ES        3 1 50.24                              92    0.0610  121 252 
 TACV HZ EP        3 1 36.04                              92    0.4510  123  98 
 TACV HN ES        3 1 50.00                              92   -0.5410  123  98 
 FUNV HZ EP        3 1 39.75                              49    0.4310  146  82 
 FUNV HN ES        3 1 56.15                              49   -0.8810  146  82 
 BAUV HZ EP        3 1 39.76                              49    0.1210  150 176 
 BAUV HN ES        3 1 58.09                              49    0.4910  150 176 
                                                                                
