 2019  1 4 0315 33.3 L  10.192 -68.140  5.0F FUN  4 0.4 1.7WFUN                1
 SPEC AVERAGE  MO 11.6 ST0.303 OM  0.7 f0 6.91 R0.1941 AL 2.01 WI 15.5 MW  1.7 3
 SPEC SD       MO  0.4 ST0.101 OM  0.3 f0 2.21 R0.0732 AL      WI      MW  0.2 3
 GAP=232        0.98       5.3     3.1  0.0 -0.1134E+02  0.0000E+00  0.0000E+00E
 SPEC TACVHH E MO 11.5 ST0.167 OM  0.5 f0 5.87 R0.2017 AL 1.26 WI 15.4 MW  1.6 3
 SPEC TACVHH E T 316 8 K 0.020 GD  110 VS 3.20 DE 2.60 Q0 65.0 QA 1.10 Q1 1.00 3
 SPEC MAPVHH N MO 11.3 ST0.402 OM  0.6 f0 9.29 R0.1274 AL 3.08 WI 12.3 MW  1.5 3
 SPEC MAPVHH N T 31548 K 0.020 GD 53.2 VS 3.20 DE 2.60 Q0 65.0 QA 1.10 Q1 1.00 3
 SPEC BENVHH N MO 11.4 ST0.398 OM  0.6 f0 8.68 R0.1364 AL 2.65 WI 16.3 MW  1.5 3
 SPEC BENVHH N T 31552 K 0.020 GD 64.7 VS 3.20 DE 2.60 Q0 65.0 QA 1.10 Q1 1.00 3
 SPEC BAUVHH E MO 12.2 ST0.244 OM  1.2 f0 3.81 R0.3108 AL 1.04 WI 18.1 MW  2.1 3
 SPEC BAUVHH E T 31612 K 0.020 GD  117 VS 3.20 DE 2.60 Q0 65.0 QA 1.10 Q1 1.00 3
 ACTION:UP  19-01-03 23:24 OP:y    STATUS:               ID:20190104031400     I
 OLDACT:UP  19-01-03 23:22 OP:y    STATUS:               ID:20190104031400     3
 OLDACT:UP  19-01-03 23:21 OP:y    STATUS:               ID:20190104031400     3
 OLDACT:UP  19-01-03 23:21 OP:y    STATUS:               ID:20190104031400     3
 OLDACT:REG 19-01-03 23:21 OP:they STATUS:               ID:20190104031400     3
 2019-01-04-0314-00S.MAN___119                                                 6
 STAT SP IPHASW D HRMM SECON CODA AMPLIT PERI AZIMU VELO AIN AR TRES W  DIS CAZ7
 MAPV HZ EP        315 42.74                              96    0.0910 53.0 221 
 MAPV HN ES        315 49.63                              96    0.0610 53.0 221 
 BENV HZ EP        315 43.65                              65   -0.9210 64.5 113 
 BENV HN ES        315 52.62                              65   -0.2810 64.5 113 
 TACV HZ EP        315 54.00                              65    0.2910  122  93 
 TACV HE ES        316  9.44                              65    0.6410  122  93 
 BAUV HE ES        316 13.55                              65    0.2810  139 176 
 BAUV HZ EP        315 56.11                              65   -0.1610  139 176 
                                                                                
 2019  1 4 0357 28.9 L  10.298 -68.152 10.9  FUN  5 0.2 2.2WFUN                1
 SPEC AVERAGE  MO 12.4 ST  3.0 OM  1.5 f0 7.20 R0.1687 AL 1.56 WI 17.3 MW  2.2 3
 SPEC SD       MO  0.3 ST  1.8 OM  0.2 f0 1.10 R0.0289 AL      WI      MW  0.2 3
 GAP=206        0.46       2.5     0.9  2.6 -0.6983E+00 -0.3049E+00  0.2924E+01E
 SPEC TERVHH E MO 12.6 ST  1.6 OM  1.6 f0 5.34 R0.2217 AL 2.05 WI 20.3 MW  2.3 3
 SPEC TERVHH E T 358 1 K 0.020 GD  112 VS 3.20 DE 2.60 Q0 65.0 QA 1.10 Q1 1.00 3
 SPEC TACVHH E MO 12.1 ST  1.3 OM  1.1 f0 7.28 R0.1626 AL 1.69 WI 16.3 MW  2.0 3
 SPEC TACVHH E T 358 4 K 0.020 GD  114 VS 3.20 DE 2.60 Q0 65.0 QA 1.10 Q1 1.00 3
 SPEC MAPVHH Z MO 12.1 ST  2.4 OM  1.4 f0 8.65 R0.1369 AL 1.27 WI  9.7 MW  2.0 3
 SPEC MAPVHH Z T 35745 K 0.020 GD 62.6 VS 3.20 DE 2.60 Q0 65.0 QA 1.10 Q1 1.00 3
 SPEC BENVHH N MO 12.4 ST  3.3 OM  1.6 f0 7.85 R0.1508 AL 1.24 WI 22.0 MW  2.2 3
 SPEC BENVHH N T 35750 K 0.020 GD 71.9 VS 3.20 DE 2.60 Q0 65.0 QA 1.10 Q1 1.00 3
 SPEC BAUVHH N MO 12.9 ST  6.3 OM  1.8 f0 6.90 R0.1716 AL 1.53 WI 18.1 MW  2.5 3
 SPEC BAUVHH N T 358 8 K 0.020 GD  128 VS 3.20 DE 2.60 Q0 65.0 QA 1.10 Q1 1.00 3
 ACTION:UP  19-01-04 00:10 OP:y    STATUS:               ID:20190104035600     I
 OLDACT:UP  19-01-04 00:04 OP:y    STATUS:               ID:20190104035600     3
 OLDACT:UP  19-01-04 00:04 OP:y    STATUS:               ID:20190104035600     3
 OLDACT:UP  19-01-04 00:03 OP:y    STATUS:               ID:20190104035600     3
 OLDACT:UP  19-01-04 00:02 OP:y    STATUS:               ID:20190104035600     3
 OLDACT:REG 19-01-04 00:01 OP:they STATUS:               ID:20190104035600     3
 2019-01-04-0356-00S.MAN___119                                                 6
 STAT SP IPHASW D HRMM SECON CODA AMPLIT PERI AZIMU VELO AIN AR TRES W  DIS CAZ7
 MAPV HZ EP        357 39.25                              93   -0.1410 61.6 213 
 MAPV HN ES        357 47.27                              93    0.1310 61.6 213 
 BENV HZ EP        357 40.66                              92   -0.2610 71.1 121 
 BENV HN ES        357 49.82                              92    0.0110 71.1 121 
 TERV HN EP        357 48.70                              91    0.0710  120 252 
 TERV HE ES        358  3.21                              91   -0.0210  120 252 
 TACV HZ EP        357 49.66                              91    0.2610  125  98 
 TACV HE ES        358  4.58                              91    0.0210  125  98 
 BAUV HN ES        358 11.56                              49    0.1110  150 175 
 BAUV HZ EP        357 53.17                              49   -0.1910  150 175 
                                                                                
 2019  1 4 0622 37.8 L  10.759 -67.797  9.0  FUN  6 0.5 2.2WFUN                1
 SPEC AVERAGE  MO 12.4 ST  1.2 OM  1.4 f0 5.65 R0.2343 AL 1.65 WI 17.1 MW  2.2 3
 SPEC SD       MO  0.3 ST0.832 OM  0.2 f0 2.00 R0.0716 AL      WI      MW  0.2 3
 GAP=226        1.36       6.2     3.1  8.8 -0.1482E+01  0.9340E+01  0.1226E+02E
 SPEC TERVHH N MO 12.4 ST0.531 OM  1.3 f0 4.36 R0.2716 AL 1.25 WI 18.5 MW  2.2 3
 SPEC TERVHH N T 62324 K 0.020 GD  132 VS 3.20 DE 2.60 Q0 65.0 QA 1.10 Q1 1.00 3
 SPEC TACVHH N MO 12.2 ST0.452 OM  1.3 f0 4.65 R0.2546 AL 1.74 WI 24.2 MW  2.1 3
 SPEC TACVHH N T 623 7 K 0.020 GD  104 VS 3.20 DE 2.60 Q0 65.0 QA 1.10 Q1 1.00 3
 SPEC MAPVHH N MO 12.2 ST  2.1 OM  1.2 f0 7.69 R0.1540 AL 2.49 WI 15.0 MW  2.1 3
 SPEC MAPVHH N T 62311 K 0.020 GD  112 VS 3.20 DE 2.60 Q0 65.0 QA 1.10 Q1 1.00 3
 SPEC FUNVHH N MO 12.2 ST0.445 OM  1.2 f0 4.67 R0.2535 AL 1.76 WI 15.4 MW  2.1 3
 SPEC FUNVHH N T 623 6 K 0.020 GD  106 VS 3.20 DE 2.60 Q0 65.0 QA 1.10 Q1 1.00 3
 SPEC BENVHH E MO 12.1 ST  2.5 OM  1.2 f0 9.04 R0.1310 AL 2.06 WI 17.6 MW  2.0 3
 SPEC BENVHH E T 623 3 K 0.020 GD 91.2 VS 3.20 DE 2.60 Q0 65.0 QA 1.10 Q1 1.00 3
 SPEC BAUVHH E MO 13.0 ST  1.1 OM  1.9 f0 3.47 R0.3412 AL 0.59 WI 11.9 MW  2.6 3
 SPEC BAUVHH E T 62330 K 0.020 GD  142 VS 3.20 DE 2.60 Q0 65.0 QA 1.10 Q1 1.00 3
 ACTION:UP  19-01-04 03:57 OP:y    STATUS:               ID:20190104062200     I
 OLDACT:UP  19-01-04 03:55 OP:y    STATUS:               ID:20190104062200     3
 OLDACT:REG 19-01-04 03:54 OP:they STATUS:               ID:20190104062200     3
 2019-01-04-0622-00S.MAN___119                                                 6
 STAT SP IPHASW D HRMM SECON CODA AMPLIT PERI AZIMU VELO AIN AR TRES W  DIS CAZ7
 BENV HZ EP        622 52.80                              65   -0.1810 90.8 166 
 BENV HE ES        623  4.21                              65    0.0410 90.8 166 
 TACV HZ EP        622 55.77                              65   -0.0610  109 129 
 TACV HN ES        623  8.99                              65   -0.1410  109 129 
 FUNV HZ EP        622 56.42                              65   -0.0510  113 106 
 FUNV HN ES        623  9.93                              65   -0.3210  113 106 
 MAPV HZ EP        622 58.51                              65    0.0310  126 215 
 MAPV HN ES        623 13.37                              65   -0.3810  126 215 
 TERV HZ EP        623  5.41                              43   -0.2610  176 240 
 TERV HN ES        623 25.88                              43   -0.3710  176 240 
 BAUV HZ EP        623 10.40                              43    1.6110  203 188 
 BAUV HE ES        623 31.79                              43    0.1010  203 188 
                                                                                
 2019  1 4 0712 31.4 L  10.332 -68.196 20.8  FUN  6 0.4 2.4WFUN                1
 SPEC AVERAGE  MO 12.7 ST  3.6 OM  1.7 f0 6.74 R0.1841 AL 1.95 WI 18.0 MW  2.4 3
 SPEC SD       MO  0.3 ST0.901 OM  0.2 f0 1.38 R0.0418 AL      WI      MW  0.2 3
 GAP=195        1.00       4.2     2.3  3.6 -0.2513E+01 -0.3355E+01 -0.4284E+01E
 SPEC TERVHH N MO 12.6 ST  3.1 OM  1.6 f0 6.63 R0.1786 AL 1.75 WI 18.9 MW  2.3 3
 SPEC TERVHH N T 713 5 K 0.020 GD  117 VS 3.20 DE 2.60 Q0 65.0 QA 1.10 Q1 1.00 3
 SPEC TACVHH N MO 12.3 ST  3.0 OM  1.3 f0 8.01 R0.1478 AL 2.26 WI 18.5 MW  2.2 3
 SPEC TACVHH N T 713 5 K 0.020 GD  131 VS 3.20 DE 2.60 Q0 65.0 QA 1.10 Q1 1.00 3
 SPEC MAPVHH E MO 12.6 ST  5.6 OM  1.8 f0 8.22 R0.1440 AL 3.60 WI 11.0 MW  2.3 3
 SPEC MAPVHH E T 71249 K 0.020 GD 65.8 VS 3.20 DE 2.60 Q0 65.0 QA 1.10 Q1 1.00 3
 SPEC FUNVHH N MO 12.9 ST  3.2 OM  1.8 f0 5.13 R0.2308 AL 1.03 WI 12.3 MW  2.6 3
 SPEC FUNVHH N T 71311 K 0.020 GD  154 VS 3.20 DE 2.60 Q0 65.0 QA 1.10 Q1 1.00 3
 SPEC BENVHH N MO 12.4 ST  3.4 OM  1.6 f0 7.73 R0.1532 AL 1.94 WI 22.9 MW  2.2 3
 SPEC BENVHH N T 71254 K 0.020 GD 80.0 VS 3.20 DE 2.60 Q0 65.0 QA 1.10 Q1 1.00 3
 SPEC BAUVHH N MO 13.1 ST  3.2 OM  1.9 f0 4.73 R0.2503 AL 1.14 WI 24.2 MW  2.6 3
 SPEC BAUVHH N T 71312 K 0.020 GD  156 VS 3.20 DE 2.60 Q0 65.0 QA 1.10 Q1 1.00 3
 ACTION:UP  19-01-04 03:58 OP:y    STATUS:               ID:20190104071100     I
 OLDACT:UP  19-01-04 03:57 OP:y    STATUS:               ID:20190104071100     3
 OLDACT:REG 19-01-04 03:55 OP:they STATUS:               ID:20190104071100     3
 2019-01-04-0711-00S.MAN___119                                                 6
 STAT SP IPHASW D HRMM SECON CODA AMPLIT PERI AZIMU VELO AIN AR TRES W  DIS CAZ7
 MAPV HZ EP        712 42.14                             105   -0.0710 62.4 207 
 MAPV HE ES        712 50.04                             105   -0.1910 62.4 207 
 BENV HZ EP        712 43.65                             101   -0.8710 77.2 122 
 BENV HN ES        712 54.92                             101    0.6510 77.2 122 
 TERV HZ EP        712 51.20                              97    0.5410  116 250 
 TERV HN ES        713  4.92                              97   -0.0310  116 250 
 TACV HZ EP        712 52.50                              49    0.1210  130  99 
 TACV HN ES        713  8.14                              49    0.2010  130  99 
 FUNV HZ EP        712 55.12                              49   -0.0310  153  84 
 FUNV HN ES        713 12.56                              49   -0.2010  153  84 
 BAUV HZ EP        712 55.12                              49   -0.1710  155 174 
 BAUV HN ES        713 13.06                              49    0.0610  155 174 
                                                                                
 2019  1 4 0803 27.4 L  10.190 -68.144  8.8  FUN  3 0.1 1.4WFUN                1
 SPEC AVERAGE  MO 11.3 ST0.163 OM  0.4 f0 7.15 R0.1732 AL 1.87 WI 15.8 MW  1.4 3
 SPEC SD       MO  0.3 ST0.011 OM  0.1 f0 1.39 R0.0387 AL      WI      MW  0.2 3
 GAP=252        0.45       4.2     1.7  9.4 -0.4356E+01 -0.7265E+01  0.2758E+02E
 SPEC MAPVHH N MO 11.1 ST0.156 OM  0.4 f0 7.90 R0.1499 AL 2.85 WI 11.0 MW  1.3 3
 SPEC MAPVHH N T 8 342 K 0.020 GD 53.2 VS 3.20 DE 2.60 Q0 65.0 QA 1.10 Q1 1.00 3
 SPEC BENVHH N MO 11.1 ST0.179 OM  0.3 f0 8.34 R0.1420 AL 1.85 WI 19.8 MW  1.3 3
 SPEC BENVHH N T 8 346 K 0.020 GD 65.4 VS 3.20 DE 2.60 Q0 65.0 QA 1.10 Q1 1.00 3
 SPEC BAUVHH N MO 11.6 ST0.156 OM  0.6 f0 5.20 R0.2277 AL 0.91 WI 16.7 MW  1.7 3
 SPEC BAUVHH N T 8 4 6 K 0.020 GD  117 VS 3.20 DE 2.60 Q0 65.0 QA 1.10 Q1 1.00 3
 ACTION:UP  19-01-04 04:14 OP:y    STATUS:               ID:20190104080300     I
 OLDACT:UP  19-01-04 04:12 OP:y    STATUS:               ID:20190104080300     3
 OLDACT:UP  19-01-04 04:11 OP:y    STATUS:               ID:20190104080300     3
 OLDACT:UP  19-01-04 04:10 OP:y    STATUS:               ID:20190104080300     3
 OLDACT:REG 19-01-04 04:10 OP:they STATUS:               ID:20190104080300     3
 2019-01-04-0803-00S.MAN___119                                                 6
 STAT SP IPHASW D HRMM SECON CODA AMPLIT PERI AZIMU VELO AIN AR TRES W  DIS CAZ7
 MAPV HZ EP        8 3 36.27                              65   -0.2210 52.5 221 
 MAPV HN ES        8 3 43.28                              65    0.0910 52.5 221 
 BENV HZ EP        8 3 38.54                              65    0.0810 64.8 113 
 BENV HN ES        8 3 46.55                              65   -0.0710 64.8 113 
 BAUV HN ES        8 4  6.78                              65   -0.0710  138 175 
 BAUV HZ EP        8 3 50.29                              65    0.2010  138 175 
                                                                                
 2019  1 4 0834 19.5 L  10.239 -68.186 20.6  FUN  4 0.4 1.8WFUN                1
 SPEC AVERAGE  MO 11.8 ST0.788 OM  0.9 f0 7.52 R0.1637 AL 2.13 WI 14.3 MW  1.8 3
 SPEC SD       MO  0.3 ST0.284 OM  0.2 f0 1.42 R0.0340 AL      WI      MW  0.2 3
 GAP=242        0.98       6.6     3.8  3.5 -0.1639E+02 -0.1638E+01 -0.3077E+01E
 SPEC TACVHH N MO 11.7 ST0.652 OM  0.7 f0 7.69 R0.1540 AL 1.28 WI 12.8 MW  1.8 3
 SPEC TACVHH N T 83455 K 0.020 GD  129 VS 3.20 DE 2.60 Q0 65.0 QA 1.10 Q1 1.00 3
 SPEC MAPVHH N MO 11.7 ST  1.1 OM  1.0 f0 9.41 R0.1258 AL 3.73 WI 10.6 MW  1.7 3
 SPEC MAPVHH N T 83435 K 0.020 GD 57.9 VS 3.20 DE 2.60 Q0 65.0 QA 1.10 Q1 1.00 3
 SPEC BENVHH E MO 11.5 ST0.392 OM  0.7 f0 7.58 R0.1562 AL 2.32 WI 14.5 MW  1.6 3
 SPEC BENVHH E T 83438 K 0.020 GD 74.2 VS 3.20 DE 2.60 Q0 65.0 QA 1.10 Q1 1.00 3
 SPEC BAUVHH E MO 12.4 ST0.991 OM  1.3 f0 5.41 R0.2189 AL 1.21 WI 19.4 MW  2.2 3
 SPEC BAUVHH E T 83457 K 0.020 GD  145 VS 3.20 DE 2.60 Q0 65.0 QA 1.10 Q1 1.00 3
 ACTION:UP  19-01-04 04:49 OP:y    STATUS:               ID:20190104083300     I
 OLDACT:UP  19-01-04 04:48 OP:y    STATUS:               ID:20190104083300     3
 OLDACT:REG 19-01-04 04:48 OP:they STATUS:               ID:20190104083300     3
 2019-01-04-0833-00S.MAN___119                                                 6
 STAT SP IPHASW D HRMM SECON CODA AMPLIT PERI AZIMU VELO AIN AR TRES W  DIS CAZ7
 MAPV HZ EP        834 28.70                             107   -0.4210 54.1 213 
 MAPV HN ES        834 36.68                             107    0.4710 54.1 213 
 BENV HZ EP        834 31.38                             102   -0.4010 71.3 115 
 BENV HE ES        834 40.98                             102    0.1410 71.3 115 
 TACV HZ EP        834 40.21                              49   -0.0910  128  95 
 TACV HN ES        834 56.00                              49    0.3510  128  95 
 BAUV HZ EP        834 42.66                              49    0.4110  144 174 
 BAUV HE ES        834 58.60                              49   -0.4610  144 174 
                                                                                
 2019  1 4 1036 19.4 L  10.180 -68.121 14.7  FUN  5 0.2 1.8WFUN                1
 SPEC AVERAGE  MO 11.8 ST0.451 OM  0.8 f0 6.58 R0.1922 AL 1.67 WI 14.0 MW  1.8 3
 SPEC SD       MO  0.3 ST0.202 OM  0.3 f0 1.69 R0.0483 AL      WI      MW  0.2 3
 GAP=194        0.46       2.0     0.9 13.5 -0.6422E+00 -0.1060E+01 -0.5340E+01E
 SPEC TERVHH E MO 12.2 ST0.372 OM  1.2 f0 4.48 R0.2643 AL 0.98 WI 11.9 MW  2.1 3
 SPEC TERVHH E T103651 K 0.020 GD  120 VS 3.20 DE 2.60 Q0 65.0 QA 1.10 Q1 1.00 3
 SPEC TACVHH E MO 11.6 ST0.153 OM  0.5 f0 5.41 R0.2189 AL 1.50 WI 17.2 MW  1.7 3
 SPEC TACVHH E T103654 K 0.020 GD  120 VS 3.20 DE 2.60 Q0 65.0 QA 1.10 Q1 1.00 3
 SPEC MAPVHH N MO 11.6 ST0.535 OM  0.9 f0 8.01 R0.1478 AL 2.09 WI 15.0 MW  1.7 3
 SPEC MAPVHH N T103634 K 0.020 GD 55.4 VS 3.20 DE 2.60 Q0 65.0 QA 1.10 Q1 1.00 3
 SPEC BENVHH E MO 11.3 ST0.424 OM  0.6 f0 9.04 R0.1310 AL 2.60 WI 11.0 MW  1.5 3
 SPEC BENVHH E T103638 K 0.020 GD 63.8 VS 3.20 DE 2.60 Q0 65.0 QA 1.10 Q1 1.00 3
 SPEC BAUVHH N MO 12.1 ST0.770 OM  1.0 f0 5.95 R0.1990 AL 1.17 WI 15.0 MW  2.0 3
 SPEC BAUVHH N T103656 K 0.020 GD  137 VS 3.20 DE 2.60 Q0 65.0 QA 1.10 Q1 1.00 3
 ACTION:UP  19-01-04 06:47 OP:y    STATUS:               ID:20190104103500     I
 OLDACT:UP  19-01-04 06:46 OP:y    STATUS:               ID:20190104103500     3
 OLDACT:REG 19-01-04 06:45 OP:they STATUS:               ID:20190104103500     3
 2019-01-04-1035-00S.MAN___119                                                 6
 STAT SP IPHASW D HRMM SECON CODA AMPLIT PERI AZIMU VELO AIN AR TRES W  DIS CAZ7
 MAPV HZ EP       1036 28.46                              99   -0.1910 53.4 224 
 MAPV HN ES       1036 35.39                              99   -0.1110 53.4 224 
 BENV HZ EP       1036 30.19                              98    0.1510 62.1 113 
 BENV HE ES       1036 38.09                              98    0.1810 62.1 113 
 TACV HE ES       1036 53.77                              93   -0.0610  120  92 
 TERV HE ES       1036 53.97                              93    0.2110  120 259 
 TACV HZ EP       1036 38.96                              93   -0.2310  120  92 
 BAUV HN ES       1036 58.46                              93   -0.0110  137 176 
 BAUV HZ EP       1036 41.93                              93    0.0710  137 176 
                                                                                
 2019  1 4 1408 29.3 L  10.331 -68.117 22.9  FUN  3 0.4 2.0WFUN                1
 SPEC AVERAGE  MO 12.1 ST  1.4 OM  1.1 f0 7.28 R0.1634 AL 1.96 WI 24.1 MW  2.0 3
 SPEC SD       MO  0.1 ST0.559 OM  0.0 f00.502 R0.0115 AL      WI      MW  0.1 3
 GAP=286        0.94       6.9     5.9  4.5  0.1871E+02 -0.9900E+01 -0.1442E+02E
 SPEC TERVHH E MO 12.1 ST  1.1 OM  1.1 f0 6.63 R0.1786 AL 1.75 WI 18.1 MW  2.0 3
 SPEC TERVHH E T14 9 2 K 0.020 GD  127 VS 3.20 DE 2.60 Q0 65.0 QA 1.10 Q1 1.00 3
 SPEC MAPVHH N MO 11.9 ST0.943 OM  1.1 f0 7.37 R0.1607 AL 2.52 WI 24.7 MW  1.9 3
 SPEC MAPVHH N T14 848 K 0.020 GD 70.5 VS 3.20 DE 2.60 Q0 65.0 QA 1.10 Q1 1.00 3
 SPEC BAUVHH N MO 12.2 ST  2.2 OM  1.1 f0 7.85 R0.1508 AL 1.62 WI 29.5 MW  2.1 3
 SPEC BAUVHH N T14 9 7 K 0.020 GD  155 VS 3.20 DE 2.60 Q0 65.0 QA 1.10 Q1 1.00 3
 ACTION:UP  19-01-04 11:37 OP:icm  STATUS:               ID:20190104140600     I
 OLDACT:UP  19-01-04 11:35 OP:icm  STATUS:               ID:20190104140600     3
 OLDACT:UP  19-01-04 11:34 OP:icm  STATUS:               ID:20190104140600     3
 OLDACT:UP  19-01-04 11:22 OP:icm  STATUS:               ID:20190104140600     3
 OLDACT:UP  19-01-04 11:11 OP:icm  STATUS:               ID:20190104140600     3
 OLDACT:UP  19-01-04 10:27 OP:db   STATUS:               ID:20190104140600     3
 OLDACT:UP  19-01-04 10:26 OP:db   STATUS:               ID:20190104140600     3
 OLDACT:UP  19-01-04 10:24 OP:db   STATUS:               ID:20190104140600     3
 OLDACT:REG 19-01-04 10:24 OP:db   STATUS:               ID:20190104140600     3
 2019-01-04-1406-00S.MAN___119                                                 6
 STAT SP IPHASW D HRMM SECON CODA AMPLIT PERI AZIMU VELO AIN AR TRES W  DIS CAZ7
 MAPV HZ EP       14 8 40.32                             105   -0.5510 66.7 214 
 MAPV HN ES       14 8 49.76                             105    0.3110 66.7 214 
 TERV HZ EP       14 8 49.45                              49    0.0210  125 251 
 TERV HE ES       14 9  4.34                              49   -0.0110  125 251 
 BAUV HZ EP       14 8 53.42                              49    0.5310  154 177 
 BAUV HN ES       14 9 10.06                              49   -0.3010  154 177 
                                                                                
