 2019  1 1 1918 21.5 L  10.215 -68.135 10.2  FUN  5 0.3 2.0WFUN                1
 SPEC AVERAGE  MO 12.1 ST0.974 OM  1.2 f0 6.18 R0.1960 AL 2.33 WI 16.0 MW  2.0 3
 SPEC SD       MO  0.1 ST0.529 OM  0.1 f00.912 R0.0295 AL      WI      MW  0.0 3
 GAP=197        0.73       2.9     1.5  4.7 -0.7882E+00 -0.2718E+01 -0.2318E+01E
 SPEC TERVHH N MO 12.1 ST0.774 OM  1.1 f0 6.19 R0.1913 AL 2.19 WI 18.1 MW  2.0 3
 SPEC TERVHH N T191853 K 0.020 GD  109 VS 3.20 DE 2.60 Q0 65.0 QA 1.10 Q1 1.00 3
 SPEC TACVHH E MO 12.2 ST  1.6 OM  1.2 f0 7.28 R0.1626 AL 2.44 WI 15.9 MW  2.1 3
 SPEC TACVHH E T191854 K 0.020 GD  111 VS 3.20 DE 2.60 Q0 65.0 QA 1.10 Q1 1.00 3
 SPEC MAPVHH N MO 12.1 ST0.414 OM  1.4 f0 4.99 R0.2373 AL 2.38 WI 18.1 MW  2.0 3
 SPEC MAPVHH N T191836 K 0.020 GD 56.1 VS 3.20 DE 2.60 Q0 65.0 QA 1.10 Q1 1.00 3
 SPEC BENVHH N MO 12.1 ST0.474 OM  1.3 f0 5.34 R0.2217 AL 2.71 WI 15.0 MW  2.0 3
 SPEC BENVHH N T191840 K 0.020 GD 65.9 VS 3.20 DE 2.60 Q0 65.0 QA 1.10 Q1 1.00 3
 SPEC BAUVHH N MO 12.2 ST  1.6 OM  1.2 f0 7.09 R0.1670 AL 1.95 WI 12.8 MW  2.1 3
 SPEC BAUVHH N T1919 2 K 0.020 GD  119 VS 3.20 DE 2.60 Q0 65.0 QA 1.10 Q1 1.00 3
 ACTION:UP  19-01-01 15:29 OP:rap  STATUS:               ID:20190101191600     I
 OLDACT:UP  19-01-01 15:28 OP:rap  STATUS:               ID:20190101191600     3
 OLDACT:UP  19-01-01 15:27 OP:rap  STATUS:               ID:20190101191600     3
 OLDACT:REG 19-01-01 15:26 OP:rap  STATUS:               ID:20190101191600     3
 2019-01-01-1916-00S.MAN___119                                                 6
 STAT SP IPHASW D HRMM SECON CODA AMPLIT PERI AZIMU VELO AIN AR TRES W  DIS CAZ7
 MAPV HZ EP       1918 30.76                              92   -0.2110 55.2 220 
 MAPV HN ES       1918 37.86                              92   -0.1210 55.2 220 
 BENV HZ EP       1918 32.87                              92    0.3210 65.1 115 
 BENV HN ES       1918 40.50                              92   -0.2310 65.1 115 
 TERV HZ EP       1918 41.12                              91    0.0110  119 257 
 TERV HN ES       1918 55.42                              91   -0.2010  119 257 
 TACV HZ EP       1918 41.40                              91   -0.1310  122  94 
 TACV HE ES       1918 56.09                              91   -0.2710  122  94 
 BAUV HZ EP       1918 44.89                              91    0.3310  141 176 
 BAUV HN ES       1919  2.11                              91    0.4910  141 176 
                                                                                
 2019  1 1 2100 10.7 L  10.284 -68.148 12.8  FUN  5 0.4 2.2WFUN                1
 SPEC AVERAGE  MO 12.4 ST0.813 OM  1.5 f0 4.27 R0.3179 AL 2.09 WI 13.2 MW  2.2 3
 SPEC SD       MO  0.1 ST0.892 OM  0.2 f0 1.65 R0.1159 AL      WI      MW  0.1 3
 GAP=204        0.95       5.2     1.9  5.2 -0.2982E+01 -0.1204E+01  0.1129E+02E
 SPEC TACVHH N MO 12.3 ST0.472 OM  1.3 f0 4.36 R0.2716 AL 1.88 WI 13.2 MW  2.2 3
 SPEC TACVHH N T21 045 K 0.020 GD  120 VS 3.20 DE 2.60 Q0 65.0 QA 1.10 Q1 1.00 3
 SPEC TERVHH N MO 12.6 ST0.660 OM  1.6 f0 3.91 R0.3028 AL 2.16 WI 12.3 MW  2.4 3
 SPEC TERVHH N T21 044 K 0.020 GD  117 VS 3.20 DE 2.60 Q0 65.0 QA 1.10 Q1 1.00 3
 SPEC MAPVHH N MO 12.4 ST0.331 OM  1.7 f0 3.56 R0.3326 AL 2.52 WI 18.1 MW  2.2 3
 SPEC MAPVHH N T21 027 K 0.020 GD 61.8 VS 3.20 DE 2.60 Q0 65.0 QA 1.10 Q1 1.00 3
 SPEC BENVHH N MO 12.2 ST0.050 OM  1.4 f0 2.28 R0.5193 AL 1.91 WI 15.0 MW  2.1 3
 SPEC BENVHH N T21 031 K 0.020 GD 71.1 VS 3.20 DE 2.60 Q0 65.0 QA 1.10 Q1 1.00 3
 SPEC BAUVHH N MO 12.4 ST  2.6 OM  1.3 f0 7.26 R0.1631 AL 1.96 WI  7.5 MW  2.2 3
 SPEC BAUVHH N T21 051 K 0.020 GD  141 VS 3.20 DE 2.60 Q0 65.0 QA 1.10 Q1 1.00 3
 ACTION:UP  19-01-01 17:13 OP:rap  STATUS:               ID:20190101205800     I
 OLDACT:REG 19-01-01 17:08 OP:rap  STATUS:               ID:20190101205800     3
 2019-01-01-2058-00S.MAN___119                                                 6
 STAT SP IPHASW D HRMM SECON CODA AMPLIT PERI AZIMU VELO AIN AR TRES W  DIS CAZ7
 MAPV HZ EP       21 0 20.78                              95   -0.2510 60.5 214 
 MAPV HN ES       21 0 29.07                              95    0.4010 60.5 214 
 BENV HZ EP       21 0 22.94                              94    0.4110 69.9 121 
 BENV HN ES       21 0 30.92                              94   -0.3710 69.9 121 
 TERV HZ EP       21 0 30.78                              92    0.3610  120 253 
 TERV HN ES       21 0 44.41                              92   -0.6210  120 253 
 TACV HZ EP       21 0 31.31                              92    0.2310  124  97 
 TACV HN ES       21 0 45.89                              92   -0.2710  124  97 
 BAUV HZ EP       21 0 35.01                              49    0.2610  149 175 
 BAUV HN IS       21 0 52.40                              49   -0.1610  149 175 
                                                                                
 2019  1 1 2158  8.3 L  10.262 -68.111 13.1  FUN  5 0.4 2.2WFUN                1
 SPEC AVERAGE  MO 12.4 ST0.547 OM  1.5 f0 3.59 R0.5645 AL 2.21 WI 15.5 MW  2.2 3
 SPEC SD       MO  0.1 ST0.507 OM  0.1 f0 1.74 R0.5492 AL      WI      MW  0.1 3
 GAP=202        1.00       5.6     1.9  5.4 -0.3099E+01 -0.1236E+01  0.1362E+02E
 SPEC TERVHH N MO 12.4 ST  1.5 OM  1.4 f0 5.95 R0.1990 AL 2.22 WI 14.1 MW  2.2 3
 SPEC TERVHH N T215843 K 0.020 GD  120 VS 3.20 DE 2.60 Q0 65.0 QA 1.10 Q1 1.00 3
 SPEC TACVHH N MO 12.6 ST0.404 OM  1.5 f0 3.44 R0.3442 AL 2.90 WI 21.6 MW  2.3 3
 SPEC TACVHH N T215844 K 0.020 GD  118 VS 3.20 DE 2.60 Q0 65.0 QA 1.10 Q1 1.00 3
 SPEC MAPVHH N MO 12.4 ST0.236 OM  1.7 f0 3.20 R0.3700 AL 2.47 WI 11.4 MW  2.2 3
 SPEC MAPVHH N T215826 K 0.020 GD 62.3 VS 3.20 DE 2.60 Q0 65.0 QA 1.10 Q1 1.00 3
 SPEC BENVHH N MO 12.3 ST0.002 OM  1.5 f00.715 R1.6559 AL 1.79 WI 14.1 MW  2.1 3
 SPEC BENVHH N T215827 K 0.020 GD 66.5 VS 3.20 DE 2.60 Q0 65.0 QA 1.10 Q1 1.00 3
 SPEC BAUVHH N MO 12.4 ST0.617 OM  1.3 f0 4.67 R0.2535 AL 1.67 WI 16.3 MW  2.2 3
 SPEC BAUVHH N T215849 K 0.020 GD  140 VS 3.20 DE 2.60 Q0 65.0 QA 1.10 Q1 1.00 3
 ACTION:UP  19-01-01 18:16 OP:rap  STATUS:               ID:20190101215600     I
 OLDACT:UP  19-01-01 18:14 OP:rap  STATUS:               ID:20190101215600     3
 OLDACT:REG 19-01-01 18:13 OP:rap  STATUS:               ID:20190101215600     3
 2019-01-01-2156-00S.MAN___119                                                 6
 STAT SP IPHASW D HRMM SECON CODA AMPLIT PERI AZIMU VELO AIN AR TRES W  DIS CAZ7
 MAPV HZ EP       2158 18.26                              96   -0.4910 60.9 219 
 MAPV HN ES       2158 26.62                              96    0.1810 60.9 219 
 BENV HZ EP       2158 19.58                              95    0.1310 65.2 120 
 BENV HN ES       2158 27.50                              95   -0.1610 65.2 120 
 TACV HZ EP       2158 27.39                              92   -0.6710  120  96 
 TACV HN ES       2158 43.33                              92    0.6810  120  96 
 TERV HZ EP       2158 28.48                              92   -0.1010  123 255 
 TERV HN ES       2158 43.90                              92    0.3510  123 255 
 BAUV HZ EP       2158 32.19                              49    0.1410  146 177 
 BAUV HN ES       2158 49.52                              49   -0.0710  146 177 
                                                                                
 2019  1 2 0738  0.3 L  10.238 -68.129 13.4  FUN  9 0.4 2.7WFUN                1
 SPEC AVERAGE  MO 13.1 ST  4.2 OM  2.1 f0 4.97 R0.2540 AL 3.25 WI 14.1 MW  2.7 3
 SPEC SD       MO  0.2 ST  2.3 OM  0.2 f0 1.27 R0.0646 AL      WI      MW  0.1 3
 GAP=119        1.20       2.8     1.9  4.3  0.7202E-01 -0.1899E+01  0.1436E+01E
 SPEC TERVHH N MO 13.1 ST  7.6 OM  2.0 f0 6.28 R0.1885 AL 2.65 WI 13.2 MW  2.7 3
 SPEC TERVHH N T 73834 K 0.020 GD  119 VS 3.20 DE 2.60 Q0 65.0 QA 1.10 Q1 1.00 3
 SPEC TACVHH N MO 13.0 ST  1.3 OM  1.9 f0 3.81 R0.3108 AL 2.84 WI 13.6 MW  2.6 3
 SPEC TACVHH N T 73833 K 0.020 GD  119 VS 3.20 DE 2.60 Q0 65.0 QA 1.10 Q1 1.00 3
 SPEC MAPVHH N MO 13.1 ST  3.3 OM  2.4 f0 4.67 R0.2535 AL 3.15 WI 12.8 MW  2.7 3
 SPEC MAPVHH N T 73817 K 0.020 GD 59.2 VS 3.20 DE 2.60 Q0 65.0 QA 1.10 Q1 1.00 3
 SPEC JACVHH N MO 13.4 ST  2.2 OM  2.4 f0 3.20 R0.3700 AL 4.38 WI 16.3 MW  2.9 3
 SPEC JACVHH N T 73834 K 0.020 GD  119 VS 3.20 DE 2.60 Q0 65.0 QA 1.10 Q1 1.00 3
 SPEC FUNVHH N MO 13.1 ST  3.6 OM  2.0 f0 4.67 R0.2535 AL 3.47 WI 14.5 MW  2.7 3
 SPEC FUNVHH N T 73839 K 0.020 GD  143 VS 3.20 DE 2.60 Q0 65.0 QA 1.10 Q1 1.00 3
 SPEC BENVHH N MO 12.9 ST  7.6 OM  2.1 f0 7.19 R0.1647 AL 3.61 WI 15.4 MW  2.5 3
 SPEC BENVHH N T 73821 K 0.020 GD 67.0 VS 3.20 DE 2.60 Q0 65.0 QA 1.10 Q1 1.00 3
 SPEC BAUVHH N MO 13.0 ST  3.6 OM  1.9 f0 4.99 R0.2373 AL 2.68 WI 12.8 MW  2.6 3
 SPEC BAUVHH N T 73840 K 0.020 GD  140 VS 3.20 DE 2.60 Q0 65.0 QA 1.10 Q1 1.00 3
 ACTION:UP  19-01-02 05:45 OP:rap  STATUS:               ID:20190102073700     I
 OLDACT:UP  19-01-02 05:43 OP:rap  STATUS:               ID:20190102073700     3
 OLDACT:REG 19-01-02 05:41 OP:rap  STATUS:               ID:20190102073700     3
 2019-01-02-0737-00S.MAN___119                                                 6
 STAT SP IPHASW D HRMM SECON CODA AMPLIT PERI AZIMU VELO AIN AR TRES W  DIS CAZ7
 MAPV HZ EP        738  9.68                              97   -0.4910 57.7 219 
 MAPV HN ES        738 17.26                              97   -0.2310 57.7 219 
 BENV HZ EP        738 11.69                              96    0.2410 65.6 118 
 BENV HN ES        738 20.03                              96    0.3110 65.6 118 
 TERV HZ EP        738 19.49                              93   -0.6210  120 255 
 TERV HN ES        738 34.49                              93   -0.2910  120 255 
 TACV HZ EP        738 20.58                              92    0.3210  121  95 
 JACV HZ EP        738 20.83                              92    0.6010  121 321 
 JACV HN ES        738 35.17                              92    0.1710  121 321 
 TACV HN ES        738 34.80                              92   -0.2410  121  95 
 BAUV HZ EP        738 24.14                              49    0.4910  144 176 
 BAUV HN ES        738 41.19                              49    0.2410  144 176 
 FUNV HZ EP        738 23.45                              49   -0.6810  147  80 
 FUNV HN ES        738 41.13                              49   -0.6510  147  80 
 SOCV HZ EP        738 51.58                              49    0.6810  369 234 
 CACV HZ EP        738 52.67                              49    0.1510  383 142 
                                                                                
 2019  1 2 1223 41.6 L  10.257 -68.105 11.8  FUN  4 0.3 2.5WFUN                1
 SPEC AVERAGE  MO 12.9 ST 15.9 OM  2.0 f0 8.45 R0.1417 AL 2.64 WI 29.1 MW  2.5 3
 SPEC SD       MO  0.2 ST 12.3 OM  0.1 f00.924 R0.0153 AL      WI      MW  0.1 3
 GAP=226        0.77       5.3     1.8  4.4  0.7918E+00 -0.6940E+00  0.9957E+01E
 SPEC TERVHH N MO 13.0 ST 10.6 OM  2.0 f0 7.26 R0.1631 AL 2.35 WI 22.5 MW  2.6 3
 SPEC TERVHH N T122415 K 0.020 GD  117 VS 3.20 DE 2.60 Q0 65.0 QA 1.10 Q1 1.00 3
 SPEC MAPVHH E MO 12.7 ST  9.5 OM  2.0 f0 8.64 R0.1370 AL 4.43 WI 22.9 MW  2.4 3
 SPEC MAPVHH E T122359 K 0.020 GD 62.1 VS 3.20 DE 2.60 Q0 65.0 QA 1.10 Q1 1.00 3
 SPEC BENVHH N MO 12.7 ST  6.6 OM  1.9 f0 8.11 R0.1460 AL 2.16 WI 35.2 MW  2.4 3
 SPEC BENVHH N T122359 K 0.020 GD 65.4 VS 3.20 DE 2.60 Q0 65.0 QA 1.10 Q1 1.00 3
 SPEC BAUVHH N MO 13.2 ST 37.0 OM  2.1 f0 9.81 R0.1207 AL 1.61 WI 35.7 MW  2.7 3
 SPEC BAUVHH N T122420 K 0.020 GD  131 VS 3.20 DE 2.60 Q0 65.0 QA 1.10 Q1 1.00 3
 ACTION:UP  19-01-02 08:40 OP:elv  STATUS:               ID:20190102122200     I
 OLDACT:UP  19-01-02 08:37 OP:elv  STATUS:               ID:20190102122200     3
 OLDACT:UP  19-01-02 08:37 OP:elv  STATUS:               ID:20190102122200     3
 OLDACT:UP  19-01-02 08:36 OP:elv  STATUS:               ID:20190102122200     3
 OLDACT:REG 19-01-02 08:36 OP:elv  STATUS:               ID:20190102122200     3
 2019-01-02-1222-00S.MAN___119                                                 6
 STAT SP IPHASW D HRMM SECON CODA AMPLIT PERI AZIMU VELO AIN AR TRES W  DIS CAZ7
 MAPV HZ EP       1223 51.94                              94   -0.0510 61.0 219 
 MAPV HE ES       1223 59.91                              94    0.2210 61.0 219 
 BENV HZ EP       1223 52.46                              94   -0.0810 64.3 120 
 BENV HN ES       1224  0.53                              94   -0.1110 64.3 120 
 TERV HZ EP       1224  1.98                              92    0.0710  124 255 
 TERV HN ES       1224 16.64                              92   -0.3110  124 255 
 BAUV HZ EP       1224  5.96                              49    0.5910  145 177 
 BAUV HN ES       1224 22.61                              49   -0.3510  145 177 
                                                                                
 2019  1 2 1659 40.8 L  10.350 -68.431 27.3  FUN  3 0.4 2.2WFUN                1
 SPEC AVERAGE  MO 12.4 ST  1.7 OM  1.4 f0 6.15 R0.1960 AL 2.03 WI 27.3 MW  2.2 3
 SPEC SD       MO  0.3 ST0.753 OM  0.2 f00.872 R0.0256 AL      WI      MW  0.2 3
 GAP=282        1.14       9.8     7.0  6.0  0.4175E+02 -0.2769E+02 -0.2385E+02E
 SPEC TERVHH N MO 12.1 ST0.685 OM  1.2 f0 5.72 R0.2070 AL 1.37 WI 31.7 MW  2.0 3
 SPEC TERVHH N T17 0 8 K 0.020 GD 97.6 VS 3.20 DE 2.60 Q0 65.0 QA 1.10 Q1 1.00 3
 SPEC MAPVHH E MO 12.3 ST  1.9 OM  1.5 f0 7.37 R0.1607 AL 3.03 WI 29.5 MW  2.1 3
 SPEC MAPVHH E T165957 K 0.020 GD 63.7 VS 3.20 DE 2.60 Q0 65.0 QA 1.10 Q1 1.00 3
 SPEC BAUVHH E MO 12.8 ST  2.5 OM  1.6 f0 5.37 R0.2205 AL 1.69 WI 20.7 MW  2.5 3
 SPEC BAUVHH E T17 020 K 0.020 GD  163 VS 3.20 DE 2.60 Q0 65.0 QA 1.10 Q1 1.00 3
 ACTION:UP  19-01-02 13:45 OP:db   STATUS:               ID:20190102165700     I
 OLDACT:UP  19-01-02 13:45 OP:db   STATUS:               ID:20190102165700     3
 OLDACT:UP  19-01-02 13:43 OP:db   STATUS:               ID:20190102165700     3
 OLDACT:UP  19-01-02 13:42 OP:db   STATUS:               ID:20190102165700     3
 OLDACT:UP  19-01-02 13:41 OP:db   STATUS:               ID:20190102165700     3
 OLDACT:UP  19-01-02 13:40 OP:db   STATUS:               ID:20190102165700     3
 OLDACT:UP  19-01-02 13:38 OP:db   STATUS:               ID:20190102165700     3
 OLDACT:UP  19-01-02 13:37 OP:db   STATUS:               ID:20190102165700     3
 OLDACT:UP  19-01-02 13:33 OP:db   STATUS:               ID:20190102165700     3
 OLDACT:REG 19-01-02 13:31 OP:db   STATUS:               ID:20190102165700     3
 2019-01-02-1657-00S.MAN___119                                                 6
 STAT SP IPHASW D HRMM SECON CODA AMPLIT PERI AZIMU VELO AIN AR TRES W  DIS CAZ7
 MAPV HZ EP       1659 51.00                             113   -0.2210 57.5 183 
 MAPV HE ES       1659 59.08                             113    0.1310 57.5 183 
 TERV HZ EP       1659 56.19                             104   -0.5210 93.7 243 
 TERV HN ES       17 0  8.80                             104    0.3010 93.7 243 
 BAUV HZ EP       17 0  5.61                              49    0.7510  161 165 
 BAUV HE ES       17 0 22.25                              49   -0.4310  161 165 
                                                                                
 2019  1 2 1700 59.4 L  10.255 -68.166 15.3  FUN  5 0.3 2.5WFUN                1
 SPEC AVERAGE  MO 12.8 ST  5.3 OM  1.9 f0 6.79 R0.1781 AL 2.42 WI 33.0 MW  2.5 3
 SPEC SD       MO  0.2 ST0.921 OM  0.2 f00.964 R0.0269 AL      WI      MW  0.1 3
 GAP=202        0.77       4.1     1.5  3.9 -0.2045E+01 -0.8119E+00  0.6269E+01E
 SPEC TACVHH N MO 12.6 ST  4.8 OM  1.5 f0 7.73 R0.1532 AL 1.76 WI 31.3 MW  2.3 3
 SPEC TACVHH N T17 132 K 0.020 GD  126 VS 3.20 DE 2.60 Q0 65.0 QA 1.10 Q1 1.00 3
 SPEC TERVHH N MO 13.0 ST  5.5 OM  2.0 f0 5.81 R0.2038 AL 2.30 WI 33.0 MW  2.6 3
 SPEC TERVHH N T17 130 K 0.020 GD  117 VS 3.20 DE 2.60 Q0 65.0 QA 1.10 Q1 1.00 3
 SPEC MAPVHH N MO 12.8 ST  7.0 OM  2.1 f0 7.37 R0.1607 AL 3.91 WI 33.0 MW  2.5 3
 SPEC MAPVHH N T17 114 K 0.020 GD 58.8 VS 3.20 DE 2.60 Q0 65.0 QA 1.10 Q1 1.00 3
 SPEC BENVHH N MO 12.6 ST  4.7 OM  1.8 f0 7.61 R0.1556 AL 3.09 WI 38.3 MW  2.3 3
 SPEC BENVHH N T17 118 K 0.020 GD 71.8 VS 3.20 DE 2.60 Q0 65.0 QA 1.10 Q1 1.00 3
 SPEC BAUVHH N MO 13.0 ST  4.5 OM  1.9 f0 5.45 R0.2172 AL 1.05 WI 29.5 MW  2.6 3
 SPEC BAUVHH N T17 138 K 0.020 GD  146 VS 3.20 DE 2.60 Q0 65.0 QA 1.10 Q1 1.00 3
 ACTION:UP  19-01-02 13:22 OP:db   STATUS:               ID:20190102165900     I
 OLDACT:UP  19-01-02 13:21 OP:db   STATUS:               ID:20190102165900     3
 OLDACT:UP  19-01-02 13:17 OP:db   STATUS:               ID:20190102165900     3
 OLDACT:UP  19-01-02 13:15 OP:db   STATUS:               ID:20190102165900     3
 OLDACT:UP  19-01-02 13:11 OP:db   STATUS:               ID:20190102165900     3
 OLDACT:REG 19-01-02 13:09 OP:db   STATUS:               ID:20190102165900     3
 2019-01-02-1659-00S.MAN___119                                                 6
 STAT SP IPHASW D HRMM SECON CODA AMPLIT PERI AZIMU VELO AIN AR TRES W  DIS CAZ7
 MAPV HZ EP       17 1  9.07                              99   -0.1510 56.8 214 
 MAPV HN ES       17 1 16.54                              99    0.0710 56.8 214 
 BENV HZ EP       17 1 11.30                              97   -0.0410 70.1 117 
 BENV HN ES       17 1 20.38                              97    0.2310 70.1 117 
 TERV HZ EP       17 1 19.07                              94    0.3410  117 254 
 TERV HN ES       17 1 32.66                              94   -0.3510  117 254 
 TACV HZ EP       17 1 20.28                              93    0.1910  126  96 
 TACV HN ES       17 1 34.93                              93   -0.4510  126  96 
 BAUV HZ EP       17 1 23.27                              49    0.4010  146 175 
 BAUV HN ES       17 1 39.97                              49   -0.2410  146 175 
                                                                                
