 2019  1 5 0021 26.1 L  10.330 -68.176 12.1  FUN  4 0.2 1.8WFUN                1
 SPEC AVERAGE  MO 11.8 ST0.655 OM  0.8 f0 7.61 R0.1626 AL 2.05 WI 22.7 MW  1.8 3
 SPEC SD       MO  0.2 ST0.061 OM  0.2 f0 1.43 R0.0379 AL      WI      MW  0.2 3
 GAP=250        0.61       4.5     2.3  3.3 -0.6962E+01 -0.2378E+00  0.3998E+01E
 SPEC TACVHH E MO 11.6 ST0.706 OM  0.5 f0 8.92 R0.1327 AL 2.27 WI 23.8 MW  1.7 3
 SPEC TACVHH E T 022 2 K 0.020 GD  121 VS 3.20 DE 2.60 Q0 65.0 QA 1.10 Q1 1.00 3
 SPEC MAPVHH N MO 11.6 ST0.641 OM  0.9 f0 8.22 R0.1440 AL 2.30 WI 19.4 MW  1.7 3
 SPEC MAPVHH N T 02143 K 0.020 GD 64.3 VS 3.20 DE 2.60 Q0 65.0 QA 1.10 Q1 1.00 3
 SPEC BENVHH N MO 11.7 ST0.712 OM  0.9 f0 8.11 R0.1460 AL 2.72 WI 26.0 MW  1.7 3
 SPEC BENVHH N T 02147 K 0.020 GD 76.2 VS 3.20 DE 2.60 Q0 65.0 QA 1.10 Q1 1.00 3
 SPEC BAUVHH N MO 12.2 ST0.560 OM  1.1 f0 5.20 R0.2277 AL 0.92 WI 21.6 MW  2.1 3
 SPEC BAUVHH N T 022 8 K 0.020 GD  140 VS 3.20 DE 2.60 Q0 65.0 QA 1.10 Q1 1.00 3
 ACTION:UP  19-01-04 20:30 OP:elv  STATUS:               ID:20190105001900     I
 OLDACT:UP  19-01-04 20:29 OP:elv  STATUS:               ID:20190105001900     3
 OLDACT:UP  19-01-04 20:28 OP:elv  STATUS:               ID:20190105001900     3
 OLDACT:REG 19-01-04 20:28 OP:elv  STATUS:               ID:20190105001900     3
 2019-01-05-0019-00S.MAN___119                                                 6
 STAT SP IPHASW D HRMM SECON CODA AMPLIT PERI AZIMU VELO AIN AR TRES W  DIS CAZ7
 MAPV HZ EP        021 36.87                              94    0.0510 63.2 209 
 MAPV HN ES        021 44.66                              94   -0.1110 63.2 209 
 BENV HZ EP        021 38.53                              93   -0.2110 75.2 123 
 BENV HN ES        021 48.45                              93    0.3310 75.2 123 
 TACV HZ EP        021 47.18                              92    0.1210  128  99 
 TACV HE ES        022  2.31                              92   -0.2910  128  99 
 BAUV HZ EP        021 51.13                              49    0.2810  154 174 
 BAUV HN ES        022  9.01                              49   -0.1610  154 174 
                                                                                
 2019  1 5 0311 18.9 L  10.256 -68.160 14.2  FUN  5 0.2 2.0WFUN                1
 SPEC AVERAGE  MO 12.0 ST  1.3 OM  1.1 f0 7.53 R0.1589 AL 2.40 WI 20.6 MW  2.0 3
 SPEC SD       MO  0.2 ST0.784 OM  0.2 f00.764 R0.0162 AL      WI      MW  0.1 3
 GAP=202        0.54       2.9     1.1  2.8 -0.9979E+00 -0.4129E+00  0.3338E+01E
 SPEC TERVHH E MO 12.0 ST0.805 OM  1.0 f0 6.49 R0.1824 AL 1.55 WI 20.7 MW  2.0 3
 SPEC TERVHH E T 31150 K 0.020 GD  118 VS 3.20 DE 2.60 Q0 65.0 QA 1.10 Q1 1.00 3
 SPEC TACVHH N MO 11.7 ST0.877 OM  0.7 f0 8.64 R0.1370 AL 2.17 WI 26.4 MW  1.8 3
 SPEC TACVHH N T 31153 K 0.020 GD  125 VS 3.20 DE 2.60 Q0 65.0 QA 1.10 Q1 1.00 3
 SPEC MAPVHH N MO 12.0 ST  1.5 OM  1.3 f0 8.01 R0.1478 AL 3.89 WI 16.7 MW  2.0 3
 SPEC MAPVHH N T 31134 K 0.020 GD 58.9 VS 3.20 DE 2.60 Q0 65.0 QA 1.10 Q1 1.00 3
 SPEC BENVHH N MO 11.9 ST0.717 OM  1.1 f0 6.92 R0.1711 AL 2.32 WI 23.3 MW  1.9 3
 SPEC BENVHH N T 31138 K 0.020 GD 71.0 VS 3.20 DE 2.60 Q0 65.0 QA 1.10 Q1 1.00 3
 SPEC BAUVHH E MO 12.4 ST  2.8 OM  1.3 f0 7.58 R0.1562 AL 2.05 WI 15.9 MW  2.2 3
 SPEC BAUVHH E T 31158 K 0.020 GD  146 VS 3.20 DE 2.60 Q0 65.0 QA 1.10 Q1 1.00 3
 ACTION:UP  19-01-05 04:31 OP:elv  STATUS:               ID:20190105030900     I
 OLDACT:UP  19-01-05 04:30 OP:elv  STATUS:               ID:20190105030900     3
 OLDACT:UP  19-01-05 04:29 OP:elv  STATUS:               ID:20190105030900     3
 OLDACT:REG 19-01-05 04:29 OP:elv  STATUS:               ID:20190105030900     3
 2019-01-05-0309-00S.MAN___119                                                 6
 STAT SP IPHASW D HRMM SECON CODA AMPLIT PERI AZIMU VELO AIN AR TRES W  DIS CAZ7
 MAPV HZ EP        311 28.57                              98   -0.1610 57.2 215 
 MAPV HN ES        311 35.99                              98   -0.0310 57.2 215 
 BENV HZ EP        311 30.83                              96    0.1310 69.6 118 
 BENV HN ES        311 39.49                              96    0.0510 69.6 118 
 TERV HZ EP        311 38.36                              93    0.0710  118 254 
 TERV HE ES        311 52.76                              93    0.1210  118 254 
 TACV HZ EP        311 38.99                              93   -0.4610  125  96 
 TACV HN ES        311 54.89                              93    0.2310  125  96 
 BAUV HZ EP        311 42.56                              49    0.1110  146 175 
 BAUV HE ES        311 59.83                              49   -0.0610  146 175 
                                                                                
 2019  1 5 0454 30.4 L  10.217 -68.144 13.3  FUN  5 0.3 2.0WFUN                1
 SPEC AVERAGE  MO 12.1 ST  2.2 OM  1.2 f0 8.02 R0.1520 AL 1.82 WI 22.6 MW  2.0 3
 SPEC SD       MO  0.2 ST  1.6 OM  0.2 f0 1.28 R0.0279 AL      WI      MW  0.1 3
 GAP=198        0.82       4.5     1.6  4.5 -0.2454E+01 -0.1180E+01  0.9534E+01E
 SPEC TERVHH E MO 12.3 ST0.943 OM  1.2 f0 5.81 R0.2038 AL 1.03 WI 24.2 MW  2.1 3
 SPEC TERVHH E T 455 1 K 0.020 GD  116 VS 3.20 DE 2.60 Q0 65.0 QA 1.10 Q1 1.00 3
 SPEC TACVHH E MO 11.8 ST  1.5 OM  0.8 f0 9.50 R0.1246 AL 1.76 WI 23.3 MW  1.8 3
 SPEC TACVHH E T 455 4 K 0.020 GD  121 VS 3.20 DE 2.60 Q0 65.0 QA 1.10 Q1 1.00 3
 SPEC MAPVHH E MO 12.2 ST  1.9 OM  1.5 f0 8.01 R0.1478 AL 2.76 WI 18.9 MW  2.0 3
 SPEC MAPVHH E T 45446 K 0.020 GD 56.5 VS 3.20 DE 2.60 Q0 65.0 QA 1.10 Q1 1.00 3
 SPEC BENVHH N MO 12.0 ST  1.2 OM  1.2 f0 7.73 R0.1532 AL 2.06 WI 25.5 MW  1.9 3
 SPEC BENVHH N T 45448 K 0.020 GD 67.3 VS 3.20 DE 2.60 Q0 65.0 QA 1.10 Q1 1.00 3
 SPEC BAUVHH N MO 12.4 ST  5.3 OM  1.3 f0 9.06 R0.1307 AL 1.47 WI 21.1 MW  2.2 3
 SPEC BAUVHH N T 455 7 K 0.020 GD  137 VS 3.20 DE 2.60 Q0 65.0 QA 1.10 Q1 1.00 3
 ACTION:UP  19-01-05 04:37 OP:elv  STATUS:               ID:20190105045200     I
 OLDACT:UP  19-01-05 04:36 OP:elv  STATUS:               ID:20190105045200     3
 OLDACT:UP  19-01-05 04:35 OP:elv  STATUS:               ID:20190105045200     3
 OLDACT:REG 19-01-05 04:35 OP:elv  STATUS:               ID:20190105045200     3
 2019-01-05-0452-00S.MAN___119                                                 6
 STAT SP IPHASW D HRMM SECON CODA AMPLIT PERI AZIMU VELO AIN AR TRES W  DIS CAZ7
 MAPV HZ EP        454 39.51                              97   -0.3910 54.9 219 
 MAPV HE ES        454 47.11                              97    0.2110 54.9 219 
 BENV HZ EP        454 41.67                              95   -0.0210 66.0 115 
 BENV HN ES        454 49.90                              95   -0.1010 66.0 115 
 TERV HZ EP        454 49.63                              92   -0.3110  118 256 
 TERV HE ES        455  4.69                              92    0.3210  118 256 
 TACV HZ EP        454 50.35                              92   -0.3010  123  94 
 TACV HE ES        455  6.01                              92    0.4010  123  94 
 BAUV HZ EP        454 53.99                              49    0.4210  141 175 
 BAUV HN ES        455 10.45                              49   -0.2310  141 175 
                                                                                
 2019  1 5 0517 47.9 L  10.323 -68.178 12.7  FUN  5 0.3 2.1WFUN                1
 SPEC AVERAGE  MO 12.2 ST  2.6 OM  1.3 f0 7.74 R0.1605 AL 2.38 WI 23.9 MW  2.1 3
 SPEC SD       MO  0.2 ST  2.1 OM  0.1 f0 1.54 R0.0382 AL      WI      MW  0.1 3
 GAP=209        0.76       4.1     1.5  4.1 -0.1900E+01 -0.7047E+00  0.6270E+01E
 SPEC TERVHH N MO 12.3 ST0.802 OM  1.3 f0 5.28 R0.2242 AL 1.57 WI 23.8 MW  2.2 3
 SPEC TERVHH N T 51820 K 0.020 GD  115 VS 3.20 DE 2.60 Q0 65.0 QA 1.10 Q1 1.00 3
 SPEC MAPVHH N MO 12.1 ST  2.3 OM  1.3 f0 9.16 R0.1293 AL 4.25 WI 20.3 MW  2.0 3
 SPEC MAPVHH N T 518 5 K 0.020 GD 63.8 VS 3.20 DE 2.60 Q0 65.0 QA 1.10 Q1 1.00 3
 SPEC BENVHH N MO 12.0 ST  1.3 OM  1.2 f0 7.61 R0.1556 AL 2.12 WI 24.2 MW  2.0 3
 SPEC BENVHH N T 518 8 K 0.020 GD 76.1 VS 3.20 DE 2.60 Q0 65.0 QA 1.10 Q1 1.00 3
 SPEC BAUVHH E MO 12.5 ST  6.1 OM  1.4 f0 8.92 R0.1327 AL 1.59 WI 27.3 MW  2.3 3
 SPEC BAUVHH E T 51829 K 0.020 GD  143 VS 3.20 DE 2.60 Q0 65.0 QA 1.10 Q1 1.00 3
 ACTION:UP  19-01-05 04:42 OP:elv  STATUS:               ID:20190105051600     I
 OLDACT:UP  19-01-05 04:42 OP:elv  STATUS:               ID:20190105051600     3
 OLDACT:UP  19-01-05 04:42 OP:elv  STATUS:               ID:20190105051600     3
 OLDACT:UP  19-01-05 04:39 OP:elv  STATUS:               ID:20190105051600     3
 OLDACT:REG 19-01-05 04:39 OP:elv  STATUS:               ID:20190105051600     3
 2019-01-05-0516-00S.MAN___119                                                 6
 STAT SP IPHASW D HRMM SECON CODA AMPLIT PERI AZIMU VELO AIN AR TRES W  DIS CAZ7
 MAPV HZ EP        517 58.67                              95    0.1710 62.5 209 
 MAPV HN ES        518  6.62                              95    0.2510 62.5 209 
 BENV HZ EP        518  0.07                              94   -0.4410 75.0 122 
 BENV HN ES        518  9.51                              94   -0.3610 75.0 122 
 TERV HZ EP        518  6.98                              92   -0.3210  118 250 
 TERV HN ES        518 21.70                              92    0.0110  118 250 
 TACV HZ EP        518  9.10                              92    0.2310  128  99 
 TACV HE ES        518 24.82                              92    0.4010  128  99 
 BAUV HZ EP        518 12.66                              49    0.1710  153 174 
 BAUV HE ES        518 30.62                              49   -0.1010  153 174 
                                                                                
 2019  1 5 0602 56.9 L  10.248 -68.125 14.6  FUN  4 0.2 1.9WFUN                1
 SPEC AVERAGE  MO 12.0 ST  1.3 OM  1.0 f0 7.03 R0.1838 AL 1.91 WI 22.3 MW  1.9 3
 SPEC SD       MO  0.1 ST  1.2 OM  0.0 f0 2.00 R0.0551 AL      WI      MW  0.1 3
 GAP=224        0.55       3.6     1.3  2.9  0.2555E+00 -0.3435E+00  0.4037E+01E
 SPEC TERVHH E MO 12.0 ST0.281 OM  1.0 f0 4.60 R0.2574 AL 1.34 WI 18.1 MW  2.0 3
 SPEC TERVHH E T 6 330 K 0.020 GD  121 VS 3.20 DE 2.60 Q0 65.0 QA 1.10 Q1 1.00 3
 SPEC MAPVHH N MO 11.8 ST0.615 OM  1.1 f0 6.99 R0.1694 AL 2.81 WI 19.4 MW  1.8 3
 SPEC MAPVHH N T 6 313 K 0.020 GD 60.5 VS 3.20 DE 2.60 Q0 65.0 QA 1.10 Q1 1.00 3
 SPEC BAUVHH N MO 12.1 ST  3.0 OM  1.0 f0 9.50 R0.1246 AL 1.59 WI 29.5 MW  2.0 3
 SPEC BAUVHH N T 6 335 K 0.020 GD  145 VS 3.20 DE 2.60 Q0 65.0 QA 1.10 Q1 1.00 3
 ACTION:UP  19-01-05 04:46 OP:elv  STATUS:               ID:20190105060100     I
 OLDACT:UP  19-01-05 04:46 OP:elv  STATUS:               ID:20190105060100     3
 OLDACT:UP  19-01-05 04:45 OP:elv  STATUS:               ID:20190105060100     3
 OLDACT:UP  19-01-05 04:44 OP:elv  STATUS:               ID:20190105060100     3
 OLDACT:REG 19-01-05 04:44 OP:elv  STATUS:               ID:20190105060100     3
 2019-01-05-0601-00S.MAN___119                                                 6
 STAT SP IPHASW D HRMM SECON CODA AMPLIT PERI AZIMU VELO AIN AR TRES W  DIS CAZ7
 MAPV HZ EP        6 3  6.58                              98   -0.3610 58.7 218 
 MAPV HN ES        6 3 14.47                              98    0.0710 58.7 218 
 BENV HZ EP        6 3  7.87                              97   -0.2010 65.8 119 
 BENV HE ES        6 3 16.60                              97    0.2310 65.8 119 
 TERV HZ EP        6 3 17.02                              93    0.2210  121 255 
 TERV HE ES        6 3 31.62                              93    0.0610  121 255 
 BAUV HZ EP        6 3 20.16                              49   -0.0710  145 176 
 BAUV HN ES        6 3 37.57                              49    0.0510  145 176 
                                                                                
 2019  1 5 0713 29.8 L  10.192 -68.155  6.5  FUN  4 0.2 1.8WFUN                1
 SPEC AVERAGE  MO 11.7 ST0.722 OM  0.9 f0 7.58 R0.1602 AL 1.92 WI 26.6 MW  1.8 3
 SPEC SD       MO  0.2 ST0.446 OM  0.1 f0 1.10 R0.0273 AL      WI      MW  0.2 3
 GAP=215        0.61       3.1     1.3  8.7  0.4529E+00  0.1129E+01  0.1231E+02E
 SPEC TERVHH E MO 11.8 ST0.345 OM  0.9 f0 5.72 R0.2070 AL 1.46 WI 22.5 MW  1.8 3
 SPEC TERVHH E T 714 3 K 0.020 GD  107 VS 3.20 DE 2.60 Q0 65.0 QA 1.10 Q1 1.00 3
 SPEC MAPVHH N MO 11.6 ST0.603 OM  0.9 f0 8.50 R0.1393 AL 2.39 WI 25.5 MW  1.7 3
 SPEC MAPVHH N T 71345 K 0.020 GD 52.3 VS 3.20 DE 2.60 Q0 65.0 QA 1.10 Q1 1.00 3
 SPEC BENVHH E MO 11.5 ST0.461 OM  0.7 f0 8.24 R0.1437 AL 2.25 WI 28.2 MW  1.6 3
 SPEC BENVHH E T 71349 K 0.020 GD 66.4 VS 3.20 DE 2.60 Q0 65.0 QA 1.10 Q1 1.00 3
 SPEC BAUVHH E MO 12.1 ST  1.5 OM  1.0 f0 7.85 R0.1508 AL 1.59 WI 30.4 MW  2.0 3
 SPEC BAUVHH E T 714 7 K 0.020 GD  117 VS 3.20 DE 2.60 Q0 65.0 QA 1.10 Q1 1.00 3
 ACTION:UP  19-01-05 04:50 OP:elv  STATUS:               ID:20190105071100     I
 OLDACT:UP  19-01-05 04:50 OP:elv  STATUS:               ID:20190105071100     3
 OLDACT:UP  19-01-05 04:49 OP:elv  STATUS:               ID:20190105071100     3
 OLDACT:REG 19-01-05 04:48 OP:elv  STATUS:               ID:20190105071100     3
 2019-01-05-0711-00S.MAN___119                                                 6
 STAT SP IPHASW D HRMM SECON CODA AMPLIT PERI AZIMU VELO AIN AR TRES W  DIS CAZ7
 MAPV HZ EP        713 38.86                              65   -0.0710 51.9 220 
 MAPV HN ES        713 45.64                              65   -0.0410 51.9 220 
 BENV HZ EP        713 41.17                              65   -0.0310 66.1 113 
 BENV HE ES        713 49.63                              65   -0.0010 66.1 113 
 TERV HZ EP        713 48.85                              65   -0.3210  116 258 
 TERV HE ES        714  3.73                              65    0.2210  116 258 
 BAUV HZ EP        713 53.10                              65    0.4210  139 175 
 BAUV HE ES        714  9.44                              65   -0.1810  139 175 
                                                                                
 2019  1 5 0714 29.5 L  10.225 -68.168 15.1  FUN  4 0.3 1.7WFUN                1
 SPEC AVERAGE  MO 11.7 ST0.445 OM  0.8 f0 6.65 R0.1892 AL 1.53 WI 23.5 MW  1.7 3
 SPEC SD       MO  0.2 ST0.272 OM  0.0 f0 1.50 R0.0495 AL      WI      MW  0.1 3
 GAP=219        0.75       4.6     1.7  3.8 -0.1664E+00 -0.9033E+00  0.6587E+01E
 SPEC TERVHH E MO 11.8 ST0.168 OM  0.8 f0 4.58 R0.2585 AL 1.57 WI 22.0 MW  1.8 3
 SPEC TERVHH E T 715 1 K 0.020 GD  116 VS 3.20 DE 2.60 Q0 65.0 QA 1.10 Q1 1.00 3
 SPEC MAPVHH E MO 11.4 ST0.353 OM  0.7 f0 8.11 R0.1460 AL 1.67 WI 22.9 MW  1.5 3
 SPEC MAPVHH E T 71445 K 0.020 GD 55.9 VS 3.20 DE 2.60 Q0 65.0 QA 1.10 Q1 1.00 3
 SPEC BAUVHH E MO 11.9 ST0.815 OM  0.8 f0 7.26 R0.1631 AL 1.34 WI 25.5 MW  1.9 3
 SPEC BAUVHH E T 715 7 K 0.020 GD  142 VS 3.20 DE 2.60 Q0 65.0 QA 1.10 Q1 1.00 3
 ACTION:UP  19-01-05 04:52 OP:elv  STATUS:               ID:20190105071101d    I
 OLDACT:UP  19-01-05 04:52 OP:elv  STATUS:               ID:20190105071101d    3
 OLDACT:UP  19-01-05 04:52 OP:elv  STATUS:               ID:20190105071101d    3
 OLDACT:UP  19-01-05 04:51 OP:elv  STATUS:               ID:20190105071101d    3
 OLDACT:DUP 19-01-05 04:50 OP:elv  STATUS:               ID:20190105071101d    3
 OLDACT:UP  19-01-05 04:50 OP:elv  STATUS:               ID:20190105071100     3
 OLDACT:UP  19-01-05 04:49 OP:elv  STATUS:               ID:20190105071100     3
 OLDACT:REG 19-01-05 04:48 OP:elv  STATUS:               ID:20190105071100     3
 2019-01-05-0711-00S.MAN___119                                                 6
 STAT SP IPHASW D HRMM SECON CODA AMPLIT PERI AZIMU VELO AIN AR TRES W  DIS CAZ7
 MAPV HZ EP        714 38.35                             100   -0.5210 53.8 216 
 MAPV HE ES        714 45.93                             100    0.1610 53.8 216 
 BENV HZ EP        714 40.92                              97   -0.3210 68.8 115 
 BENV HE ES        714 50.23                              97    0.3210 68.8 115 
 TERV HZ EP        714 48.80                              94    0.1410  116 256 
 TERV HE ES        715  2.93                              94    0.1210  116 256 
 BAUV HZ EP        714 52.80                              49    0.2110  142 174 
 BAUV HE ES        715  9.54                              49   -0.1110  142 174 
                                                                                
 2019  1 5 0738 48.7 L  10.240 -68.120  2.2  FUN  5 0.2 2.0WFUN                1
 SPEC AVERAGE  MO 12.1 ST  1.1 OM  1.2 f0 6.43 R0.1911 AL 2.12 WI 24.3 MW  2.0 3
 SPEC SD       MO  0.3 ST0.847 OM  0.2 f0 1.11 R0.0396 AL      WI      MW  0.2 3
 GAP=200        0.60       2.4     1.1  3.3 -0.6591E+00  0.3960E+00 -0.1780E+01E
 SPEC TERVHH E MO 12.3 ST0.499 OM  1.3 f0 4.58 R0.2585 AL 1.37 WI 28.6 MW  2.1 3
 SPEC TERVHH E T 73921 K 0.020 GD  110 VS 3.20 DE 2.60 Q0 65.0 QA 1.10 Q1 1.00 3
 SPEC MAPVHH N MO 11.9 ST0.762 OM  1.2 f0 7.03 R0.1684 AL 2.96 WI 22.0 MW  1.9 3
 SPEC MAPVHH N T 739 5 K 0.020 GD 58.5 VS 3.20 DE 2.60 Q0 65.0 QA 1.10 Q1 1.00 3
 SPEC BENVHH N MO 11.8 ST0.645 OM  1.0 f0 7.49 R0.1581 AL 2.38 WI 22.0 MW  1.8 3
 SPEC BENVHH N T 739 8 K 0.020 GD 64.9 VS 3.20 DE 2.60 Q0 65.0 QA 1.10 Q1 1.00 3
 SPEC BAUVHH E MO 12.5 ST  2.6 OM  1.5 f0 6.60 R0.1794 AL 1.77 WI 24.7 MW  2.3 3
 SPEC BAUVHH E T 73928 K 0.020 GD  119 VS 3.20 DE 2.60 Q0 65.0 QA 1.10 Q1 1.00 3
 ACTION:UP  19-01-05 04:58 OP:elv  STATUS:               ID:20190105073700     I
 OLDACT:UP  19-01-05 04:58 OP:elv  STATUS:               ID:20190105073700     3
 OLDACT:UP  19-01-05 04:58 OP:elv  STATUS:               ID:20190105073700     3
 OLDACT:UP  19-01-05 04:57 OP:elv  STATUS:               ID:20190105073700     3
 OLDACT:UP  19-01-05 04:55 OP:elv  STATUS:               ID:20190105073700     3
 OLDACT:REG 19-01-05 04:55 OP:elv  STATUS:               ID:20190105073700     3
 2019-01-05-0737-00S.MAN___119                                                 6
 STAT SP IPHASW D HRMM SECON CODA AMPLIT PERI AZIMU VELO AIN AR TRES W  DIS CAZ7
 MAPV HZ EP        738 58.42                              92   -0.5210 58.5 219 
 MAPV HN ES        739  6.70                              92    0.1710 58.5 219 
 BENV HZ EP        739  0.06                              93   -0.0010 64.9 118 
 BENV HN ES        739  8.69                              93    0.2010 64.9 118 
 TACV HZ EP        739  8.97                              65   -0.0310  120  95 
 TACV HN ES        739 23.92                              65   -0.1210  120  95 
 TERV HZ EP        739  9.32                              65    0.1710  121 255 
 TERV HE ES        739 24.37                              65    0.0610  121 255 
 BAUV HZ EP        739 12.88                              65    0.2110  144 177 
 BAUV HE ES        739 30.29                              65   -0.1410  144 177 
                                                                                
