 2019  1 1 0344 51.5 L  10.241 -68.175 12.2  FUN  5 0.2 2.0WFUN                1
 SPEC AVERAGE  MO 12.1 ST  2.4 OM  1.2 f0 8.06 R0.1531 AL 1.90 WI 49.9 MW  2.0 3
 SPEC SD       MO  0.3 ST  2.1 OM  0.2 f0 1.66 R0.0311 AL      WI      MW  0.2 3
 GAP=200        0.51       2.8     1.0  2.8 -0.9722E+00 -0.4740E+00  0.3545E+01E
 SPEC TERVHH N MO 12.2 ST0.828 OM  1.2 f0 5.81 R0.2038 AL 0.98 WI 55.9 MW  2.1 3
 SPEC TERVHH N T 34523 K 0.020 GD  112 VS 3.20 DE 2.60 Q0 65.0 QA 1.10 Q1 1.00 3
 SPEC TACVHH N MO 11.8 ST  2.3 OM  0.8 f0 10.8 R0.1096 AL 2.53 WI 17.6 MW  1.8 3
 SPEC TACVHH N T 34527 K 0.020 GD  120 VS 3.20 DE 2.60 Q0 65.0 QA 1.10 Q1 1.00 3
 SPEC MAPVHH N MO 12.0 ST  1.0 OM  1.3 f0 7.24 R0.1635 AL 3.05 WI 44.5 MW  1.9 3
 SPEC MAPVHH N T 345 6 K 0.020 GD 56.2 VS 3.20 DE 2.60 Q0 65.0 QA 1.10 Q1 1.00 3
 SPEC BENVHH N MO 12.0 ST  1.3 OM  1.2 f0 7.78 R0.1522 AL 2.12 WI 57.7 MW  1.9 3
 SPEC BENVHH N T 34512 K 0.020 GD 71.4 VS 3.20 DE 2.60 Q0 65.0 QA 1.10 Q1 1.00 3
 SPEC BAUVHH N MO 12.6 ST  6.5 OM  1.5 f0 8.68 R0.1364 AL 0.84 WI 74.0 MW  2.3 3
 SPEC BAUVHH N T 34531 K 0.020 GD  133 VS 3.20 DE 2.60 Q0 65.0 QA 1.10 Q1 1.00 3
 ACTION:UP  19-01-01 01:39 OP:rms  STATUS:               ID:20190101034200     I
 OLDACT:UP  19-01-01 01:39 OP:rms  STATUS:               ID:20190101034200     3
 OLDACT:UP  19-01-01 01:37 OP:rms  STATUS:               ID:20190101034200     3
 OLDACT:UP  19-01-01 01:35 OP:rms  STATUS:               ID:20190101034200     3
 OLDACT:REG 19-01-01 01:35 OP:rms  STATUS:               ID:20190101034200     3
 2019-01-01-0342-00S.MAN___119                                                 6
 STAT SP IPHASW D HRMM SECON CODA AMPLIT PERI AZIMU VELO AIN AR TRES W  DIS CAZ7
 MAPV HZ EP        345  0.90                              95   -0.0710 54.9 214 
 MAPV HN ES        345  7.88                              95   -0.0810 54.9 214 
 BENV HZ EP        345  3.12                              94   -0.3010 70.3 116 
 BENV HN ES        345 12.49                              94    0.2710 70.3 116 
 TERV HZ EP        345 10.65                              92    0.0610  116 255 
 TERV HN ES        345 24.86                              92    0.1610  116 255 
 TACV HZ EP        345 12.06                              92   -0.2410  126  95 
 TACV HN ES        345 27.85                              92    0.1710  126  95 
 BAUV HZ EP        345 15.19                              49    0.0810  144 174 
 BAUV HN ES        345 32.52                              49   -0.0410  144 174 
 