 2012  326  0 0  1.2 L  45.000  25.000 15.0  TES  2 0.0 0.1LTES 0.5CTES 1.3STES1
 ACTION:ARG 19-10-15 11:34 OP:OBSP STATUS:               ID:20120326000001     I
 DUMMY                                                                         6
 STAT SP IPHASW D HRMM SECON CODA AMPLIT PERI AZIMU VELO AIN AR TRES W  DIS CAZ7
 FOZ  SZ  IAML     0 0  1.68      20.0e8 0.40                                   
 FOZ  SZ IPN    C  0 0  1.68   10                                               
 FOZ  SZ  IAML     0 0  1.68      50.0e8 0.60                                   
 WTSZ B1 ISG  2    0 0  1.72                                  5 0.20   1667  25 
 WTSZ B1 IPN  2A   0 0  1.62                                  5 0.20   1667  25 
                                                                                

