 2018 1127  1 7 53.7 L  10.190 -67.622 12.3  FUN    0.3 1.9WFUN                1
 ACTION:ARG 19-10-14 15:45 OP:OBSP STATUS:               ID:20181127010753     I
 DUMMY                                                                         6
 STAT SP IPHASW D HRMM SECON CODA AMPLIT PERI AZIMU VELO AIN AR TRES W  DIS CAZ7

 2018 1127  129 25.8 L  10.122 -67.528 19.2  FUN    0.4 1.7WFUN                1
 ACTION:ARG 19-10-14 15:45 OP:OBSP STATUS:               ID:20181127012925     I
 DUMMY                                                                         6
 STAT SP IPHASW D HRMM SECON CODA AMPLIT PERI AZIMU VELO AIN AR TRES W  DIS CAZ7

 2018 1127  130 55.8 L  10.141 -67.592 15.3  FUN    0.5 2.2WFUN                1
 ACTION:ARG 19-10-14 15:45 OP:OBSP STATUS:               ID:20181127013055     I
 DUMMY                                                                         6
 STAT SP IPHASW D HRMM SECON CODA AMPLIT PERI AZIMU VELO AIN AR TRES W  DIS CAZ7

 2018 1128 1535 38.2 L  10.832 -68.953  4.0  FUN    0.6 2.3WFUN                1
 ACTION:ARG 19-10-14 15:45 OP:OBSP STATUS:               ID:20181128153538     I
 DUMMY                                                                         6
 STAT SP IPHASW D HRMM SECON CODA AMPLIT PERI AZIMU VELO AIN AR TRES W  DIS CAZ7

 2018 1128 2110 58.5 L  10.670 -68.842  9.1  FUN    0.3 2.2WFUN                1
 ACTION:ARG 19-10-14 15:45 OP:OBSP STATUS:               ID:20181128211058     I
 DUMMY                                                                         6
 STAT SP IPHASW D HRMM SECON CODA AMPLIT PERI AZIMU VELO AIN AR TRES W  DIS CAZ7

 2018 12 5  933  3.2 L  10.350 -68.671  4.8  FUN    0.7 4.6WFUN                1
 ACTION:ARG 19-10-14 15:45 OP:OBSP STATUS:               ID:20181205093303     I
 DUMMY                                                                         6
 STAT SP IPHASW D HRMM SECON CODA AMPLIT PERI AZIMU VELO AIN AR TRES W  DIS CAZ7

 2018 12 5  933  3.0 L  10.395 -68.735  6.4  FUN    0.5 4.9WFUN                1
 ACTION:ARG 19-10-14 15:45 OP:OBSP STATUS:               ID:20181205093303     I
 DUMMY                                                                         6
 STAT SP IPHASW D HRMM SECON CODA AMPLIT PERI AZIMU VELO AIN AR TRES W  DIS CAZ7

 2018 12 7  0 9 41.4 L  10.111 -67.982  1.8  FUN    0.1 1.9WFUN                1
 ACTION:ARG 19-10-14 15:45 OP:OBSP STATUS:               ID:20181207000941     I
 DUMMY                                                                         6
 STAT SP IPHASW D HRMM SECON CODA AMPLIT PERI AZIMU VELO AIN AR TRES W  DIS CAZ7

 2018 1212  920 37.5 L   9.807 -68.674  5.0  FUN    0.8 2.4WFUN                1
 ACTION:ARG 19-10-14 15:45 OP:OBSP STATUS:               ID:20181212092037     I
 DUMMY                                                                         6
 STAT SP IPHASW D HRMM SECON CODA AMPLIT PERI AZIMU VELO AIN AR TRES W  DIS CAZ7

 2018 1215 1121 31.0 L   9.845 -68.869  5.0  FUN    0.7 2.4WFUN                1
 ACTION:ARG 19-10-14 15:45 OP:OBSP STATUS:               ID:20181215112131     I
 DUMMY                                                                         6
 STAT SP IPHASW D HRMM SECON CODA AMPLIT PERI AZIMU VELO AIN AR TRES W  DIS CAZ7

 2018 1216 1753 24.1 L  10.537 -68.848  2.0  FUN    0.5 3.1WFUN                1
 ACTION:ARG 19-10-14 15:45 OP:OBSP STATUS:               ID:20181216175324     I
 DUMMY                                                                         6
 STAT SP IPHASW D HRMM SECON CODA AMPLIT PERI AZIMU VELO AIN AR TRES W  DIS CAZ7

 2018 1216 1758  1.2 L  10.539 -68.823  4.9  FUN    0.5 2.8WFUN                1
 ACTION:ARG 19-10-14 15:45 OP:OBSP STATUS:               ID:20181216175801     I
 DUMMY                                                                         6
 STAT SP IPHASW D HRMM SECON CODA AMPLIT PERI AZIMU VELO AIN AR TRES W  DIS CAZ7

 2018 1222 1358  4.8 L   9.848 -68.985  5.0  FUN    0.8 2.1WFUN                1
 ACTION:ARG 19-10-14 15:45 OP:OBSP STATUS:               ID:20181222135804     I
 DUMMY                                                                         6
 STAT SP IPHASW D HRMM SECON CODA AMPLIT PERI AZIMU VELO AIN AR TRES W  DIS CAZ7

 2018 1222 18 1 34.0 L   9.871 -68.983  5.0  FUN    0.6 3.2WFUN                1
 ACTION:ARG 19-10-14 15:45 OP:OBSP STATUS:               ID:20181222180134     I
 DUMMY                                                                         6
 STAT SP IPHASW D HRMM SECON CODA AMPLIT PERI AZIMU VELO AIN AR TRES W  DIS CAZ7

 2018 1223 1929 29.9 L   9.844 -68.692  5.0  FUN    0.6 1.8WFUN                1
 ACTION:ARG 19-10-14 15:45 OP:OBSP STATUS:               ID:20181223192929     I
 DUMMY                                                                         6
 STAT SP IPHASW D HRMM SECON CODA AMPLIT PERI AZIMU VELO AIN AR TRES W  DIS CAZ7

 2018 1224 1446  7.4 L  10.556 -67.411  1.9  FUN    0.5 2.3WFUN                1
 ACTION:ARG 19-10-14 15:45 OP:OBSP STATUS:               ID:20181224144607     I
 DUMMY                                                                         6
 STAT SP IPHASW D HRMM SECON CODA AMPLIT PERI AZIMU VELO AIN AR TRES W  DIS CAZ7

 2018 1226  335 22.9 L  10.197 -67.972 21.0  FUN    0.6 2.2WFUN                1
 ACTION:ARG 19-10-14 15:45 OP:OBSP STATUS:               ID:20181226033522     I
 DUMMY                                                                         6
 STAT SP IPHASW D HRMM SECON CODA AMPLIT PERI AZIMU VELO AIN AR TRES W  DIS CAZ7

 2018 1226  424 36.7 L  10.216 -67.963 19.0  FUN    0.5 2.1WFUN                1
 ACTION:ARG 19-10-14 15:45 OP:OBSP STATUS:               ID:20181226042436     I
 DUMMY                                                                         6
 STAT SP IPHASW D HRMM SECON CODA AMPLIT PERI AZIMU VELO AIN AR TRES W  DIS CAZ7

 2018 1226  648 23.6 L  10.173 -68.092  5.0  FUN    0.4 2.0WFUN                1
 ACTION:ARG 19-10-14 15:45 OP:OBSP STATUS:               ID:20181226064823     I
 DUMMY                                                                         6
 STAT SP IPHASW D HRMM SECON CODA AMPLIT PERI AZIMU VELO AIN AR TRES W  DIS CAZ7

 2018 1226  937 56.3 L  10.160 -67.966 10.2  FUN    0.4 2.6WFUN                1
 ACTION:ARG 19-10-14 15:45 OP:OBSP STATUS:               ID:20181226093756     I
 DUMMY                                                                         6
 STAT SP IPHASW D HRMM SECON CODA AMPLIT PERI AZIMU VELO AIN AR TRES W  DIS CAZ7

 2018 1227  859 12.1 L  10.307 -68.057  8.9  FUN    0.9 5.2WFUN                1
 ACTION:ARG 19-10-14 15:45 OP:OBSP STATUS:               ID:20181227085912     I
 DUMMY                                                                         6
 STAT SP IPHASW D HRMM SECON CODA AMPLIT PERI AZIMU VELO AIN AR TRES W  DIS CAZ7

 2018 1227  859 11.5 L  10.259 -68.076  8.9  FUN    0.7 4.9WFUN                1
 ACTION:ARG 19-10-14 15:45 OP:OBSP STATUS:               ID:20181227085911     I
 DUMMY                                                                         6
 STAT SP IPHASW D HRMM SECON CODA AMPLIT PERI AZIMU VELO AIN AR TRES W  DIS CAZ7

 2018 1227  911 49.8 L  10.311 -68.154 12.5  FUN    0.7 2.7WFUN                1
 ACTION:ARG 19-10-14 15:45 OP:OBSP STATUS:               ID:20181227091149     I
 DUMMY                                                                         6
 STAT SP IPHASW D HRMM SECON CODA AMPLIT PERI AZIMU VELO AIN AR TRES W  DIS CAZ7

 2018 1227  912 59.9 L  10.252 -68.117 13.8  FUN    0.4 3.9WFUN                1
 ACTION:ARG 19-10-14 15:45 OP:OBSP STATUS:               ID:20181227091259     I
 DUMMY                                                                         6
 STAT SP IPHASW D HRMM SECON CODA AMPLIT PERI AZIMU VELO AIN AR TRES W  DIS CAZ7

 2018 1227  917 10.3 L  10.269 -68.059  5.0  FUN    0.7 2.8WFUN                1
 ACTION:ARG 19-10-14 15:45 OP:OBSP STATUS:               ID:20181227091710     I
 DUMMY                                                                         6
 STAT SP IPHASW D HRMM SECON CODA AMPLIT PERI AZIMU VELO AIN AR TRES W  DIS CAZ7

 2018 1227  920 51.7 L  10.297 -68.107  5.0  FUN    0.6 3.9WFUN                1
 ACTION:ARG 19-10-14 15:45 OP:OBSP STATUS:               ID:20181227092051     I
 DUMMY                                                                         6
 STAT SP IPHASW D HRMM SECON CODA AMPLIT PERI AZIMU VELO AIN AR TRES W  DIS CAZ7

 2018 1227  923 14.0 L  10.240 -68.145  8.3  FUN    0.2                        1
 ACTION:ARG 19-10-14 15:45 OP:OBSP STATUS:               ID:20181227092314     I
 DUMMY                                                                         6
 STAT SP IPHASW D HRMM SECON CODA AMPLIT PERI AZIMU VELO AIN AR TRES W  DIS CAZ7

 2018 1227  924 21.2 L  10.217 -68.099  9.0  FUN    0.5 4.3WFUN                1
 ACTION:ARG 19-10-14 15:45 OP:OBSP STATUS:               ID:20181227092421     I
 DUMMY                                                                         6
 STAT SP IPHASW D HRMM SECON CODA AMPLIT PERI AZIMU VELO AIN AR TRES W  DIS CAZ7

 2018 1227  933 19.8 L  10.297 -68.142 15.6  FUN    0.4 2.7WFUN                1
 ACTION:ARG 19-10-14 15:45 OP:OBSP STATUS:               ID:20181227093319     I
 DUMMY                                                                         6
 STAT SP IPHASW D HRMM SECON CODA AMPLIT PERI AZIMU VELO AIN AR TRES W  DIS CAZ7

 2018 1227  934 42.3 L  10.332 -68.100 18.4  FUN    0.4 2.7WFUN                1
 ACTION:ARG 19-10-14 15:45 OP:OBSP STATUS:               ID:20181227093442     I
 DUMMY                                                                         6
 STAT SP IPHASW D HRMM SECON CODA AMPLIT PERI AZIMU VELO AIN AR TRES W  DIS CAZ7

 2018 1227  936 20.6 L  10.238 -68.222 23.6  FUN    0.4                        1
 ACTION:ARG 19-10-14 15:45 OP:OBSP STATUS:               ID:20181227093620     I
 DUMMY                                                                         6
 STAT SP IPHASW D HRMM SECON CODA AMPLIT PERI AZIMU VELO AIN AR TRES W  DIS CAZ7

 2018 1227  938 23.7 L  10.244 -68.108  2.5  FUN    0.4 3.1WFUN                1
 ACTION:ARG 19-10-14 15:45 OP:OBSP STATUS:               ID:20181227093823     I
 DUMMY                                                                         6
 STAT SP IPHASW D HRMM SECON CODA AMPLIT PERI AZIMU VELO AIN AR TRES W  DIS CAZ7

 2018 1227  940 47.6 L  10.303 -68.074  2.7  FUN    0.4 2.9WFUN                1
 ACTION:ARG 19-10-14 15:45 OP:OBSP STATUS:               ID:20181227094047     I
 DUMMY                                                                         6
 STAT SP IPHASW D HRMM SECON CODA AMPLIT PERI AZIMU VELO AIN AR TRES W  DIS CAZ7

 2018 1227 10 7 28.8 L  10.289 -68.090  5.0  FUN    0.8 3.1WFUN                1
 ACTION:ARG 19-10-14 15:45 OP:OBSP STATUS:               ID:20181227100728     I
 DUMMY                                                                         6
 STAT SP IPHASW D HRMM SECON CODA AMPLIT PERI AZIMU VELO AIN AR TRES W  DIS CAZ7

 2018 1227 10 9 49.3 L  10.317 -68.099  2.0  FUN    0.6 3.3WFUN                1
 ACTION:ARG 19-10-14 15:45 OP:OBSP STATUS:               ID:20181227100949     I
 DUMMY                                                                         6
 STAT SP IPHASW D HRMM SECON CODA AMPLIT PERI AZIMU VELO AIN AR TRES W  DIS CAZ7

 2018 1227 1015 11.4 L  10.211 -68.104 23.6  FUN    0.7 2.1WFUN                1
 ACTION:ARG 19-10-14 15:45 OP:OBSP STATUS:               ID:20181227101511     I
 DUMMY                                                                         6
 STAT SP IPHASW D HRMM SECON CODA AMPLIT PERI AZIMU VELO AIN AR TRES W  DIS CAZ7

 2018 1227 1020 42.5 L  10.100 -68.084  1.1  FUN    0.5 1.9WFUN                1
 ACTION:ARG 19-10-14 15:45 OP:OBSP STATUS:               ID:20181227102042     I
 DUMMY                                                                         6
 STAT SP IPHASW D HRMM SECON CODA AMPLIT PERI AZIMU VELO AIN AR TRES W  DIS CAZ7

 2018 1227 1028  4.4 L  10.317 -68.138 18.3  FUN    0.4 2.6WFUN                1
 ACTION:ARG 19-10-14 15:45 OP:OBSP STATUS:               ID:20181227102804     I
 DUMMY                                                                         6
 STAT SP IPHASW D HRMM SECON CODA AMPLIT PERI AZIMU VELO AIN AR TRES W  DIS CAZ7

 2018 1227 1029 51.4 L  10.124 -68.152 28.4  FUN    0.1 2.1WFUN                1
 ACTION:ARG 19-10-14 15:45 OP:OBSP STATUS:               ID:20181227102951     I
 DUMMY                                                                         6
 STAT SP IPHASW D HRMM SECON CODA AMPLIT PERI AZIMU VELO AIN AR TRES W  DIS CAZ7

 2018 1227 1032 13.8 L  10.214 -68.168 21.8  FUN    0.5 2.0WFUN                1
 ACTION:ARG 19-10-14 15:45 OP:OBSP STATUS:               ID:20181227103213     I
 DUMMY                                                                         6
 STAT SP IPHASW D HRMM SECON CODA AMPLIT PERI AZIMU VELO AIN AR TRES W  DIS CAZ7

 2018 1227 1033 20.6 L  10.256 -68.119  9.7  FUN    0.4 2.2WFUN                1
 ACTION:ARG 19-10-14 15:45 OP:OBSP STATUS:               ID:20181227103320     I
 DUMMY                                                                         6
 STAT SP IPHASW D HRMM SECON CODA AMPLIT PERI AZIMU VELO AIN AR TRES W  DIS CAZ7

 2018 1227 1036  0.9 L  10.288 -68.142 18.6  FUN    0.2 1.7WFUN                1
 ACTION:ARG 19-10-14 15:45 OP:OBSP STATUS:               ID:20181227103600     I
 DUMMY                                                                         6
 STAT SP IPHASW D HRMM SECON CODA AMPLIT PERI AZIMU VELO AIN AR TRES W  DIS CAZ7

 2018 1227 1048  1.1 L  10.269 -68.096 18.5  FUN    0.4 2.5WFUN                1
 ACTION:ARG 19-10-14 15:45 OP:OBSP STATUS:               ID:20181227104801     I
 DUMMY                                                                         6
 STAT SP IPHASW D HRMM SECON CODA AMPLIT PERI AZIMU VELO AIN AR TRES W  DIS CAZ7

 2018 1227 1048 30.8 L  10.225 -68.111  2.1  FUN    0.6 3.5WFUN                1
 ACTION:ARG 19-10-14 15:45 OP:OBSP STATUS:               ID:20181227104830     I
 DUMMY                                                                         6
 STAT SP IPHASW D HRMM SECON CODA AMPLIT PERI AZIMU VELO AIN AR TRES W  DIS CAZ7

 2018 1227 1052  5.4 L  10.204 -68.195 23.4  FUN    0.5 2.6WFUN                1
 ACTION:ARG 19-10-14 15:45 OP:OBSP STATUS:               ID:20181227105205     I
 DUMMY                                                                         6
 STAT SP IPHASW D HRMM SECON CODA AMPLIT PERI AZIMU VELO AIN AR TRES W  DIS CAZ7

 2018 1227 1056 57.1 L  10.240 -68.133 16.1  FUN    0.4 2.4WFUN                1
 ACTION:ARG 19-10-14 15:45 OP:OBSP STATUS:               ID:20181227105657     I
 DUMMY                                                                         6
 STAT SP IPHASW D HRMM SECON CODA AMPLIT PERI AZIMU VELO AIN AR TRES W  DIS CAZ7

 2018 1227 11 0 26.2 L  10.296 -68.158 13.1  FUN    0.5 3.0WFUN                1
 ACTION:ARG 19-10-14 15:45 OP:OBSP STATUS:               ID:20181227110026     I
 DUMMY                                                                         6
 STAT SP IPHASW D HRMM SECON CODA AMPLIT PERI AZIMU VELO AIN AR TRES W  DIS CAZ7

 2018 1227 1111 22.9 L  10.370 -68.395 24.7  FUN    0.3 2.6WFUN                1
 ACTION:ARG 19-10-14 15:45 OP:OBSP STATUS:               ID:20181227111122     I
 DUMMY                                                                         6
 STAT SP IPHASW D HRMM SECON CODA AMPLIT PERI AZIMU VELO AIN AR TRES W  DIS CAZ7

 2018 1227 1125 51.2 L  10.312 -68.217 19.5  FUN    0.4 2.2WFUN                1
 ACTION:ARG 19-10-14 15:45 OP:OBSP STATUS:               ID:20181227112551     I
 DUMMY                                                                         6
 STAT SP IPHASW D HRMM SECON CODA AMPLIT PERI AZIMU VELO AIN AR TRES W  DIS CAZ7

 2018 1227 1126 20.7 L  10.234 -68.076  2.8  FUN    0.8 3.1WFUN                1
 ACTION:ARG 19-10-14 15:45 OP:OBSP STATUS:               ID:20181227112620     I
 DUMMY                                                                         6
 STAT SP IPHASW D HRMM SECON CODA AMPLIT PERI AZIMU VELO AIN AR TRES W  DIS CAZ7

 2018 1227 1137 12.4 L  10.223 -68.108  5.0  FUN    0.4 2.6WFUN                1
 ACTION:ARG 19-10-14 15:45 OP:OBSP STATUS:               ID:20181227113712     I
 DUMMY                                                                         6
 STAT SP IPHASW D HRMM SECON CODA AMPLIT PERI AZIMU VELO AIN AR TRES W  DIS CAZ7

 2018 1227 1141 22.7 L  10.226 -68.136 13.5  FUN    0.2 2.1WFUN                1
 ACTION:ARG 19-10-14 15:45 OP:OBSP STATUS:               ID:20181227114122     I
 DUMMY                                                                         6
 STAT SP IPHASW D HRMM SECON CODA AMPLIT PERI AZIMU VELO AIN AR TRES W  DIS CAZ7

 2018 1227 1147 16.4 L  10.278 -68.086  9.3  FUN    0.5 2.2WFUN                1
 ACTION:ARG 19-10-14 15:45 OP:OBSP STATUS:               ID:20181227114716     I
 DUMMY                                                                         6
 STAT SP IPHASW D HRMM SECON CODA AMPLIT PERI AZIMU VELO AIN AR TRES W  DIS CAZ7

 2018 1227 1153 25.1 L  10.230 -68.146 17.7  FUN    0.6 2.2WFUN                1
 ACTION:ARG 19-10-14 15:45 OP:OBSP STATUS:               ID:20181227115325     I
 DUMMY                                                                         6
 STAT SP IPHASW D HRMM SECON CODA AMPLIT PERI AZIMU VELO AIN AR TRES W  DIS CAZ7

 2018 1227 1155 17.6 L  10.296 -68.161 14.8  FUN    0.4 2.3WFUN                1
 ACTION:ARG 19-10-14 15:45 OP:OBSP STATUS:               ID:20181227115517     I
 DUMMY                                                                         6
 STAT SP IPHASW D HRMM SECON CODA AMPLIT PERI AZIMU VELO AIN AR TRES W  DIS CAZ7

 2018 1227 1159  4.9 L  10.266 -67.990  5.0  FUN    0.9 2.3WFUN                1
 ACTION:ARG 19-10-14 15:45 OP:OBSP STATUS:               ID:20181227115904     I
 DUMMY                                                                         6
 STAT SP IPHASW D HRMM SECON CODA AMPLIT PERI AZIMU VELO AIN AR TRES W  DIS CAZ7

 2018 1227 12 2 39.7 L  10.202 -68.137 15.2  FUN    0.3 2.4WFUN                1
 ACTION:ARG 19-10-14 15:45 OP:OBSP STATUS:               ID:20181227120239     I
 DUMMY                                                                         6
 STAT SP IPHASW D HRMM SECON CODA AMPLIT PERI AZIMU VELO AIN AR TRES W  DIS CAZ7

 2018 1227 12 5 29.1 L  10.367 -68.156  5.9  FUN    0.7 2.1WFUN                1
 ACTION:ARG 19-10-14 15:45 OP:OBSP STATUS:               ID:20181227120529     I
 DUMMY                                                                         6
 STAT SP IPHASW D HRMM SECON CODA AMPLIT PERI AZIMU VELO AIN AR TRES W  DIS CAZ7

 2018 1227 1221 55.5 L  10.224 -68.083 14.0  FUN    0.1 2.0WFUN                1
 ACTION:ARG 19-10-14 15:45 OP:OBSP STATUS:               ID:20181227122155     I
 DUMMY                                                                         6
 STAT SP IPHASW D HRMM SECON CODA AMPLIT PERI AZIMU VELO AIN AR TRES W  DIS CAZ7

 2018 1227 1222 44.1 L  10.159 -68.081  2.4  FUN    0.3 2.2WFUN                1
 ACTION:ARG 19-10-14 15:45 OP:OBSP STATUS:               ID:20181227122244     I
 DUMMY                                                                         6
 STAT SP IPHASW D HRMM SECON CODA AMPLIT PERI AZIMU VELO AIN AR TRES W  DIS CAZ7

 2018 1227 1225 18.1 L  10.240 -68.146  7.8  FUN    0.3 2.5WFUN                1
 ACTION:ARG 19-10-14 15:45 OP:OBSP STATUS:               ID:20181227122518     I
 DUMMY                                                                         6
 STAT SP IPHASW D HRMM SECON CODA AMPLIT PERI AZIMU VELO AIN AR TRES W  DIS CAZ7

