 2018  424  357 18.9 L  10.224 -67.230  9.9  FUN  5 0.6 3.0WFUN                1
 ACTION:ARG 19-10-14 15:45 OP:OBSP STATUS:               ID:20180424035718     I
 DUMMY                                                                         6
 STAT SP IPHASW D HRMM SECON CODA AMPLIT PERI AZIMU VELO AIN AR TRES W  DIS CAZ7
 TACV HZ IP     D  357 23.10                                   -0.39   24.2 113 
 BENV HZ EP     D  357 27.92                                    0.38   49.7 234 
 TURV HZ IP     D  357 30.47                                   -0.45   71.3 291 
 MAPV HZ EP        357 42.30                                    0.23    141 252 
 BAUV HZ EP        357 45.43                                   -0.09    167 212 
                                                                                

 2018  424  522  4.1 L  10.264 -67.216 15.3  FUN    0.4 1.9WFUN                1
 ACTION:ARG 19-10-14 15:45 OP:OBSP STATUS:               ID:20180424052204     I
 DUMMY                                                                         6
 STAT SP IPHASW D HRMM SECON CODA AMPLIT PERI AZIMU VELO AIN AR TRES W  DIS CAZ7

 2018  426 1750 17.7 L  10.349 -68.151 14.3  FUN    0.5 2.4WFUN                1
 ACTION:ARG 19-10-14 15:45 OP:OBSP STATUS:               ID:20180426175017     I
 DUMMY                                                                         6
 STAT SP IPHASW D HRMM SECON CODA AMPLIT PERI AZIMU VELO AIN AR TRES W  DIS CAZ7

 2018  427  837 29.4 L  10.285 -67.982  5.4  FUN    0.2 1.7WFUN                1
 ACTION:ARG 19-10-14 15:45 OP:OBSP STATUS:               ID:20180427083729     I
 DUMMY                                                                         6
 STAT SP IPHASW D HRMM SECON CODA AMPLIT PERI AZIMU VELO AIN AR TRES W  DIS CAZ7

 2018  427  840 52.0 L  10.312 -68.085  5.0  FUN    0.2 2.7WFUN                1
 ACTION:ARG 19-10-14 15:45 OP:OBSP STATUS:               ID:20180427084052     I
 DUMMY                                                                         6
 STAT SP IPHASW D HRMM SECON CODA AMPLIT PERI AZIMU VELO AIN AR TRES W  DIS CAZ7

 2018  427  844 50.4 L  10.349 -68.069  9.0  FUN    0.8 4.6WFUN                1
 ACTION:ARG 19-10-14 15:45 OP:OBSP STATUS:               ID:20180427084450     I
 DUMMY                                                                         6
 STAT SP IPHASW D HRMM SECON CODA AMPLIT PERI AZIMU VELO AIN AR TRES W  DIS CAZ7

 2018  427  851 46.8 L  10.280 -68.080  3.8  FUN    0.4 3.2WFUN                1
 ACTION:ARG 19-10-14 15:45 OP:OBSP STATUS:               ID:20180427085146     I
 DUMMY                                                                         6
 STAT SP IPHASW D HRMM SECON CODA AMPLIT PERI AZIMU VELO AIN AR TRES W  DIS CAZ7

 2018  427  855 34.8 L  10.348 -68.091 15.5  FUN    0.4 2.6WFUN                1
 ACTION:ARG 19-10-14 15:45 OP:OBSP STATUS:               ID:20180427085534     I
 DUMMY                                                                         6
 STAT SP IPHASW D HRMM SECON CODA AMPLIT PERI AZIMU VELO AIN AR TRES W  DIS CAZ7

 2018  427  9 3 29.7 L  10.357 -68.090 21.0  FUN    0.3 2.3WFUN                1
 ACTION:ARG 19-10-14 15:45 OP:OBSP STATUS:               ID:20180427090329     I
 DUMMY                                                                         6
 STAT SP IPHASW D HRMM SECON CODA AMPLIT PERI AZIMU VELO AIN AR TRES W  DIS CAZ7

 2018  427  9 8 40.0 L  10.344 -68.023 23.4  FUN    0.0 1.8WFUN                1
 ACTION:ARG 19-10-14 15:45 OP:OBSP STATUS:               ID:20180427090840     I
 DUMMY                                                                         6
 STAT SP IPHASW D HRMM SECON CODA AMPLIT PERI AZIMU VELO AIN AR TRES W  DIS CAZ7

 2018  427  910 22.8 L  10.335 -68.117 17.2  FUN    0.3 2.2WFUN                1
 ACTION:ARG 19-10-14 15:45 OP:OBSP STATUS:               ID:20180427091022     I
 DUMMY                                                                         6
 STAT SP IPHASW D HRMM SECON CODA AMPLIT PERI AZIMU VELO AIN AR TRES W  DIS CAZ7

 2018  427  911 53.1 L  10.321 -68.148 18.5  FUN    0.4 2.2WFUN                1
 ACTION:ARG 19-10-14 15:45 OP:OBSP STATUS:               ID:20180427091153     I
 DUMMY                                                                         6
 STAT SP IPHASW D HRMM SECON CODA AMPLIT PERI AZIMU VELO AIN AR TRES W  DIS CAZ7

 2018  427  916 22.9 L  10.367 -68.157 18.9  FUN    0.3 2.2WFUN                1
 ACTION:ARG 19-10-14 15:45 OP:OBSP STATUS:               ID:20180427091622     I
 DUMMY                                                                         6
 STAT SP IPHASW D HRMM SECON CODA AMPLIT PERI AZIMU VELO AIN AR TRES W  DIS CAZ7

 2018  427  931 31.4 L  10.333 -68.129 19.6  FUN    0.2 2.0WFUN                1
 ACTION:ARG 19-10-14 15:45 OP:OBSP STATUS:               ID:20180427093131     I
 DUMMY                                                                         6
 STAT SP IPHASW D HRMM SECON CODA AMPLIT PERI AZIMU VELO AIN AR TRES W  DIS CAZ7

 2018  427  933 12.5 L  10.334 -68.008 30.0  FUN    0.4 1.9WFUN                1
 ACTION:ARG 19-10-14 15:45 OP:OBSP STATUS:               ID:20180427093312     I
 DUMMY                                                                         6
 STAT SP IPHASW D HRMM SECON CODA AMPLIT PERI AZIMU VELO AIN AR TRES W  DIS CAZ7

 2018  427  934 57.4 L  10.303 -68.078  6.8  FUN    0.2 2.1WFUN                1
 ACTION:ARG 19-10-14 15:45 OP:OBSP STATUS:               ID:20180427093457     I
 DUMMY                                                                         6
 STAT SP IPHASW D HRMM SECON CODA AMPLIT PERI AZIMU VELO AIN AR TRES W  DIS CAZ7

 2018  427  937 29.6 L  10.336 -68.096 24.4  FUN    0.4 1.9WFUN                1
 ACTION:ARG 19-10-14 15:45 OP:OBSP STATUS:               ID:20180427093729     I
 DUMMY                                                                         6
 STAT SP IPHASW D HRMM SECON CODA AMPLIT PERI AZIMU VELO AIN AR TRES W  DIS CAZ7

 2018  427  938 13.7 L  10.337 -68.135 17.2  FUN    0.5 2.1WFUN                1
 ACTION:ARG 19-10-14 15:45 OP:OBSP STATUS:               ID:20180427093813     I
 DUMMY                                                                         6
 STAT SP IPHASW D HRMM SECON CODA AMPLIT PERI AZIMU VELO AIN AR TRES W  DIS CAZ7

 2018  427  940 38.8 L  10.266 -68.069 20.6  FUN    0.2 2.3WFUN                1
 ACTION:ARG 19-10-14 15:45 OP:OBSP STATUS:               ID:20180427094038     I
 DUMMY                                                                         6
 STAT SP IPHASW D HRMM SECON CODA AMPLIT PERI AZIMU VELO AIN AR TRES W  DIS CAZ7

 2018  427 10 0 13.5 L  10.247 -68.102  9.8  FUN    0.2 2.5WFUN                1
 ACTION:ARG 19-10-14 15:45 OP:OBSP STATUS:               ID:20180427100013     I
 DUMMY                                                                         6
 STAT SP IPHASW D HRMM SECON CODA AMPLIT PERI AZIMU VELO AIN AR TRES W  DIS CAZ7

 2018  427 1113 58.5 L  10.267 -68.054  8.0  FUN    0.5 2.4WFUN                1
 ACTION:ARG 19-10-14 15:45 OP:OBSP STATUS:               ID:20180427111358     I
 DUMMY                                                                         6
 STAT SP IPHASW D HRMM SECON CODA AMPLIT PERI AZIMU VELO AIN AR TRES W  DIS CAZ7

 2018  427 1114 21.6 L  10.327 -68.137 17.1  FUN    0.2 2.5WFUN                1
 ACTION:ARG 19-10-14 15:45 OP:OBSP STATUS:               ID:20180427111421     I
 DUMMY                                                                         6
 STAT SP IPHASW D HRMM SECON CODA AMPLIT PERI AZIMU VELO AIN AR TRES W  DIS CAZ7

 2018  427 1146 45.7 L  10.203 -68.040  5.0  FUN    0.6 1.7WFUN                1
 ACTION:ARG 19-10-14 15:45 OP:OBSP STATUS:               ID:20180427114645     I
 DUMMY                                                                         6
 STAT SP IPHASW D HRMM SECON CODA AMPLIT PERI AZIMU VELO AIN AR TRES W  DIS CAZ7

 2018  427 12 7 14.8 L  10.292 -68.068 15.5  FUN    0.4 2.3WFUN                1
 ACTION:ARG 19-10-14 15:45 OP:OBSP STATUS:               ID:20180427120714     I
 DUMMY                                                                         6
 STAT SP IPHASW D HRMM SECON CODA AMPLIT PERI AZIMU VELO AIN AR TRES W  DIS CAZ7

 2018  427 1230 25.4 L  10.413 -67.988 29.9  FUN    0.1 1.8WFUN                1
 ACTION:ARG 19-10-14 15:45 OP:OBSP STATUS:               ID:20180427123025     I
 DUMMY                                                                         6
 STAT SP IPHASW D HRMM SECON CODA AMPLIT PERI AZIMU VELO AIN AR TRES W  DIS CAZ7

 2018  427 1231 12.4 L  10.331 -67.627 24.0  FUN    0.3 1.9WFUN                1
 ACTION:ARG 19-10-14 15:45 OP:OBSP STATUS:               ID:20180427123112     I
 DUMMY                                                                         6
 STAT SP IPHASW D HRMM SECON CODA AMPLIT PERI AZIMU VELO AIN AR TRES W  DIS CAZ7

 2018  427 1235 28.1 L  10.418 -67.993 40.3  FUN    0.3 1.8WFUN                1
 ACTION:ARG 19-10-14 15:45 OP:OBSP STATUS:               ID:20180427123528     I
 DUMMY                                                                         6
 STAT SP IPHASW D HRMM SECON CODA AMPLIT PERI AZIMU VELO AIN AR TRES W  DIS CAZ7

 2018  427 13 2 39.8 L  10.334 -68.112 17.8  FUN    0.4 2.7WFUN                1
 ACTION:ARG 19-10-14 15:45 OP:OBSP STATUS:               ID:20180427130239     I
 DUMMY                                                                         6
 STAT SP IPHASW D HRMM SECON CODA AMPLIT PERI AZIMU VELO AIN AR TRES W  DIS CAZ7

 2018  427 1359  9.1 L  10.350 -68.038 23.9  FUN    0.3 2.2WFUN                1
 ACTION:ARG 19-10-14 15:45 OP:OBSP STATUS:               ID:20180427135909     I
 DUMMY                                                                         6
 STAT SP IPHASW D HRMM SECON CODA AMPLIT PERI AZIMU VELO AIN AR TRES W  DIS CAZ7

 2018  427 1425 30.9 L  10.341 -68.128 12.7  FUN    0.3 2.3WFUN                1
 ACTION:ARG 19-10-14 15:45 OP:OBSP STATUS:               ID:20180427142530     I
 DUMMY                                                                         6
 STAT SP IPHASW D HRMM SECON CODA AMPLIT PERI AZIMU VELO AIN AR TRES W  DIS CAZ7

 2018  427 1542 46.0 L  10.298 -68.110 11.3  FUN    0.4 2.1WFUN                1
 ACTION:ARG 19-10-14 15:45 OP:OBSP STATUS:               ID:20180427154246     I
 DUMMY                                                                         6
 STAT SP IPHASW D HRMM SECON CODA AMPLIT PERI AZIMU VELO AIN AR TRES W  DIS CAZ7

 2018  427 1629 27.9 L  10.314 -68.104 21.6  FUN    0.3 2.0WFUN                1
 ACTION:ARG 19-10-14 15:45 OP:OBSP STATUS:               ID:20180427162927     I
 DUMMY                                                                         6
 STAT SP IPHASW D HRMM SECON CODA AMPLIT PERI AZIMU VELO AIN AR TRES W  DIS CAZ7

 2018  427 1712 57.7 L  10.343 -68.114 13.1  FUN    0.2 2.2WFUN                1
 ACTION:ARG 19-10-14 15:45 OP:OBSP STATUS:               ID:20180427171257     I
 DUMMY                                                                         6
 STAT SP IPHASW D HRMM SECON CODA AMPLIT PERI AZIMU VELO AIN AR TRES W  DIS CAZ7

 2018  427 1845 23.9 L  10.272 -68.154  2.9  FUN    0.4 2.6WFUN                1
 ACTION:ARG 19-10-14 15:45 OP:OBSP STATUS:               ID:20180427184523     I
 DUMMY                                                                         6
 STAT SP IPHASW D HRMM SECON CODA AMPLIT PERI AZIMU VELO AIN AR TRES W  DIS CAZ7

 2018  427 2045 51.9 L  10.389 -68.139 15.5  FUN    0.3 1.5WFUN                1
 ACTION:ARG 19-10-14 15:45 OP:OBSP STATUS:               ID:20180427204551     I
 DUMMY                                                                         6
 STAT SP IPHASW D HRMM SECON CODA AMPLIT PERI AZIMU VELO AIN AR TRES W  DIS CAZ7

 2018  428  1 0 53.3 L  10.316 -68.101 30.7  FUN    0.6 1.7WFUN                1
 ACTION:ARG 19-10-14 15:45 OP:OBSP STATUS:               ID:20180428010053     I
 DUMMY                                                                         6
 STAT SP IPHASW D HRMM SECON CODA AMPLIT PERI AZIMU VELO AIN AR TRES W  DIS CAZ7

 2018  428  115 47.5 L  10.324 -68.132 14.5  FUN    0.2 1.9WFUN                1
 ACTION:ARG 19-10-14 15:45 OP:OBSP STATUS:               ID:20180428011547     I
 DUMMY                                                                         6
 STAT SP IPHASW D HRMM SECON CODA AMPLIT PERI AZIMU VELO AIN AR TRES W  DIS CAZ7

 2018  428  117 45.5 L  10.354 -68.135 16.5  FUN    0.5 1.9WFUN                1
 ACTION:ARG 19-10-14 15:45 OP:OBSP STATUS:               ID:20180428011745     I
 DUMMY                                                                         6
 STAT SP IPHASW D HRMM SECON CODA AMPLIT PERI AZIMU VELO AIN AR TRES W  DIS CAZ7

 2018  428  136 26.6 L  11.137 -68.193 14.9  FUN    0.4 2.1WFUN                1
 ACTION:ARG 19-10-14 15:45 OP:OBSP STATUS:               ID:20180428013626     I
 DUMMY                                                                         6
 STAT SP IPHASW D HRMM SECON CODA AMPLIT PERI AZIMU VELO AIN AR TRES W  DIS CAZ7

 2018  428  141  1.6 L  10.276 -68.106  7.3  FUN    0.4 1.5WFUN                1
 ACTION:ARG 19-10-14 15:45 OP:OBSP STATUS:               ID:20180428014101     I
 DUMMY                                                                         6
 STAT SP IPHASW D HRMM SECON CODA AMPLIT PERI AZIMU VELO AIN AR TRES W  DIS CAZ7

 2018  428  232 50.5 L  10.331 -68.087 16.8  FUN    0.3 2.1WFUN                1
 ACTION:ARG 19-10-14 15:45 OP:OBSP STATUS:               ID:20180428023250     I
 DUMMY                                                                         6
 STAT SP IPHASW D HRMM SECON CODA AMPLIT PERI AZIMU VELO AIN AR TRES W  DIS CAZ7

 2018  428  247  0.8 L  10.252 -68.077  7.9  FUN    0.6 2.6WFUN                1
 ACTION:ARG 19-10-14 15:45 OP:OBSP STATUS:               ID:20180428024700     I
 DUMMY                                                                         6
 STAT SP IPHASW D HRMM SECON CODA AMPLIT PERI AZIMU VELO AIN AR TRES W  DIS CAZ7

 2018  428  414 15.4 L  10.243 -68.016  3.7  FUN    0.8 2.8WFUN                1
 ACTION:ARG 19-10-14 15:45 OP:OBSP STATUS:               ID:20180428041415     I
 DUMMY                                                                         6
 STAT SP IPHASW D HRMM SECON CODA AMPLIT PERI AZIMU VELO AIN AR TRES W  DIS CAZ7

 2018  428  415 52.2 L  10.233 -68.056  3.5  FUN    0.9 2.9WFUN                1
 ACTION:ARG 19-10-14 15:45 OP:OBSP STATUS:               ID:20180428041552     I
 DUMMY                                                                         6
 STAT SP IPHASW D HRMM SECON CODA AMPLIT PERI AZIMU VELO AIN AR TRES W  DIS CAZ7

 2018  428  417 30.0 L  10.247 -68.001  3.1  FUN    0.5 2.8WFUN                1
 ACTION:ARG 19-10-14 15:45 OP:OBSP STATUS:               ID:20180428041730     I
 DUMMY                                                                         6
 STAT SP IPHASW D HRMM SECON CODA AMPLIT PERI AZIMU VELO AIN AR TRES W  DIS CAZ7

 2018  428  418  2.0 L  10.327 -68.146 17.2  FUN    0.2 3.2WFUN                1
 ACTION:ARG 19-10-14 15:45 OP:OBSP STATUS:               ID:20180428041802     I
 DUMMY                                                                         6
 STAT SP IPHASW D HRMM SECON CODA AMPLIT PERI AZIMU VELO AIN AR TRES W  DIS CAZ7

 2018  428  425 49.3 L  10.360 -68.207 10.8  FUN    0.3 2.0WFUN                1
 ACTION:ARG 19-10-14 15:45 OP:OBSP STATUS:               ID:20180428042549     I
 DUMMY                                                                         6
 STAT SP IPHASW D HRMM SECON CODA AMPLIT PERI AZIMU VELO AIN AR TRES W  DIS CAZ7

 2018  428  433  6.3 L  10.340 -68.115 17.3  FUN    0.3 1.9WFUN                1
 ACTION:ARG 19-10-14 15:45 OP:OBSP STATUS:               ID:20180428043306     I
 DUMMY                                                                         6
 STAT SP IPHASW D HRMM SECON CODA AMPLIT PERI AZIMU VELO AIN AR TRES W  DIS CAZ7

 2018  428  457 52.3 L  10.385 -68.131 19.2  FUN    0.4 1.7WFUN                1
 ACTION:ARG 19-10-14 15:45 OP:OBSP STATUS:               ID:20180428045752     I
 DUMMY                                                                         6
 STAT SP IPHASW D HRMM SECON CODA AMPLIT PERI AZIMU VELO AIN AR TRES W  DIS CAZ7

 2018  428  548 32.4 L  10.390 -68.013 33.1  FUN    0.2 1.9WFUN                1
 ACTION:ARG 19-10-14 15:45 OP:OBSP STATUS:               ID:20180428054832     I
 DUMMY                                                                         6
 STAT SP IPHASW D HRMM SECON CODA AMPLIT PERI AZIMU VELO AIN AR TRES W  DIS CAZ7

 2018  428  611 14.8 L  10.386 -68.173 10.1  FUN    0.4 1.7WFUN                1
 ACTION:ARG 19-10-14 15:45 OP:OBSP STATUS:               ID:20180428061114     I
 DUMMY                                                                         6
 STAT SP IPHASW D HRMM SECON CODA AMPLIT PERI AZIMU VELO AIN AR TRES W  DIS CAZ7

 2018  428 13 0 57.8 L  10.284 -68.086  6.7  FUN    0.3 2.2WFUN                1
 ACTION:ARG 19-10-14 15:45 OP:OBSP STATUS:               ID:20180428130057     I
 DUMMY                                                                         6
 STAT SP IPHASW D HRMM SECON CODA AMPLIT PERI AZIMU VELO AIN AR TRES W  DIS CAZ7

 2018  428 1355 55.8 L  10.284 -68.105 12.9  FUN    0.5 2.5WFUN                1
 ACTION:ARG 19-10-14 15:45 OP:OBSP STATUS:               ID:20180428135555     I
 DUMMY                                                                         6
 STAT SP IPHASW D HRMM SECON CODA AMPLIT PERI AZIMU VELO AIN AR TRES W  DIS CAZ7

 2018  428 14 9 20.1 L  10.311 -68.115 11.3  FUN    0.3 1.8WFUN                1
 ACTION:ARG 19-10-14 15:45 OP:OBSP STATUS:               ID:20180428140920     I
 DUMMY                                                                         6
 STAT SP IPHASW D HRMM SECON CODA AMPLIT PERI AZIMU VELO AIN AR TRES W  DIS CAZ7

 2018  428 1431 54.5 L  10.278 -68.063  9.2  FUN    0.1 1.6WFUN                1
 ACTION:ARG 19-10-14 15:45 OP:OBSP STATUS:               ID:20180428143154     I
 DUMMY                                                                         6
 STAT SP IPHASW D HRMM SECON CODA AMPLIT PERI AZIMU VELO AIN AR TRES W  DIS CAZ7

 2018  428 1559 19.1 L  10.313 -68.121 13.3  FUN    0.5 2.0WFUN                1
 ACTION:ARG 19-10-14 15:45 OP:OBSP STATUS:               ID:20180428155919     I
 DUMMY                                                                         6
 STAT SP IPHASW D HRMM SECON CODA AMPLIT PERI AZIMU VELO AIN AR TRES W  DIS CAZ7

 2018  428 17 7 56.5 L  10.288 -68.081  9.2  FUN    0.2 1.9WFUN                1
 ACTION:ARG 19-10-14 15:45 OP:OBSP STATUS:               ID:20180428170756     I
 DUMMY                                                                         6
 STAT SP IPHASW D HRMM SECON CODA AMPLIT PERI AZIMU VELO AIN AR TRES W  DIS CAZ7

 2018  428 18 7 29.8 L  10.276 -68.070 11.1  FUN    0.3 2.1WFUN                1
 ACTION:ARG 19-10-14 15:45 OP:OBSP STATUS:               ID:20180428180729     I
 DUMMY                                                                         6
 STAT SP IPHASW D HRMM SECON CODA AMPLIT PERI AZIMU VELO AIN AR TRES W  DIS CAZ7

 2018  428 1915  1.3 L  10.423 -68.205 14.5  FUN    0.6 1.9WFUN                1
 ACTION:ARG 19-10-14 15:45 OP:OBSP STATUS:               ID:20180428191501     I
 DUMMY                                                                         6
 STAT SP IPHASW D HRMM SECON CODA AMPLIT PERI AZIMU VELO AIN AR TRES W  DIS CAZ7

