 2018  731 1216 49.1 L  10.438 -68.004 30.7  FUN    0.2 1.9WFUN                1
 ACTION:ARG 19-10-14 15:45 OP:OBSP STATUS:               ID:20180731121649     I
 DUMMY                                                                         6
 STAT SP IPHASW D HRMM SECON CODA AMPLIT PERI AZIMU VELO AIN AR TRES W  DIS CAZ7

 2018  8 2 1921  7.5 L   9.940 -67.222  3.3  FUN    0.4 1.9WFUN                1
 ACTION:ARG 19-10-14 15:45 OP:OBSP STATUS:               ID:20180802192107     I
 DUMMY                                                                         6
 STAT SP IPHASW D HRMM SECON CODA AMPLIT PERI AZIMU VELO AIN AR TRES W  DIS CAZ7

 2018  8 7  919 37.8 L  10.226 -68.088 16.8  FUN    0.5 3.1WFUN                1
 ACTION:ARG 19-10-14 15:45 OP:OBSP STATUS:               ID:20180807091937     I
 DUMMY                                                                         6
 STAT SP IPHASW D HRMM SECON CODA AMPLIT PERI AZIMU VELO AIN AR TRES W  DIS CAZ7

 2018  8 7 1436 53.8 L  10.313 -68.119 13.6  FUN    0.5 2.0WFUN                1
 ACTION:ARG 19-10-14 15:45 OP:OBSP STATUS:               ID:20180807143653     I
 DUMMY                                                                         6
 STAT SP IPHASW D HRMM SECON CODA AMPLIT PERI AZIMU VELO AIN AR TRES W  DIS CAZ7

 2018  811 2122 22.1 L  10.320 -68.111 15.2  FUN    0.4 2.7WFUN                1
 ACTION:ARG 19-10-14 15:45 OP:OBSP STATUS:               ID:20180811212222     I
 DUMMY                                                                         6
 STAT SP IPHASW D HRMM SECON CODA AMPLIT PERI AZIMU VELO AIN AR TRES W  DIS CAZ7

 2018  813 1433 45.9 L   9.825 -68.725 13.0  FUN    0.7 2.1WFUN                1
 ACTION:ARG 19-10-14 15:45 OP:OBSP STATUS:               ID:20180813143345     I
 DUMMY                                                                         6
 STAT SP IPHASW D HRMM SECON CODA AMPLIT PERI AZIMU VELO AIN AR TRES W  DIS CAZ7

 2018  815  246 43.3 L  10.557 -68.087 26.0  FUN    0.7 2.7WFUN                1
 ACTION:ARG 19-10-14 15:45 OP:OBSP STATUS:               ID:20180815024643     I
 DUMMY                                                                         6
 STAT SP IPHASW D HRMM SECON CODA AMPLIT PERI AZIMU VELO AIN AR TRES W  DIS CAZ7

 2018  815  250 11.6 L  10.562 -68.072 27.7  FUN    0.3 2.5WFUN                1
 ACTION:ARG 19-10-14 15:45 OP:OBSP STATUS:               ID:20180815025011     I
 DUMMY                                                                         6
 STAT SP IPHASW D HRMM SECON CODA AMPLIT PERI AZIMU VELO AIN AR TRES W  DIS CAZ7

 2018  815  258 32.6 L  10.479 -68.092  7.8  FUN    0.6 2.2WFUN                1
 ACTION:ARG 19-10-14 15:45 OP:OBSP STATUS:               ID:20180815025832     I
 DUMMY                                                                         6
 STAT SP IPHASW D HRMM SECON CODA AMPLIT PERI AZIMU VELO AIN AR TRES W  DIS CAZ7

 2018  815  3 4 13.5 L  10.521 -68.073 28.9  FUN    0.4 2.8WFUN                1
 ACTION:ARG 19-10-14 15:45 OP:OBSP STATUS:               ID:20180815030413     I
 DUMMY                                                                         6
 STAT SP IPHASW D HRMM SECON CODA AMPLIT PERI AZIMU VELO AIN AR TRES W  DIS CAZ7

 2018  816 2115 22.5 L  10.244 -68.030  0.6  FUN    0.3 1.9WFUN                1
 ACTION:ARG 19-10-14 15:45 OP:OBSP STATUS:               ID:20180816211522     I
 DUMMY                                                                         6
 STAT SP IPHASW D HRMM SECON CODA AMPLIT PERI AZIMU VELO AIN AR TRES W  DIS CAZ7

 2018  817  826 51.8 L  10.416 -68.382 17.8  FUN    0.5 2.1WFUN                1
 ACTION:ARG 19-10-14 15:45 OP:OBSP STATUS:               ID:20180817082651     I
 DUMMY                                                                         6
 STAT SP IPHASW D HRMM SECON CODA AMPLIT PERI AZIMU VELO AIN AR TRES W  DIS CAZ7

 2018  817 1815 34.4 L  10.221 -68.079 15.8  FUN    0.3 2.5WFUN                1
 ACTION:ARG 19-10-14 15:45 OP:OBSP STATUS:               ID:20180817181534     I
 DUMMY                                                                         6
 STAT SP IPHASW D HRMM SECON CODA AMPLIT PERI AZIMU VELO AIN AR TRES W  DIS CAZ7

 2018  823  116 44.9 L  10.333 -67.772 19.0  FUN    0.4 1.7WFUN                1
 ACTION:ARG 19-10-14 15:45 OP:OBSP STATUS:               ID:20180823011644     I
 DUMMY                                                                         6
 STAT SP IPHASW D HRMM SECON CODA AMPLIT PERI AZIMU VELO AIN AR TRES W  DIS CAZ7

 2018  825  321  7.9 L  10.429 -68.116 22.9  FUN    0.4 1.8WFUN                1
 ACTION:ARG 19-10-14 15:45 OP:OBSP STATUS:               ID:20180825032107     I
 DUMMY                                                                         6
 STAT SP IPHASW D HRMM SECON CODA AMPLIT PERI AZIMU VELO AIN AR TRES W  DIS CAZ7

 2018  825  323 11.4 L  10.487 -68.018 29.3  FUN    0.5 1.9WFUN                1
 ACTION:ARG 19-10-14 15:45 OP:OBSP STATUS:               ID:20180825032311     I
 DUMMY                                                                         6
 STAT SP IPHASW D HRMM SECON CODA AMPLIT PERI AZIMU VELO AIN AR TRES W  DIS CAZ7

 2018  828 1442 17.5 L  10.392 -68.077 23.5  FUN    0.3 2.1WFUN                1
 ACTION:ARG 19-10-14 15:45 OP:OBSP STATUS:               ID:20180828144217     I
 DUMMY                                                                         6
 STAT SP IPHASW D HRMM SECON CODA AMPLIT PERI AZIMU VELO AIN AR TRES W  DIS CAZ7

 2018  831  4 3 15.7 L  10.079 -67.770  8.6  FUN    0.2 1.3WFUN                1
 ACTION:ARG 19-10-14 15:45 OP:OBSP STATUS:               ID:20180831040315     I
 DUMMY                                                                         6
 STAT SP IPHASW D HRMM SECON CODA AMPLIT PERI AZIMU VELO AIN AR TRES W  DIS CAZ7

 2018  9 2 1811 58.4 L  10.061 -67.837  2.8  FUN    0.1 2.1WFUN                1
 ACTION:ARG 19-10-14 15:45 OP:OBSP STATUS:               ID:20180902181158     I
 DUMMY                                                                         6
 STAT SP IPHASW D HRMM SECON CODA AMPLIT PERI AZIMU VELO AIN AR TRES W  DIS CAZ7

 2018  9 2 1945 12.2 L  10.458 -67.787  8.1  FUN    0.4 2.6WFUN                1
 ACTION:ARG 19-10-14 15:45 OP:OBSP STATUS:               ID:20180902194512     I
 DUMMY                                                                         6
 STAT SP IPHASW D HRMM SECON CODA AMPLIT PERI AZIMU VELO AIN AR TRES W  DIS CAZ7

 2018  9 4 1047 21.8 L  10.335 -68.109 16.8  FUN    0.5 2.8WFUN                1
 ACTION:ARG 19-10-14 15:45 OP:OBSP STATUS:               ID:20180904104721     I
 DUMMY                                                                         6
 STAT SP IPHASW D HRMM SECON CODA AMPLIT PERI AZIMU VELO AIN AR TRES W  DIS CAZ7

 2018  9 5 1243 45.0 L  10.433 -67.995 29.4  FUN    0.2 2.0WFUN                1
 ACTION:ARG 19-10-14 15:45 OP:OBSP STATUS:               ID:20180905124345     I
 DUMMY                                                                         6
 STAT SP IPHASW D HRMM SECON CODA AMPLIT PERI AZIMU VELO AIN AR TRES W  DIS CAZ7

 2018  9 6 1335 44.6 L  10.163 -68.104 18.3  FUN    0.2 1.8WFUN                1
 ACTION:ARG 19-10-14 15:45 OP:OBSP STATUS:               ID:20180906133544     I
 DUMMY                                                                         6
 STAT SP IPHASW D HRMM SECON CODA AMPLIT PERI AZIMU VELO AIN AR TRES W  DIS CAZ7

 2018  9 7  448 43.6 L   9.697 -67.724 47.7  FUN    0.1                        1
 ACTION:ARG 19-10-14 15:45 OP:OBSP STATUS:               ID:20180907044843     I
 DUMMY                                                                         6
 STAT SP IPHASW D HRMM SECON CODA AMPLIT PERI AZIMU VELO AIN AR TRES W  DIS CAZ7

 2018  9 7  859 44.0 L   9.952 -67.747  5.0  FUN    0.5 1.8WFUN                1
 ACTION:ARG 19-10-14 15:45 OP:OBSP STATUS:               ID:20180907085944     I
 DUMMY                                                                         6
 STAT SP IPHASW D HRMM SECON CODA AMPLIT PERI AZIMU VELO AIN AR TRES W  DIS CAZ7

 2018  9 7 1657 36.7 L  10.190 -68.150 19.3  FUN    0.2 1.8WFUN                1
 ACTION:ARG 19-10-14 15:45 OP:OBSP STATUS:               ID:20180907165736     I
 DUMMY                                                                         6
 STAT SP IPHASW D HRMM SECON CODA AMPLIT PERI AZIMU VELO AIN AR TRES W  DIS CAZ7

 2018  918  139  9.3 L  10.129 -67.111  1.0  FUN    0.4 3.0WFUN                1
 ACTION:ARG 19-10-14 15:45 OP:OBSP STATUS:               ID:20180918013909     I
 DUMMY                                                                         6
 STAT SP IPHASW D HRMM SECON CODA AMPLIT PERI AZIMU VELO AIN AR TRES W  DIS CAZ7

 2018  920 1152 17.4 L  10.332 -67.604 11.8  FUN    0.1 1.9WFUN                1
 ACTION:ARG 19-10-14 15:45 OP:OBSP STATUS:               ID:20180920115217     I
 DUMMY                                                                         6
 STAT SP IPHASW D HRMM SECON CODA AMPLIT PERI AZIMU VELO AIN AR TRES W  DIS CAZ7

 2018  920 2339 46.2 L   9.610 -68.624 26.6  FUN    0.6 2.6WFUN                1
 ACTION:ARG 19-10-14 15:45 OP:OBSP STATUS:               ID:20180920233946     I
 DUMMY                                                                         6
 STAT SP IPHASW D HRMM SECON CODA AMPLIT PERI AZIMU VELO AIN AR TRES W  DIS CAZ7

 2018  921 1549 31.5 L   9.902 -68.687  9.0  FUN    0.4 2.4WFUN                1
 ACTION:ARG 19-10-14 15:45 OP:OBSP STATUS:               ID:20180921154931     I
 DUMMY                                                                         6
 STAT SP IPHASW D HRMM SECON CODA AMPLIT PERI AZIMU VELO AIN AR TRES W  DIS CAZ7

 2018  921 2314 16.7 L  10.411 -67.719  3.5  FUN    0.1 2.2WFUN                1
 ACTION:ARG 19-10-14 15:45 OP:OBSP STATUS:               ID:20180921231416     I
 DUMMY                                                                         6
 STAT SP IPHASW D HRMM SECON CODA AMPLIT PERI AZIMU VELO AIN AR TRES W  DIS CAZ7

 2018  923 1310 23.6 L  10.532 -68.901  5.0  FUN    0.6 1.9WFUN                1
 ACTION:ARG 19-10-14 15:45 OP:OBSP STATUS:               ID:20180923131023     I
 DUMMY                                                                         6
 STAT SP IPHASW D HRMM SECON CODA AMPLIT PERI AZIMU VELO AIN AR TRES W  DIS CAZ7

 2018 10 7  853 10.8 L  10.178 -67.409  6.8  FUN    0.2 2.5WFUN                1
 ACTION:ARG 19-10-14 15:45 OP:OBSP STATUS:               ID:20181007085310     I
 DUMMY                                                                         6
 STAT SP IPHASW D HRMM SECON CODA AMPLIT PERI AZIMU VELO AIN AR TRES W  DIS CAZ7

 2018 10 8 2114 35.1 L  10.252 -67.603  7.2  FUN    0.1 2.0WFUN                1
 ACTION:ARG 19-10-14 15:45 OP:OBSP STATUS:               ID:20181008211435     I
 DUMMY                                                                         6
 STAT SP IPHASW D HRMM SECON CODA AMPLIT PERI AZIMU VELO AIN AR TRES W  DIS CAZ7

 2018 10 8 2115 43.9 L  10.255 -67.598  7.3  FUN    0.1 1.4WFUN                1
 ACTION:ARG 19-10-14 15:45 OP:OBSP STATUS:               ID:20181008211543     I
 DUMMY                                                                         6
 STAT SP IPHASW D HRMM SECON CODA AMPLIT PERI AZIMU VELO AIN AR TRES W  DIS CAZ7

 2018 10 8 2128 39.2 L  10.204 -67.688  4.8  FUN    0.1 1.7WFUN                1
 ACTION:ARG 19-10-14 15:45 OP:OBSP STATUS:               ID:20181008212839     I
 DUMMY                                                                         6
 STAT SP IPHASW D HRMM SECON CODA AMPLIT PERI AZIMU VELO AIN AR TRES W  DIS CAZ7

 2018 1010 1552 32.4 L  10.193 -67.787 10.1  FUN    0.1 2.9WFUN                1
 ACTION:ARG 19-10-14 15:45 OP:OBSP STATUS:               ID:20181010155232     I
 DUMMY                                                                         6
 STAT SP IPHASW D HRMM SECON CODA AMPLIT PERI AZIMU VELO AIN AR TRES W  DIS CAZ7

 2018 1013  238 36.4 L   9.792 -68.725  9.2  FUN    0.3 2.3WFUN                1
 ACTION:ARG 19-10-14 15:45 OP:OBSP STATUS:               ID:20181013023836     I
 DUMMY                                                                         6
 STAT SP IPHASW D HRMM SECON CODA AMPLIT PERI AZIMU VELO AIN AR TRES W  DIS CAZ7

 2018 1014  031 55.1 L  10.172 -67.854  6.8  FUN    0.2 2.1WFUN                1
 ACTION:ARG 19-10-14 15:45 OP:OBSP STATUS:               ID:20181014003155     I
 DUMMY                                                                         6
 STAT SP IPHASW D HRMM SECON CODA AMPLIT PERI AZIMU VELO AIN AR TRES W  DIS CAZ7

 2018 1014  4 3 49.1 L  10.188 -67.824  7.2  FUN    0.4 2.4WFUN                1
 ACTION:ARG 19-10-14 15:45 OP:OBSP STATUS:               ID:20181014040349     I
 DUMMY                                                                         6
 STAT SP IPHASW D HRMM SECON CODA AMPLIT PERI AZIMU VELO AIN AR TRES W  DIS CAZ7

 2018 1018  138 55.2 L  10.135 -67.897 12.7  FUN    0.6 2.2WFUN                1
 ACTION:ARG 19-10-14 15:45 OP:OBSP STATUS:               ID:20181018013855     I
 DUMMY                                                                         6
 STAT SP IPHASW D HRMM SECON CODA AMPLIT PERI AZIMU VELO AIN AR TRES W  DIS CAZ7

 2018 1018  151 25.7 L   9.935 -68.225 14.9  FUN    0.5 2.2WFUN                1
 ACTION:ARG 19-10-14 15:45 OP:OBSP STATUS:               ID:20181018015125     I
 DUMMY                                                                         6
 STAT SP IPHASW D HRMM SECON CODA AMPLIT PERI AZIMU VELO AIN AR TRES W  DIS CAZ7

 2018 1018  2 9 38.3 L   9.970 -68.222 13.7  FUN    0.3 2.3WFUN                1
 ACTION:ARG 19-10-14 15:45 OP:OBSP STATUS:               ID:20181018020938     I
 DUMMY                                                                         6
 STAT SP IPHASW D HRMM SECON CODA AMPLIT PERI AZIMU VELO AIN AR TRES W  DIS CAZ7

 2018 1018  214 11.6 L   9.982 -68.196  4.8  FUN    0.4 2.1WFUN                1
 ACTION:ARG 19-10-14 15:45 OP:OBSP STATUS:               ID:20181018021411     I
 DUMMY                                                                         6
 STAT SP IPHASW D HRMM SECON CODA AMPLIT PERI AZIMU VELO AIN AR TRES W  DIS CAZ7

 2018 1022  850  8.9 L  10.393 -68.605  6.5  FUN    0.5 2.7WFUN                1
 ACTION:ARG 19-10-14 15:45 OP:OBSP STATUS:               ID:20181022085008     I
 DUMMY                                                                         6
 STAT SP IPHASW D HRMM SECON CODA AMPLIT PERI AZIMU VELO AIN AR TRES W  DIS CAZ7

 2018 1024 1058 27.4 L  10.200 -67.772 15.3  FUN    0.2 1.9WFUN                1
 ACTION:ARG 19-10-14 15:45 OP:OBSP STATUS:               ID:20181024105827     I
 DUMMY                                                                         6
 STAT SP IPHASW D HRMM SECON CODA AMPLIT PERI AZIMU VELO AIN AR TRES W  DIS CAZ7

 2018 1025 19 4 21.9 L   9.959 -67.206 11.9  FUN    0.3 2.1WFUN                1
 ACTION:ARG 19-10-14 15:45 OP:OBSP STATUS:               ID:20181025190421     I
 DUMMY                                                                         6
 STAT SP IPHASW D HRMM SECON CODA AMPLIT PERI AZIMU VELO AIN AR TRES W  DIS CAZ7

 2018 1026 12 0 50.5 L  10.281 -67.631  5.7  FUN    0.1 1.8WFUN                1
 ACTION:ARG 19-10-14 15:45 OP:OBSP STATUS:               ID:20181026120050     I
 DUMMY                                                                         6
 STAT SP IPHASW D HRMM SECON CODA AMPLIT PERI AZIMU VELO AIN AR TRES W  DIS CAZ7

 2018 1028  9 8 20.7 L  10.311 -68.096 20.1  FUN    0.3 1.7WFUN                1
 ACTION:ARG 19-10-14 15:45 OP:OBSP STATUS:               ID:20181028090820     I
 DUMMY                                                                         6
 STAT SP IPHASW D HRMM SECON CODA AMPLIT PERI AZIMU VELO AIN AR TRES W  DIS CAZ7

 2018 1028 1227  6.2 L  10.651 -67.643  5.0  FUN    0.6 1.5WFUN                1
 ACTION:ARG 19-10-14 15:45 OP:OBSP STATUS:               ID:20181028122706     I
 DUMMY                                                                         6
 STAT SP IPHASW D HRMM SECON CODA AMPLIT PERI AZIMU VELO AIN AR TRES W  DIS CAZ7

 2018 11 4 12 9 51.9 L  10.328 -68.125 14.4  FUN    0.5 2.3WFUN                1
 ACTION:ARG 19-10-14 15:45 OP:OBSP STATUS:               ID:20181104120951     I
 DUMMY                                                                         6
 STAT SP IPHASW D HRMM SECON CODA AMPLIT PERI AZIMU VELO AIN AR TRES W  DIS CAZ7

 2018 1110 14 9  7.8 L  10.293 -68.095 11.9  FUN    0.4 2.6WFUN                1
 ACTION:ARG 19-10-14 15:45 OP:OBSP STATUS:               ID:20181110140907     I
 DUMMY                                                                         6
 STAT SP IPHASW D HRMM SECON CODA AMPLIT PERI AZIMU VELO AIN AR TRES W  DIS CAZ7

 2018 1110 1818 37.7 L  10.013 -68.561  5.6  FUN    0.3 2.1WFUN                1
 ACTION:ARG 19-10-14 15:45 OP:OBSP STATUS:               ID:20181110181837     I
 DUMMY                                                                         6
 STAT SP IPHASW D HRMM SECON CODA AMPLIT PERI AZIMU VELO AIN AR TRES W  DIS CAZ7

 2018 1115  038 24.9 L  10.143 -67.275 12.9  FUN    0.2 2.6WFUN                1
 ACTION:ARG 19-10-14 15:45 OP:OBSP STATUS:               ID:20181115003824     I
 DUMMY                                                                         6
 STAT SP IPHASW D HRMM SECON CODA AMPLIT PERI AZIMU VELO AIN AR TRES W  DIS CAZ7

 2018 1119  616 28.0 L  10.371 -67.780 25.7  FUN    0.4 2.1WFUN                1
 ACTION:ARG 19-10-14 15:45 OP:OBSP STATUS:               ID:20181119061628     I
 DUMMY                                                                         6
 STAT SP IPHASW D HRMM SECON CODA AMPLIT PERI AZIMU VELO AIN AR TRES W  DIS CAZ7

 2018 1121  913 18.8 L  10.221 -67.875  7.3  FUN    0.3 1.6WFUN                1
 ACTION:ARG 19-10-14 15:45 OP:OBSP STATUS:               ID:20181121091318     I
 DUMMY                                                                         6
 STAT SP IPHASW D HRMM SECON CODA AMPLIT PERI AZIMU VELO AIN AR TRES W  DIS CAZ7

 2018 1122 1521 26.2 L  10.232 -67.838 16.3  FUN    0.5 2.1WFUN                1
 ACTION:ARG 19-10-14 15:45 OP:OBSP STATUS:               ID:20181122152126     I
 DUMMY                                                                         6
 STAT SP IPHASW D HRMM SECON CODA AMPLIT PERI AZIMU VELO AIN AR TRES W  DIS CAZ7

 2018 1122 2021 28.9 L  10.203 -67.866  4.1  FUN    0.4 2.8WFUN                1
 ACTION:ARG 19-10-14 15:45 OP:OBSP STATUS:               ID:20181122202128     I
 DUMMY                                                                         6
 STAT SP IPHASW D HRMM SECON CODA AMPLIT PERI AZIMU VELO AIN AR TRES W  DIS CAZ7

 2018 1123  319 43.2 L  10.919 -67.490  7.7  FUN    0.3 2.0WFUN                1
 ACTION:ARG 19-10-14 15:45 OP:OBSP STATUS:               ID:20181123031943     I
 DUMMY                                                                         6
 STAT SP IPHASW D HRMM SECON CODA AMPLIT PERI AZIMU VELO AIN AR TRES W  DIS CAZ7

 2018 1126 2329 46.2 L  10.151 -67.633 16.0  FUN    0.4 2.0WFUN                1
 ACTION:ARG 19-10-14 15:45 OP:OBSP STATUS:               ID:20181126232946     I
 DUMMY                                                                         6
 STAT SP IPHASW D HRMM SECON CODA AMPLIT PERI AZIMU VELO AIN AR TRES W  DIS CAZ7

 2018 1126 2350 12.7 L  10.217 -67.641 15.7  FUN    0.4 1.9WFUN                1
 ACTION:ARG 19-10-14 15:45 OP:OBSP STATUS:               ID:20181126235012     I
 DUMMY                                                                         6
 STAT SP IPHASW D HRMM SECON CODA AMPLIT PERI AZIMU VELO AIN AR TRES W  DIS CAZ7

