 2018 1227 1234 32.3 L  10.348 -68.131 16.2  FUN    0.6 2.6WFUN                1
 ACTION:ARG 19-10-14 15:45 OP:OBSP STATUS:               ID:20181227123432     I
 DUMMY                                                                         6
 STAT SP IPHASW D HRMM SECON CODA AMPLIT PERI AZIMU VELO AIN AR TRES W  DIS CAZ7

 2018 1227 1236 25.9 L  10.281 -68.136 13.0  FUN    0.2 2.4WFUN                1
 ACTION:ARG 19-10-14 15:45 OP:OBSP STATUS:               ID:20181227123625     I
 DUMMY                                                                         6
 STAT SP IPHASW D HRMM SECON CODA AMPLIT PERI AZIMU VELO AIN AR TRES W  DIS CAZ7

 2018 1227 1245 51.6 L  10.218 -68.111 17.8  FUN    0.6 3.1WFUN                1
 ACTION:ARG 19-10-14 15:45 OP:OBSP STATUS:               ID:20181227124551     I
 DUMMY                                                                         6
 STAT SP IPHASW D HRMM SECON CODA AMPLIT PERI AZIMU VELO AIN AR TRES W  DIS CAZ7

 2018 1227 1248 49.1 L  10.296 -68.136 21.0  FUN    0.2 2.5WFUN                1
 ACTION:ARG 19-10-14 15:45 OP:OBSP STATUS:               ID:20181227124849     I
 DUMMY                                                                         6
 STAT SP IPHASW D HRMM SECON CODA AMPLIT PERI AZIMU VELO AIN AR TRES W  DIS CAZ7

 2018 1227 1251 51.2 L  10.202 -68.129 12.9  FUN    0.3 2.2WFUN                1
 ACTION:ARG 19-10-14 15:45 OP:OBSP STATUS:               ID:20181227125151     I
 DUMMY                                                                         6
 STAT SP IPHASW D HRMM SECON CODA AMPLIT PERI AZIMU VELO AIN AR TRES W  DIS CAZ7

 2018 1227 1256  9.5 L  10.311 -68.122 14.9  FUN    0.3 2.5WFUN                1
 ACTION:ARG 19-10-14 15:45 OP:OBSP STATUS:               ID:20181227125609     I
 DUMMY                                                                         6
 STAT SP IPHASW D HRMM SECON CODA AMPLIT PERI AZIMU VELO AIN AR TRES W  DIS CAZ7

 2018 1227 13 2 25.0 L  10.202 -68.103  2.2  FUN    0.5 2.2WFUN                1
 ACTION:ARG 19-10-14 15:45 OP:OBSP STATUS:               ID:20181227130225     I
 DUMMY                                                                         6
 STAT SP IPHASW D HRMM SECON CODA AMPLIT PERI AZIMU VELO AIN AR TRES W  DIS CAZ7

 2018 1227 13 7 21.5 L  10.168 -68.109  5.0  FUN    0.4 2.1WFUN                1
 ACTION:ARG 19-10-14 15:45 OP:OBSP STATUS:               ID:20181227130721     I
 DUMMY                                                                         6
 STAT SP IPHASW D HRMM SECON CODA AMPLIT PERI AZIMU VELO AIN AR TRES W  DIS CAZ7

 2018 1227 1312 58.9 L  10.176 -68.112 20.7  FUN    0.5 2.0WFUN                1
 ACTION:ARG 19-10-14 15:45 OP:OBSP STATUS:               ID:20181227131258     I
 DUMMY                                                                         6
 STAT SP IPHASW D HRMM SECON CODA AMPLIT PERI AZIMU VELO AIN AR TRES W  DIS CAZ7

 2018 1227 1316  8.9 L  10.234 -68.145 14.4  FUN    0.3 2.6WFUN                1
 ACTION:ARG 19-10-14 15:45 OP:OBSP STATUS:               ID:20181227131608     I
 DUMMY                                                                         6
 STAT SP IPHASW D HRMM SECON CODA AMPLIT PERI AZIMU VELO AIN AR TRES W  DIS CAZ7

 2018 1227 1314 53.4 L  10.245 -68.119 17.8  FUN    0.4 2.6WFUN                1
 ACTION:ARG 19-10-14 15:45 OP:OBSP STATUS:               ID:20181227131453     I
 DUMMY                                                                         6
 STAT SP IPHASW D HRMM SECON CODA AMPLIT PERI AZIMU VELO AIN AR TRES W  DIS CAZ7

 2018 1227 1326 19.3 L  10.437 -68.084 17.8  FUN    0.4 2.1WFUN                1
 ACTION:ARG 19-10-14 15:45 OP:OBSP STATUS:               ID:20181227132619     I
 DUMMY                                                                         6
 STAT SP IPHASW D HRMM SECON CODA AMPLIT PERI AZIMU VELO AIN AR TRES W  DIS CAZ7

 2018 1227 1328 56.6 L  10.353 -68.167 16.8  FUN    0.3 1.6WFUN                1
 ACTION:ARG 19-10-14 15:45 OP:OBSP STATUS:               ID:20181227132856     I
 DUMMY                                                                         6
 STAT SP IPHASW D HRMM SECON CODA AMPLIT PERI AZIMU VELO AIN AR TRES W  DIS CAZ7

 2018 1227 1329 23.8 L  10.252 -68.157 15.0  FUN    0.1 1.9WFUN                1
 ACTION:ARG 19-10-14 15:45 OP:OBSP STATUS:               ID:20181227132923     I
 DUMMY                                                                         6
 STAT SP IPHASW D HRMM SECON CODA AMPLIT PERI AZIMU VELO AIN AR TRES W  DIS CAZ7

 2018 1227 1328 57.3 L  10.322 -68.154 15.0  FUN    0.1 1.6WFUN                1
 ACTION:ARG 19-10-14 15:45 OP:OBSP STATUS:               ID:20181227132857     I
 DUMMY                                                                         6
 STAT SP IPHASW D HRMM SECON CODA AMPLIT PERI AZIMU VELO AIN AR TRES W  DIS CAZ7

 2018 1227 1329 24.3 L  10.239 -68.149 16.4  FUN    0.2 1.9WFUN                1
 ACTION:ARG 19-10-14 15:45 OP:OBSP STATUS:               ID:20181227132924     I
 DUMMY                                                                         6
 STAT SP IPHASW D HRMM SECON CODA AMPLIT PERI AZIMU VELO AIN AR TRES W  DIS CAZ7

 2018 1227 1334 20.8 L  10.181 -68.032  5.0  FUN    0.2 1.7WFUN                1
 ACTION:ARG 19-10-14 15:45 OP:OBSP STATUS:               ID:20181227133420     I
 DUMMY                                                                         6
 STAT SP IPHASW D HRMM SECON CODA AMPLIT PERI AZIMU VELO AIN AR TRES W  DIS CAZ7

 2018 1227 1344 53.9 L  10.277 -68.135 22.6  FUN    0.6 2.7WFUN                1
 ACTION:ARG 19-10-14 15:45 OP:OBSP STATUS:               ID:20181227134453     I
 DUMMY                                                                         6
 STAT SP IPHASW D HRMM SECON CODA AMPLIT PERI AZIMU VELO AIN AR TRES W  DIS CAZ7

 2018 1227 1346 59.3 L  10.222 -68.116 18.2  FUN    0.4 2.5WFUN                1
 ACTION:ARG 19-10-14 15:45 OP:OBSP STATUS:               ID:20181227134659     I
 DUMMY                                                                         6
 STAT SP IPHASW D HRMM SECON CODA AMPLIT PERI AZIMU VELO AIN AR TRES W  DIS CAZ7

 2018 1227 1356 33.3 L  10.262 -68.122 16.5  FUN    0.2 2.4WFUN                1
 ACTION:ARG 19-10-14 15:45 OP:OBSP STATUS:               ID:20181227135633     I
 DUMMY                                                                         6
 STAT SP IPHASW D HRMM SECON CODA AMPLIT PERI AZIMU VELO AIN AR TRES W  DIS CAZ7

 2018 1227 1357 52.2 L  10.344 -68.092 13.5  FUN    0.4 1.8WFUN                1
 ACTION:ARG 19-10-14 15:45 OP:OBSP STATUS:               ID:20181227135752     I
 DUMMY                                                                         6
 STAT SP IPHASW D HRMM SECON CODA AMPLIT PERI AZIMU VELO AIN AR TRES W  DIS CAZ7

 2018 1227 14 3 37.5 L  10.284 -68.151 12.4  FUN    0.2 2.3WFUN                1
 ACTION:ARG 19-10-14 15:45 OP:OBSP STATUS:               ID:20181227140337     I
 DUMMY                                                                         6
 STAT SP IPHASW D HRMM SECON CODA AMPLIT PERI AZIMU VELO AIN AR TRES W  DIS CAZ7

 2018 1227 1422 25.1 L  10.423 -68.602 29.2  FUN    0.4 2.0WFUN                1
 ACTION:ARG 19-10-14 15:45 OP:OBSP STATUS:               ID:20181227142225     I
 DUMMY                                                                         6
 STAT SP IPHASW D HRMM SECON CODA AMPLIT PERI AZIMU VELO AIN AR TRES W  DIS CAZ7

 2018 1227 1425 16.2 L  10.313 -68.242 17.2  FUN    0.2 2.3WFUN                1
 ACTION:ARG 19-10-14 15:45 OP:OBSP STATUS:               ID:20181227142516     I
 DUMMY                                                                         6
 STAT SP IPHASW D HRMM SECON CODA AMPLIT PERI AZIMU VELO AIN AR TRES W  DIS CAZ7

 2018 1227 1429 11.5 L  10.268 -68.104 15.6  FUN    0.3 2.1WFUN                1
 ACTION:ARG 19-10-14 15:45 OP:OBSP STATUS:               ID:20181227142911     I
 DUMMY                                                                         6
 STAT SP IPHASW D HRMM SECON CODA AMPLIT PERI AZIMU VELO AIN AR TRES W  DIS CAZ7

 2018 1227 1432 43.6 L  10.415 -68.131 28.9  FUN    0.4 2.0WFUN                1
 ACTION:ARG 19-10-14 15:45 OP:OBSP STATUS:               ID:20181227143243     I
 DUMMY                                                                         6
 STAT SP IPHASW D HRMM SECON CODA AMPLIT PERI AZIMU VELO AIN AR TRES W  DIS CAZ7

 2018 1227 1450 22.4 L  10.266 -68.174 17.3  FUN    0.3 2.2WFUN                1
 ACTION:ARG 19-10-14 15:45 OP:OBSP STATUS:               ID:20181227145022     I
 DUMMY                                                                         6
 STAT SP IPHASW D HRMM SECON CODA AMPLIT PERI AZIMU VELO AIN AR TRES W  DIS CAZ7

 2018 1227 1452 59.2 L  10.461 -68.234 20.0  FUN    0.8 2.5WFUN                1
 ACTION:ARG 19-10-14 15:45 OP:OBSP STATUS:               ID:20181227145259     I
 DUMMY                                                                         6
 STAT SP IPHASW D HRMM SECON CODA AMPLIT PERI AZIMU VELO AIN AR TRES W  DIS CAZ7

 2018 1227 1459  5.3 L  10.241 -68.117  9.2  FUN    0.4 2.1WFUN                1
 ACTION:ARG 19-10-14 15:45 OP:OBSP STATUS:               ID:20181227145905     I
 DUMMY                                                                         6
 STAT SP IPHASW D HRMM SECON CODA AMPLIT PERI AZIMU VELO AIN AR TRES W  DIS CAZ7

 2018 1227 1542  2.1 L  10.302 -68.137 26.8  FUN    0.5 2.8WFUN                1
 ACTION:ARG 19-10-14 15:45 OP:OBSP STATUS:               ID:20181227154202     I
 DUMMY                                                                         6
 STAT SP IPHASW D HRMM SECON CODA AMPLIT PERI AZIMU VELO AIN AR TRES W  DIS CAZ7

 2018 1227 1548  9.1 L  10.200 -68.104  1.5  FUN    0.2 2.2WFUN                1
 ACTION:ARG 19-10-14 15:45 OP:OBSP STATUS:               ID:20181227154809     I
 DUMMY                                                                         6
 STAT SP IPHASW D HRMM SECON CODA AMPLIT PERI AZIMU VELO AIN AR TRES W  DIS CAZ7

 2018 1227 1612 15.8 L  10.160 -68.130  2.5  FUN    0.2 1.8WFUN                1
 ACTION:ARG 19-10-14 15:45 OP:OBSP STATUS:               ID:20181227161215     I
 DUMMY                                                                         6
 STAT SP IPHASW D HRMM SECON CODA AMPLIT PERI AZIMU VELO AIN AR TRES W  DIS CAZ7

 2018 1227 1613 11.2 L  10.398 -68.121 16.8  FUN    0.5 2.2WFUN                1
 ACTION:ARG 19-10-14 15:45 OP:OBSP STATUS:               ID:20181227161311     I
 DUMMY                                                                         6
 STAT SP IPHASW D HRMM SECON CODA AMPLIT PERI AZIMU VELO AIN AR TRES W  DIS CAZ7

 2018 1227 1618 49.9 L  10.220 -68.126 15.1  FUN    0.5 2.7WFUN                1
 ACTION:ARG 19-10-14 15:45 OP:OBSP STATUS:               ID:20181227161849     I
 DUMMY                                                                         6
 STAT SP IPHASW D HRMM SECON CODA AMPLIT PERI AZIMU VELO AIN AR TRES W  DIS CAZ7

 2018 1227 1622 37.2 L  10.205 -68.054  2.2  FUN    0.2 2.1WFUN                1
 ACTION:ARG 19-10-14 15:45 OP:OBSP STATUS:               ID:20181227162237     I
 DUMMY                                                                         6
 STAT SP IPHASW D HRMM SECON CODA AMPLIT PERI AZIMU VELO AIN AR TRES W  DIS CAZ7

 2018 1227 1634  2.8 L  10.464 -68.286 23.8  FUN    0.3 1.8WFUN                1
 ACTION:ARG 19-10-14 15:45 OP:OBSP STATUS:               ID:20181227163402     I
 DUMMY                                                                         6
 STAT SP IPHASW D HRMM SECON CODA AMPLIT PERI AZIMU VELO AIN AR TRES W  DIS CAZ7

 2018 1227 1638 19.8 L  10.313 -68.206 17.5  FUN    0.4 2.0WFUN                1
 ACTION:ARG 19-10-14 15:45 OP:OBSP STATUS:               ID:20181227163819     I
 DUMMY                                                                         6
 STAT SP IPHASW D HRMM SECON CODA AMPLIT PERI AZIMU VELO AIN AR TRES W  DIS CAZ7

 2018 1227 1642 29.9 L  10.248 -68.136  1.2  FUN    0.1 2.3WFUN                1
 ACTION:ARG 19-10-14 15:45 OP:OBSP STATUS:               ID:20181227164229     I
 DUMMY                                                                         6
 STAT SP IPHASW D HRMM SECON CODA AMPLIT PERI AZIMU VELO AIN AR TRES W  DIS CAZ7

 2018 1227 1724 56.9 L  10.468 -68.200  5.0  FUN    0.5 1.9WFUN                1
 ACTION:ARG 19-10-14 15:45 OP:OBSP STATUS:               ID:20181227172456     I
 DUMMY                                                                         6
 STAT SP IPHASW D HRMM SECON CODA AMPLIT PERI AZIMU VELO AIN AR TRES W  DIS CAZ7

 2018 1227 1736 57.1 L  10.346 -67.897 16.6  FUN    0.6 2.1WFUN                1
 ACTION:ARG 19-10-14 15:45 OP:OBSP STATUS:               ID:20181227173657     I
 DUMMY                                                                         6
 STAT SP IPHASW D HRMM SECON CODA AMPLIT PERI AZIMU VELO AIN AR TRES W  DIS CAZ7

 2018 1227 1743 25.9 L  10.236 -68.123 17.0  FUN    0.4 2.2WFUN                1
 ACTION:ARG 19-10-14 15:45 OP:OBSP STATUS:               ID:20181227174325     I
 DUMMY                                                                         6
 STAT SP IPHASW D HRMM SECON CODA AMPLIT PERI AZIMU VELO AIN AR TRES W  DIS CAZ7

 2018 1227 1747 28.7 L  10.268 -68.971 28.2  FUN    0.6 2.9WFUN                1
 ACTION:ARG 19-10-14 15:45 OP:OBSP STATUS:               ID:20181227174728     I
 DUMMY                                                                         6
 STAT SP IPHASW D HRMM SECON CODA AMPLIT PERI AZIMU VELO AIN AR TRES W  DIS CAZ7

 2018 1227 1756 45.4 L   9.613 -68.079  9.3  FUN    0.3 3.1WFUN                1
 ACTION:ARG 19-10-14 15:45 OP:OBSP STATUS:               ID:20181227175645     I
 DUMMY                                                                         6
 STAT SP IPHASW D HRMM SECON CODA AMPLIT PERI AZIMU VELO AIN AR TRES W  DIS CAZ7

 2018 1227 1757 49.4 L  11.387 -67.782 21.9  FUN    0.4 2.3WFUN                1
 ACTION:ARG 19-10-14 15:45 OP:OBSP STATUS:               ID:20181227175749     I
 DUMMY                                                                         6
 STAT SP IPHASW D HRMM SECON CODA AMPLIT PERI AZIMU VELO AIN AR TRES W  DIS CAZ7

 2018 1227 1943 28.1 L  10.265 -68.151 15.8  FUN    0.4 2.5WFUN                1
 ACTION:ARG 19-10-14 15:45 OP:OBSP STATUS:               ID:20181227194328     I
 DUMMY                                                                         6
 STAT SP IPHASW D HRMM SECON CODA AMPLIT PERI AZIMU VELO AIN AR TRES W  DIS CAZ7

 2018 1227 1952 10.9 L  10.147 -68.107 15.0  FUN    0.3 2.1WFUN                1
 ACTION:ARG 19-10-14 15:45 OP:OBSP STATUS:               ID:20181227195210     I
 DUMMY                                                                         6
 STAT SP IPHASW D HRMM SECON CODA AMPLIT PERI AZIMU VELO AIN AR TRES W  DIS CAZ7

 2018 1227 2011 41.5 L  10.237 -68.084  2.8  FUN    0.3 2.1WFUN                1
 ACTION:ARG 19-10-14 15:45 OP:OBSP STATUS:               ID:20181227201141     I
 DUMMY                                                                         6
 STAT SP IPHASW D HRMM SECON CODA AMPLIT PERI AZIMU VELO AIN AR TRES W  DIS CAZ7

 2018 1227 2033 43.5 L  10.259 -68.111  9.8  FUN    0.2 2.1WFUN                1
 ACTION:ARG 19-10-14 15:45 OP:OBSP STATUS:               ID:20181227203343     I
 DUMMY                                                                         6
 STAT SP IPHASW D HRMM SECON CODA AMPLIT PERI AZIMU VELO AIN AR TRES W  DIS CAZ7

 2018 1227 2031 48.2 L   9.852 -68.877  0.0  FUN    0.7                        1
 ACTION:ARG 19-10-14 15:45 OP:OBSP STATUS:               ID:20181227203148     I
 DUMMY                                                                         6
 STAT SP IPHASW D HRMM SECON CODA AMPLIT PERI AZIMU VELO AIN AR TRES W  DIS CAZ7

 2018 1227 2036 54.6 L  10.628 -68.911 98.4  FUN    0.4 2.5WFUN                1
 ACTION:ARG 19-10-14 15:45 OP:OBSP STATUS:               ID:20181227203654     I
 DUMMY                                                                         6
 STAT SP IPHASW D HRMM SECON CODA AMPLIT PERI AZIMU VELO AIN AR TRES W  DIS CAZ7

 2018 1227 2046 58.7 L  10.213 -68.086  1.6  FUN    0.6 2.6WFUN                1
 ACTION:ARG 19-10-14 15:45 OP:OBSP STATUS:               ID:20181227204658     I
 DUMMY                                                                         6
 STAT SP IPHASW D HRMM SECON CODA AMPLIT PERI AZIMU VELO AIN AR TRES W  DIS CAZ7

 2018 1227 2113 12.5 L  10.214 -68.138  2.0  FUN    0.2 2.0WFUN                1
 ACTION:ARG 19-10-14 15:45 OP:OBSP STATUS:               ID:20181227211312     I
 DUMMY                                                                         6
 STAT SP IPHASW D HRMM SECON CODA AMPLIT PERI AZIMU VELO AIN AR TRES W  DIS CAZ7

 2018 1227 2123 46.0 L  10.222 -68.098  8.8  FUN    0.2 2.0WFUN                1
 ACTION:ARG 19-10-14 15:45 OP:OBSP STATUS:               ID:20181227212346     I
 DUMMY                                                                         6
 STAT SP IPHASW D HRMM SECON CODA AMPLIT PERI AZIMU VELO AIN AR TRES W  DIS CAZ7

 2018 1227 2159  6.4 L  10.271 -68.142 13.2  FUN    0.2 2.3WFUN                1
 ACTION:ARG 19-10-14 15:45 OP:OBSP STATUS:               ID:20181227215906     I
 DUMMY                                                                         6
 STAT SP IPHASW D HRMM SECON CODA AMPLIT PERI AZIMU VELO AIN AR TRES W  DIS CAZ7

 2018 1227 22 6 10.2 L  10.250 -68.084 21.4  FUN    0.3 2.5WFUN                1
 ACTION:ARG 19-10-14 15:45 OP:OBSP STATUS:               ID:20181227220610     I
 DUMMY                                                                         6
 STAT SP IPHASW D HRMM SECON CODA AMPLIT PERI AZIMU VELO AIN AR TRES W  DIS CAZ7

 2018 1227 2242 16.9 L  10.327 -68.192 14.4  FUN    0.3 2.3WFUN                1
 ACTION:ARG 19-10-14 15:45 OP:OBSP STATUS:               ID:20181227224216     I
 DUMMY                                                                         6
 STAT SP IPHASW D HRMM SECON CODA AMPLIT PERI AZIMU VELO AIN AR TRES W  DIS CAZ7

 2018 1227 2259 59.5 L  10.204 -68.061  1.0  FUN    0.7 3.1WFUN                1
 ACTION:ARG 19-10-14 15:45 OP:OBSP STATUS:               ID:20181227225959     I
 DUMMY                                                                         6
 STAT SP IPHASW D HRMM SECON CODA AMPLIT PERI AZIMU VELO AIN AR TRES W  DIS CAZ7

 2018 1227 2346 49.3 L  10.265 -68.105 15.2  FUN    0.2 2.0WFUN                1
 ACTION:ARG 19-10-14 15:45 OP:OBSP STATUS:               ID:20181227234649     I
 DUMMY                                                                         6
 STAT SP IPHASW D HRMM SECON CODA AMPLIT PERI AZIMU VELO AIN AR TRES W  DIS CAZ7

 2018 1227 2349 38.1 L  10.318 -68.091 12.2  FUN    0.4 2.2WFUN                1
 ACTION:ARG 19-10-14 15:45 OP:OBSP STATUS:               ID:20181227234938     I
 DUMMY                                                                         6
 STAT SP IPHASW D HRMM SECON CODA AMPLIT PERI AZIMU VELO AIN AR TRES W  DIS CAZ7

 2018 1227 2351 46.5 L  10.297 -68.130 16.6  FUN    0.4 2.2WFUN                1
 ACTION:ARG 19-10-14 15:45 OP:OBSP STATUS:               ID:20181227235146     I
 DUMMY                                                                         6
 STAT SP IPHASW D HRMM SECON CODA AMPLIT PERI AZIMU VELO AIN AR TRES W  DIS CAZ7

 2018 1228  018 59.8 L  10.228 -68.115  5.0  FUN    0.6 3.2WFUN                1
 ACTION:ARG 19-10-14 15:45 OP:OBSP STATUS:               ID:20181228001859     I
 DUMMY                                                                         6
 STAT SP IPHASW D HRMM SECON CODA AMPLIT PERI AZIMU VELO AIN AR TRES W  DIS CAZ7

