 2018  6 5 1136  9.3 L  10.366 -68.157 19.4  FUN    0.6 2.4WFUN                1
 ACTION:ARG 19-10-14 15:45 OP:OBSP STATUS:               ID:20180605113609     I
 DUMMY                                                                         6
 STAT SP IPHASW D HRMM SECON CODA AMPLIT PERI AZIMU VELO AIN AR TRES W  DIS CAZ7

 2018  6 5 13 0 37.8 L  10.269 -68.087  5.0  FUN    0.3 1.9WFUN                1
 ACTION:ARG 19-10-14 15:45 OP:OBSP STATUS:               ID:20180605130037     I
 DUMMY                                                                         6
 STAT SP IPHASW D HRMM SECON CODA AMPLIT PERI AZIMU VELO AIN AR TRES W  DIS CAZ7

 2018  6 5 14 5 42.6 L  10.341 -68.173  5.0  FUN    0.4 1.6WFUN                1
 ACTION:ARG 19-10-14 15:45 OP:OBSP STATUS:               ID:20180605140542     I
 DUMMY                                                                         6
 STAT SP IPHASW D HRMM SECON CODA AMPLIT PERI AZIMU VELO AIN AR TRES W  DIS CAZ7

 2018  6 5 1441 16.3 L  10.342 -67.297 10.1  FUN    0.5 2.0WFUN                1
 ACTION:ARG 19-10-14 15:45 OP:OBSP STATUS:               ID:20180605144116     I
 DUMMY                                                                         6
 STAT SP IPHASW D HRMM SECON CODA AMPLIT PERI AZIMU VELO AIN AR TRES W  DIS CAZ7

 2018  6 6  124 37.5 L  10.274 -67.585  5.0  FUN    0.3 1.5WFUN                1
 ACTION:ARG 19-10-14 15:45 OP:OBSP STATUS:               ID:20180606012437     I
 DUMMY                                                                         6
 STAT SP IPHASW D HRMM SECON CODA AMPLIT PERI AZIMU VELO AIN AR TRES W  DIS CAZ7

 2018  6 8 1111  8.9 L  10.536 -67.759  6.1  FUN    0.2 1.9WFUN                1
 ACTION:ARG 19-10-14 15:45 OP:OBSP STATUS:               ID:20180608111108     I
 DUMMY                                                                         6
 STAT SP IPHASW D HRMM SECON CODA AMPLIT PERI AZIMU VELO AIN AR TRES W  DIS CAZ7

 2018  6 8 13 8 23.9 L  10.370 -67.961 28.2  FUN    0.2 2.0WFUN                1
 ACTION:ARG 19-10-14 15:45 OP:OBSP STATUS:               ID:20180608130823     I
 DUMMY                                                                         6
 STAT SP IPHASW D HRMM SECON CODA AMPLIT PERI AZIMU VELO AIN AR TRES W  DIS CAZ7

 2018  6 8 20 6 42.8 L  10.410 -68.063 25.6  FUN    0.5 2.7WFUN                1
 ACTION:ARG 19-10-14 15:45 OP:OBSP STATUS:               ID:20180608200642     I
 DUMMY                                                                         6
 STAT SP IPHASW D HRMM SECON CODA AMPLIT PERI AZIMU VELO AIN AR TRES W  DIS CAZ7

 2018  6 9 1224 30.8 L  10.491 -68.067 28.3  FUN    0.4 3.0WFUN                1
 ACTION:ARG 19-10-14 15:45 OP:OBSP STATUS:               ID:20180609122430     I
 DUMMY                                                                         6
 STAT SP IPHASW D HRMM SECON CODA AMPLIT PERI AZIMU VELO AIN AR TRES W  DIS CAZ7

 2018  610 1640 49.2 L   9.929 -67.220  5.0  FUN    0.4 2.2WFUN                1
 ACTION:ARG 19-10-14 15:45 OP:OBSP STATUS:               ID:20180610164049     I
 DUMMY                                                                         6
 STAT SP IPHASW D HRMM SECON CODA AMPLIT PERI AZIMU VELO AIN AR TRES W  DIS CAZ7

 2018  611 1415 47.3 L  10.353 -68.146 15.7  FUN    0.4 2.1WFUN                1
 ACTION:ARG 19-10-14 15:45 OP:OBSP STATUS:               ID:20180611141547     I
 DUMMY                                                                         6
 STAT SP IPHASW D HRMM SECON CODA AMPLIT PERI AZIMU VELO AIN AR TRES W  DIS CAZ7

 2018  613  641 43.0 L  10.243 -68.080 12.4  FUN    0.7 2.2WFUN                1
 ACTION:ARG 19-10-14 15:45 OP:OBSP STATUS:               ID:20180613064143     I
 DUMMY                                                                         6
 STAT SP IPHASW D HRMM SECON CODA AMPLIT PERI AZIMU VELO AIN AR TRES W  DIS CAZ7

 2018  614 1932  1.4 L   9.944 -67.226  1.5  FUN    0.3 2.0WFUN                1
 ACTION:ARG 19-10-14 15:45 OP:OBSP STATUS:               ID:20180614193201     I
 DUMMY                                                                         6
 STAT SP IPHASW D HRMM SECON CODA AMPLIT PERI AZIMU VELO AIN AR TRES W  DIS CAZ7

 2018  615 1357 15.3 L  10.407 -68.165 17.4  FUN    0.4 1.9WFUN                1
 ACTION:ARG 19-10-14 15:45 OP:OBSP STATUS:               ID:20180615135715     I
 DUMMY                                                                         6
 STAT SP IPHASW D HRMM SECON CODA AMPLIT PERI AZIMU VELO AIN AR TRES W  DIS CAZ7

 2018  616  032 21.8 L  10.407 -68.061 27.3  FUN    0.1 1.7WFUN                1
 ACTION:ARG 19-10-14 15:45 OP:OBSP STATUS:               ID:20180616003221     I
 DUMMY                                                                         6
 STAT SP IPHASW D HRMM SECON CODA AMPLIT PERI AZIMU VELO AIN AR TRES W  DIS CAZ7

 2018  617 1229 40.2 L   9.919 -68.837  5.0  FUN    0.6 2.0WFUN                1
 ACTION:ARG 19-10-14 15:45 OP:OBSP STATUS:               ID:20180617122940     I
 DUMMY                                                                         6
 STAT SP IPHASW D HRMM SECON CODA AMPLIT PERI AZIMU VELO AIN AR TRES W  DIS CAZ7

 2018  618 1822  7.4 L  10.314 -68.095 12.3  FUN    0.3 1.9WFUN                1
 ACTION:ARG 19-10-14 15:45 OP:OBSP STATUS:               ID:20180618182207     I
 DUMMY                                                                         6
 STAT SP IPHASW D HRMM SECON CODA AMPLIT PERI AZIMU VELO AIN AR TRES W  DIS CAZ7

 2018  622  0 3  7.6 L  10.224 -67.768  2.8  FUN    0.1 1.4WFUN                1
 ACTION:ARG 19-10-14 15:45 OP:OBSP STATUS:               ID:20180622000307     I
 DUMMY                                                                         6
 STAT SP IPHASW D HRMM SECON CODA AMPLIT PERI AZIMU VELO AIN AR TRES W  DIS CAZ7

 2018  622  016 18.5 L  10.337 -68.089 16.1  FUN    0.5 2.1WFUN                1
 ACTION:ARG 19-10-14 15:45 OP:OBSP STATUS:               ID:20180622001618     I
 DUMMY                                                                         6
 STAT SP IPHASW D HRMM SECON CODA AMPLIT PERI AZIMU VELO AIN AR TRES W  DIS CAZ7

 2018  628 1843 20.7 L  10.354 -68.074 22.3  FUN    0.2 1.7WFUN                1
 ACTION:ARG 19-10-14 15:45 OP:OBSP STATUS:               ID:20180628184320     I
 DUMMY                                                                         6
 STAT SP IPHASW D HRMM SECON CODA AMPLIT PERI AZIMU VELO AIN AR TRES W  DIS CAZ7

 2018  628 2224  4.9 L  10.368 -68.021 20.7  FUN    0.2 2.5WFUN                1
 ACTION:ARG 19-10-14 15:45 OP:OBSP STATUS:               ID:20180628222404     I
 DUMMY                                                                         6
 STAT SP IPHASW D HRMM SECON CODA AMPLIT PERI AZIMU VELO AIN AR TRES W  DIS CAZ7

 2018  629 1935 23.1 L  10.301 -68.777  5.0  FUN    0.8 3.7WFUN                1
 ACTION:ARG 19-10-14 15:45 OP:OBSP STATUS:               ID:20180629193523     I
 DUMMY                                                                         6
 STAT SP IPHASW D HRMM SECON CODA AMPLIT PERI AZIMU VELO AIN AR TRES W  DIS CAZ7

 2018  630  844 57.7 L  10.245 -68.134 15.7  FUN    0.3 1.8WFUN                1
 ACTION:ARG 19-10-14 15:45 OP:OBSP STATUS:               ID:20180630084457     I
 DUMMY                                                                         6
 STAT SP IPHASW D HRMM SECON CODA AMPLIT PERI AZIMU VELO AIN AR TRES W  DIS CAZ7

 2018  7 2 1557 55.9 L   9.955 -67.204 11.9  FUN    0.2 2.3WFUN                1
 ACTION:ARG 19-10-14 15:45 OP:OBSP STATUS:               ID:20180702155755     I
 DUMMY                                                                         6
 STAT SP IPHASW D HRMM SECON CODA AMPLIT PERI AZIMU VELO AIN AR TRES W  DIS CAZ7

 2018  7 4 1446  0.5 L  10.254 -67.294  5.0  FUN    0.8 1.8WFUN                1
 ACTION:ARG 19-10-14 15:45 OP:OBSP STATUS:               ID:20180704144600     I
 DUMMY                                                                         6
 STAT SP IPHASW D HRMM SECON CODA AMPLIT PERI AZIMU VELO AIN AR TRES W  DIS CAZ7

 2018  7 7 1821  3.3 L  10.727 -67.924  5.0  FUN    0.8 1.8WFUN                1
 ACTION:ARG 19-10-14 15:45 OP:OBSP STATUS:               ID:20180707182103     I
 DUMMY                                                                         6
 STAT SP IPHASW D HRMM SECON CODA AMPLIT PERI AZIMU VELO AIN AR TRES W  DIS CAZ7

 2018  7 9 1527 26.7 L  10.136 -67.554 20.6  FUN    0.4 1.9WFUN                1
 ACTION:ARG 19-10-14 15:45 OP:OBSP STATUS:               ID:20180709152726     I
 DUMMY                                                                         6
 STAT SP IPHASW D HRMM SECON CODA AMPLIT PERI AZIMU VELO AIN AR TRES W  DIS CAZ7

 2018  710  157  1.7 L  10.304 -68.091 12.6  FUN    0.5 2.3WFUN                1
 ACTION:ARG 19-10-14 15:45 OP:OBSP STATUS:               ID:20180710015701     I
 DUMMY                                                                         6
 STAT SP IPHASW D HRMM SECON CODA AMPLIT PERI AZIMU VELO AIN AR TRES W  DIS CAZ7

 2018  710 1346  6.1 L  10.065 -67.745  9.3  FUN    0.2 1.6WFUN                1
 ACTION:ARG 19-10-14 15:45 OP:OBSP STATUS:               ID:20180710134606     I
 DUMMY                                                                         6
 STAT SP IPHASW D HRMM SECON CODA AMPLIT PERI AZIMU VELO AIN AR TRES W  DIS CAZ7

 2018  711  1 9  5.9 L  10.402 -68.034 28.6  FUN    0.3 2.7WFUN                1
 ACTION:ARG 19-10-14 15:45 OP:OBSP STATUS:               ID:20180711010905     I
 DUMMY                                                                         6
 STAT SP IPHASW D HRMM SECON CODA AMPLIT PERI AZIMU VELO AIN AR TRES W  DIS CAZ7

 2018  711  141 47.9 L  10.096 -67.700  2.4  FUN    0.4 3.1WFUN                1
 ACTION:ARG 19-10-14 15:45 OP:OBSP STATUS:               ID:20180711014147     I
 DUMMY                                                                         6
 STAT SP IPHASW D HRMM SECON CODA AMPLIT PERI AZIMU VELO AIN AR TRES W  DIS CAZ7

 2018  711  323  7.7 L  10.618 -67.659  5.0  FUN    0.4 2.5WFUN                1
 ACTION:ARG 19-10-14 15:45 OP:OBSP STATUS:               ID:20180711032307     I
 DUMMY                                                                         6
 STAT SP IPHASW D HRMM SECON CODA AMPLIT PERI AZIMU VELO AIN AR TRES W  DIS CAZ7

 2018  711  449  0.9 L  10.281 -67.715  5.0  FUN    0.2 2.2WFUN                1
 ACTION:ARG 19-10-14 15:45 OP:OBSP STATUS:               ID:20180711044900     I
 DUMMY                                                                         6
 STAT SP IPHASW D HRMM SECON CODA AMPLIT PERI AZIMU VELO AIN AR TRES W  DIS CAZ7

 2018  711  453 31.6 L  10.115 -67.632  5.0  FUN    0.4 2.4WFUN                1
 ACTION:ARG 19-10-14 15:45 OP:OBSP STATUS:               ID:20180711045331     I
 DUMMY                                                                         6
 STAT SP IPHASW D HRMM SECON CODA AMPLIT PERI AZIMU VELO AIN AR TRES W  DIS CAZ7

 2018  711  723 53.3 L  10.585 -68.668  5.0  FUN    0.5 2.4WFUN                1
 ACTION:ARG 19-10-14 15:45 OP:OBSP STATUS:               ID:20180711072353     I
 DUMMY                                                                         6
 STAT SP IPHASW D HRMM SECON CODA AMPLIT PERI AZIMU VELO AIN AR TRES W  DIS CAZ7

 2018  711  954 39.3 L  10.000 -67.533 13.3  FUN    0.2 2.8WFUN                1
 ACTION:ARG 19-10-14 15:45 OP:OBSP STATUS:               ID:20180711095439     I
 DUMMY                                                                         6
 STAT SP IPHASW D HRMM SECON CODA AMPLIT PERI AZIMU VELO AIN AR TRES W  DIS CAZ7

 2018  711 2333 18.4 L  10.194 -67.083  3.5  FUN    0.5 2.2WFUN                1
 ACTION:ARG 19-10-14 15:45 OP:OBSP STATUS:               ID:20180711233318     I
 DUMMY                                                                         6
 STAT SP IPHASW D HRMM SECON CODA AMPLIT PERI AZIMU VELO AIN AR TRES W  DIS CAZ7

 2018  712  540 36.1 L  10.171 -67.749  2.9  FUN    0.5 2.9WFUN                1
 ACTION:ARG 19-10-14 15:45 OP:OBSP STATUS:               ID:20180712054036     I
 DUMMY                                                                         6
 STAT SP IPHASW D HRMM SECON CODA AMPLIT PERI AZIMU VELO AIN AR TRES W  DIS CAZ7

 2018  712  917 53.0 L  10.156 -67.737 15.7  FUN    0.3 2.0WFUN                1
 ACTION:ARG 19-10-14 15:45 OP:OBSP STATUS:               ID:20180712091753     I
 DUMMY                                                                         6
 STAT SP IPHASW D HRMM SECON CODA AMPLIT PERI AZIMU VELO AIN AR TRES W  DIS CAZ7

 2018  712 1428  3.2 L  10.230 -67.794  8.9  FUN    0.2 1.6WFUN                1
 ACTION:ARG 19-10-14 15:45 OP:OBSP STATUS:               ID:20180712142803     I
 DUMMY                                                                         6
 STAT SP IPHASW D HRMM SECON CODA AMPLIT PERI AZIMU VELO AIN AR TRES W  DIS CAZ7

 2018  715  835 22.5 L  10.300 -68.132 15.0  FUN    0.4 2.0WFUN                1
 ACTION:ARG 19-10-14 15:45 OP:OBSP STATUS:               ID:20180715083522     I
 DUMMY                                                                         6
 STAT SP IPHASW D HRMM SECON CODA AMPLIT PERI AZIMU VELO AIN AR TRES W  DIS CAZ7

 2018  715 2133  5.1 L  10.034 -67.237 28.2  FUN    0.3 2.6WFUN                1
 ACTION:ARG 19-10-14 15:45 OP:OBSP STATUS:               ID:20180715213305     I
 DUMMY                                                                         6
 STAT SP IPHASW D HRMM SECON CODA AMPLIT PERI AZIMU VELO AIN AR TRES W  DIS CAZ7

 2018  716  928 11.6 L  10.604 -67.561  1.6  FUN    0.4 2.8WFUN                1
 ACTION:ARG 19-10-14 15:45 OP:OBSP STATUS:               ID:20180716092811     I
 DUMMY                                                                         6
 STAT SP IPHASW D HRMM SECON CODA AMPLIT PERI AZIMU VELO AIN AR TRES W  DIS CAZ7

 2018  717  7 5 35.8 L  10.562 -67.680  1.9  FUN    0.1 1.5WFUN                1
 ACTION:ARG 19-10-14 15:45 OP:OBSP STATUS:               ID:20180717070535     I
 DUMMY                                                                         6
 STAT SP IPHASW D HRMM SECON CODA AMPLIT PERI AZIMU VELO AIN AR TRES W  DIS CAZ7

 2018  717 1856 37.9 L  10.004 -67.211 16.2  FUN    0.1 2.2WFUN                1
 ACTION:ARG 19-10-14 15:45 OP:OBSP STATUS:               ID:20180717185637     I
 DUMMY                                                                         6
 STAT SP IPHASW D HRMM SECON CODA AMPLIT PERI AZIMU VELO AIN AR TRES W  DIS CAZ7

 2018  717 2219 31.1 L  10.450 -67.790  9.4  FUN    0.5 2.0WFUN                1
 ACTION:ARG 19-10-14 15:45 OP:OBSP STATUS:               ID:20180717221931     I
 DUMMY                                                                         6
 STAT SP IPHASW D HRMM SECON CODA AMPLIT PERI AZIMU VELO AIN AR TRES W  DIS CAZ7

 2018  718  022 46.4 L  10.088 -67.741  2.1  FUN    0.3 2.1WFUN                1
 ACTION:ARG 19-10-14 15:45 OP:OBSP STATUS:               ID:20180718002246     I
 DUMMY                                                                         6
 STAT SP IPHASW D HRMM SECON CODA AMPLIT PERI AZIMU VELO AIN AR TRES W  DIS CAZ7

 2018  719  055 10.0 L  10.336 -68.108 11.3  FUN    0.4 2.8WFUN                1
 ACTION:ARG 19-10-14 15:45 OP:OBSP STATUS:               ID:20180719005510     I
 DUMMY                                                                         6
 STAT SP IPHASW D HRMM SECON CODA AMPLIT PERI AZIMU VELO AIN AR TRES W  DIS CAZ7

 2018  719  333 29.7 L  10.160 -68.168 30.5  FUN    0.3 2.9WFUN                1
 ACTION:ARG 19-10-14 15:45 OP:OBSP STATUS:               ID:20180719033329     I
 DUMMY                                                                         6
 STAT SP IPHASW D HRMM SECON CODA AMPLIT PERI AZIMU VELO AIN AR TRES W  DIS CAZ7

 2018  719 2039 34.5 L  10.332 -68.097 12.0  FUN    0.0 1.9WFUN                1
 ACTION:ARG 19-10-14 15:45 OP:OBSP STATUS:               ID:20180719203934     I
 DUMMY                                                                         6
 STAT SP IPHASW D HRMM SECON CODA AMPLIT PERI AZIMU VELO AIN AR TRES W  DIS CAZ7

 2018  720  750 24.7 L  10.781 -68.540  5.2  FUN    0.5 2.0WFUN                1
 ACTION:ARG 19-10-14 15:45 OP:OBSP STATUS:               ID:20180720075024     I
 DUMMY                                                                         6
 STAT SP IPHASW D HRMM SECON CODA AMPLIT PERI AZIMU VELO AIN AR TRES W  DIS CAZ7

 2018  720 1912 16.8 L   9.961 -67.222 17.7  FUN    0.3 1.5WFUN                1
 ACTION:ARG 19-10-14 15:45 OP:OBSP STATUS:               ID:20180720191216     I
 DUMMY                                                                         6
 STAT SP IPHASW D HRMM SECON CODA AMPLIT PERI AZIMU VELO AIN AR TRES W  DIS CAZ7

 2018  725 1239 44.7 L  10.674 -67.206  5.0  FUN    0.5 2.4WFUN                1
 ACTION:ARG 19-10-14 15:45 OP:OBSP STATUS:               ID:20180725123944     I
 DUMMY                                                                         6
 STAT SP IPHASW D HRMM SECON CODA AMPLIT PERI AZIMU VELO AIN AR TRES W  DIS CAZ7

 2018  727  629  5.9 L  10.637 -67.621 10.3  FUN    0.5 2.7WFUN                1
 ACTION:ARG 19-10-14 15:45 OP:OBSP STATUS:               ID:20180727062905     I
 DUMMY                                                                         6
 STAT SP IPHASW D HRMM SECON CODA AMPLIT PERI AZIMU VELO AIN AR TRES W  DIS CAZ7

 2018  728  537 37.1 L  10.160 -68.012  7.7  FUN    0.5 2.6WFUN                1
 ACTION:ARG 19-10-14 15:45 OP:OBSP STATUS:               ID:20180728053737     I
 DUMMY                                                                         6
 STAT SP IPHASW D HRMM SECON CODA AMPLIT PERI AZIMU VELO AIN AR TRES W  DIS CAZ7

 2018  729 1320  4.7 L  10.571 -68.105 14.9  FUN    0.5 2.2WFUN                1
 ACTION:ARG 19-10-14 15:45 OP:OBSP STATUS:               ID:20180729132004     I
 DUMMY                                                                         6
 STAT SP IPHASW D HRMM SECON CODA AMPLIT PERI AZIMU VELO AIN AR TRES W  DIS CAZ7

 2018  729 1432 45.8 L  10.451 -68.115  5.0  FUN    0.4 2.4WFUN                1
 ACTION:ARG 19-10-14 15:45 OP:OBSP STATUS:               ID:20180729143245     I
 DUMMY                                                                         6
 STAT SP IPHASW D HRMM SECON CODA AMPLIT PERI AZIMU VELO AIN AR TRES W  DIS CAZ7

 2018  729 1634 19.5 L  10.459 -68.107  5.0  FUN    0.5 2.4WFUN                1
 ACTION:ARG 19-10-14 15:45 OP:OBSP STATUS:               ID:20180729163419     I
 DUMMY                                                                         6
 STAT SP IPHASW D HRMM SECON CODA AMPLIT PERI AZIMU VELO AIN AR TRES W  DIS CAZ7

 2018  729 2317 41.2 L  10.168 -68.005 15.2  FUN    0.3 1.9WFUN                1
 ACTION:ARG 19-10-14 15:45 OP:OBSP STATUS:               ID:20180729231741     I
 DUMMY                                                                         6
 STAT SP IPHASW D HRMM SECON CODA AMPLIT PERI AZIMU VELO AIN AR TRES W  DIS CAZ7

 2018  730 12 0 42.9 L  10.320 -67.353  5.5  FUN    0.5 2.4WFUN                1
 ACTION:ARG 19-10-14 15:45 OP:OBSP STATUS:               ID:20180730120042     I
 DUMMY                                                                         6
 STAT SP IPHASW D HRMM SECON CODA AMPLIT PERI AZIMU VELO AIN AR TRES W  DIS CAZ7

 2018  730 12 8 54.0 L  10.333 -67.344  5.0  FUN    0.2 1.5WFUN                1
 ACTION:ARG 19-10-14 15:45 OP:OBSP STATUS:               ID:20180730120854     I
 DUMMY                                                                         6
 STAT SP IPHASW D HRMM SECON CODA AMPLIT PERI AZIMU VELO AIN AR TRES W  DIS CAZ7

