 2019  1 1  344 51.5 L  10.241 -68.175 12.2  FUN  5 0.2 2.0WFUN                1
 ACTION:ARG 19-10-15 16:13 OP:OBSP STATUS:               ID:20190101034451     I
 DUMMY                                                                         6
 STAT SP IPHASW D HRMM SECON CODA AMPLIT PERI AZIMU VELO AIN AR TRES W  DIS CAZ7
 MAPV HZ EP        345  0.90                                   -0.07   54.9 214 
 MAPV HN ES        345  7.88                                   -0.08   54.9 214 
 BENV HZ EP        345  3.12                                   -0.30   70.3 116 
 BENV HN ES        345 12.49                                    0.27   70.3 116 
 TERV HZ EP        345 10.65                                    0.06    116 255 
 TERV HN ES        345 24.86                                    0.16    116 255 
 TACV HZ EP        345 12.06                                   -0.24    126  95 
 TACV HN ES        345 27.85                                    0.17    126  95 
 BAUV HZ EP        345 15.19                                    0.08    144 174 
 BAUV HN ES        345 32.52                                   -0.04    144 174 
                                                                                

